{"type":"FeatureCollection","features":[{"type":"Feature","id":3226084563,"properties":{"aerodrome":"airsport","aeroway":"aerodrome","name":"เบสท์โอเชียน แอร์พาร์ค","name:en":"Best Ocean Airpark","name:th":"เบสท์โอเชียน แอร์พาร์ค","type":"private","@type":"node","@id":3226084563},"geometry":{"type":"Point","coordinates":[100.3283203,13.5422811]}},{"type":"Feature","id":3487486335,"properties":{"aeroway":"helipad","level":"16","@type":"node","@id":3487486335},"geometry":{"type":"Point","coordinates":[100.5522924,13.7456333]}},{"type":"Feature","id":4048055570,"properties":{"aeroway":"helipad","@type":"node","@id":4048055570},"geometry":{"type":"Point","coordinates":[100.4946649,13.6941445]}},{"type":"Feature","id":4054234627,"properties":{"aeroway":"helipad","@type":"node","@id":4054234627},"geometry":{"type":"Point","coordinates":[100.5088446,13.7800002]}},{"type":"Feature","id":4061411770,"properties":{"aeroway":"helipad","@type":"node","@id":4061411770},"geometry":{"type":"Point","coordinates":[100.6876109,13.8161696]}},{"type":"Feature","id":4417071398,"properties":{"aeroway":"helipad","name":"BBTV","@type":"node","@id":4417071398},"geometry":{"type":"Point","coordinates":[100.5573409,13.8018539]}},{"type":"Feature","id":4777151315,"properties":{"aeroway":"helipad","@type":"node","@id":4777151315},"geometry":{"type":"Point","coordinates":[100.5281331,13.7686856]}},{"type":"Feature","id":6232115485,"properties":{"aeroway":"helipad","amenity":"cafe","name:en":"Cafe Amazon","@type":"node","@id":6232115485},"geometry":{"type":"Point","coordinates":[100.5149916,13.7544451]}},{"type":"Feature","id":6601073093,"properties":{"aeroway":"helipad","@type":"node","@id":6601073093},"geometry":{"type":"Point","coordinates":[100.4342282,13.660462]}},{"type":"Feature","id":9721850704,"properties":{"aeroway":"helipad","name:en":"Thai Airways Headquarter Helipad","operator":"Thai Airways","@type":"node","@id":9721850704},"geometry":{"type":"Point","coordinates":[100.5610539,13.8047725]}},{"type":"Feature","id":9721850705,"properties":{"aeroway":"helipad","name:en":"Thai Airways Headquarter Helipad (Building 5)","operator":"Thai Airways","@type":"node","@id":9721850705},"geometry":{"type":"Point","coordinates":[100.5617326,13.8037004]}},{"type":"Feature","id":9785439350,"properties":{"aeroway":"helipad","name":"Helipad ร่มเกล้า ลาดกระบัง","@type":"node","@id":9785439350},"geometry":{"type":"Point","coordinates":[100.7452075,13.7841674]}},{"type":"Feature","id":10983481796,"properties":{"aeroway":"helipad","@type":"node","@id":10983481796},"geometry":{"type":"Point","coordinates":[100.5249692,13.7404926]}},{"type":"Feature","id":10983490148,"properties":{"aeroway":"helipad","@type":"node","@id":10983490148},"geometry":{"type":"Point","coordinates":[100.5469167,13.7373163]}},{"type":"Feature","id":10983507312,"properties":{"aeroway":"helipad","@type":"node","@id":10983507312},"geometry":{"type":"Point","coordinates":[100.5469876,13.7427881]}},{"type":"Feature","id":11134299175,"properties":{"aeroway":"helipad","@type":"node","@id":11134299175},"geometry":{"type":"Point","coordinates":[100.5349708,13.7295016]}},{"type":"Feature","id":11230531182,"properties":{"aeroway":"helipad","@type":"node","@id":11230531182},"geometry":{"type":"Point","coordinates":[100.526282,13.7331193]}},{"type":"Feature","id":11244165279,"properties":{"aeroway":"helipad","@type":"node","@id":11244165279},"geometry":{"type":"Point","coordinates":[100.5224541,13.725771]}},{"type":"Feature","id":11258022571,"properties":{"aeroway":"helipad","location":"rooftop","@type":"node","@id":11258022571},"geometry":{"type":"Point","coordinates":[100.5197049,13.7228064]}},{"type":"Feature","id":11258022572,"properties":{"aeroway":"helipad","@type":"node","@id":11258022572},"geometry":{"type":"Point","coordinates":[100.5201309,13.7227304]}},{"type":"Feature","id":11335472550,"properties":{"aeroway":"helipad","@type":"node","@id":11335472550},"geometry":{"type":"Point","coordinates":[100.541663,13.7416294]}},{"type":"Feature","id":11335472551,"properties":{"aeroway":"helipad","@type":"node","@id":11335472551},"geometry":{"type":"Point","coordinates":[100.541069,13.7405197]}},{"type":"Feature","id":11335472552,"properties":{"aeroway":"helipad","@type":"node","@id":11335472552},"geometry":{"type":"Point","coordinates":[100.5418183,13.7401625]}},{"type":"Feature","id":12147555780,"properties":{"aeroway":"helipad","@type":"node","@id":12147555780},"geometry":{"type":"Point","coordinates":[100.5167093,13.7950923]}},{"type":"Feature","id":12389652815,"properties":{"aeroway":"helipad","@type":"node","@id":12389652815},"geometry":{"type":"Point","coordinates":[100.573097,13.7263392]}},{"type":"Feature","id":13037050883,"properties":{"aeroway":"helipad","@type":"node","@id":13037050883},"geometry":{"type":"Point","coordinates":[100.5144246,13.7769836]}},{"type":"Feature","id":13037050884,"properties":{"aeroway":"helipad","@type":"node","@id":13037050884},"geometry":{"type":"Point","coordinates":[100.5145268,13.777192]}},{"type":"Feature","id":13037050885,"properties":{"aeroway":"helipad","@type":"node","@id":13037050885},"geometry":{"type":"Point","coordinates":[100.5146131,13.777396]}},{"type":"Feature","id":13037050886,"properties":{"aeroway":"helipad","@type":"node","@id":13037050886},"geometry":{"type":"Point","coordinates":[100.5147187,13.7776056]}},{"type":"Feature","id":13376600303,"properties":{"aeroway":"helipad","location":"roof","@type":"node","@id":13376600303},"geometry":{"type":"Point","coordinates":[100.5943957,13.7124991]}},{"type":"Feature","id":13513736079,"properties":{"aeroway":"helipad","@type":"node","@id":13513736079},"geometry":{"type":"Point","coordinates":[100.5623789,14.0042633]}},{"type":"Feature","id":13727482547,"properties":{"aeroway":"helipad","@type":"node","@id":13727482547},"geometry":{"type":"Point","coordinates":[100.5660018,13.7209494]}},{"type":"Feature","id":13805381814,"properties":{"aeroway":"helipad","@type":"node","@id":13805381814},"geometry":{"type":"Point","coordinates":[100.5672638,13.7475778]}},{"type":"Feature","id":13805381847,"properties":{"aeroway":"helipad","@type":"node","@id":13805381847},"geometry":{"type":"Point","coordinates":[100.5696557,13.7468692]}},{"type":"Feature","id":13805381854,"properties":{"aeroway":"helipad","@type":"node","@id":13805381854},"geometry":{"type":"Point","coordinates":[100.5538997,13.7394203]}},{"type":"Feature","id":90974080,"properties":{"aeroway":"helipad","source":"Bing","@type":"way","@id":90974080},"geometry":{"type":"Point","coordinates":[100.7631304,13.7051056]}},{"type":"Feature","id":159466978,"properties":{"aerodrome":"international","aerodrome:type":"military/public","aeroway":"aerodrome","alt_name":"สนามบินดอนเมือง","alt_name:en":"Don Muang Airport","ele":"3","iata":"DMK","icao":"VTBD","international_flights":"yes","name":"ท่าอากาศยานดอนเมือง","name:en":"Don Mueang International Airport","name:fr":"Aéroport International Don Muang","name:he":"שדה התעופה הישן דון מואנג","name:ja":"ドンムアン空港","name:th":"ท่าอากาศยานดอนเมือง","name:zh":"廊曼機場","passengers":"20098906","website":"https://bio.site/dmk_airport","wikidata":"Q1046755","wikipedia":"en:Don Mueang International Airport","@type":"way","@id":159466978},"geometry":{"type":"Point","coordinates":[100.6040594,13.9126385]}},{"type":"Feature","id":228789210,"properties":{"aeroway":"helipad","@type":"way","@id":228789210},"geometry":{"type":"Point","coordinates":[100.5436926,13.7788757]}},{"type":"Feature","id":261487481,"properties":{"aeroway":"helipad","location":"rooftop","@type":"way","@id":261487481},"geometry":{"type":"Point","coordinates":[100.5212024,13.7201556]}},{"type":"Feature","id":261496630,"properties":{"aeroway":"helipad","@type":"way","@id":261496630},"geometry":{"type":"Point","coordinates":[100.5264488,13.7288198]}},{"type":"Feature","id":324275286,"properties":{"aeroway":"helipad","@type":"way","@id":324275286},"geometry":{"type":"Point","coordinates":[100.5765868,13.7344308]}},{"type":"Feature","id":326785809,"properties":{"aeroway":"helipad","@type":"way","@id":326785809},"geometry":{"type":"Point","coordinates":[100.5935202,13.7144964]}},{"type":"Feature","id":328740941,"properties":{"aeroway":"helipad","@type":"way","@id":328740941},"geometry":{"type":"Point","coordinates":[100.6019094,13.7051258]}},{"type":"Feature","id":381570985,"properties":{"aeroway":"aerodrome","landuse":"military","military":"airfield","name":"กองการบิน ศูนย์การเคลื่อนย้ายกองทัพบก","name:en":"Aviation Division Army Movement Center","name:th":"กองการบิน ศูนย์การเคลื่อนย้ายกองทัพบก","@type":"way","@id":381570985},"geometry":{"type":"Point","coordinates":[100.5936974,13.8686616]}},{"type":"Feature","id":388571458,"properties":{"aeroway":"helipad","name":"H12","@type":"way","@id":388571458},"geometry":{"type":"Point","coordinates":[100.7602886,13.7049759]}},{"type":"Feature","id":388571460,"properties":{"aeroway":"helipad","name":"H11","@type":"way","@id":388571460},"geometry":{"type":"Point","coordinates":[100.7606196,13.7048917]}},{"type":"Feature","id":388844064,"properties":{"aeroway":"helipad","@type":"way","@id":388844064},"geometry":{"type":"Point","coordinates":[100.7541991,13.6771073]}},{"type":"Feature","id":708049959,"properties":{"aeroway":"helipad","@type":"way","@id":708049959},"geometry":{"type":"Point","coordinates":[100.4803012,13.8646867]}},{"type":"Feature","id":740132851,"properties":{"aeroway":"helipad","@type":"way","@id":740132851},"geometry":{"type":"Point","coordinates":[100.5382837,13.742645]}},{"type":"Feature","id":781340771,"properties":{"aeroway":"helipad","surface":"paved","@type":"way","@id":781340771},"geometry":{"type":"Point","coordinates":[100.6182759,13.9088947]}},{"type":"Feature","id":828820473,"properties":{"aeroway":"helipad","layer":"1","@type":"way","@id":828820473},"geometry":{"type":"Point","coordinates":[100.5832899,13.7487567]}},{"type":"Feature","id":828825440,"properties":{"aeroway":"helipad","@type":"way","@id":828825440},"geometry":{"type":"Point","coordinates":[100.521575,13.8615353]}},{"type":"Feature","id":945752292,"properties":{"aeroway":"helipad","@type":"way","@id":945752292},"geometry":{"type":"Point","coordinates":[100.5188918,13.770136]}},{"type":"Feature","id":945752293,"properties":{"aeroway":"helipad","@type":"way","@id":945752293},"geometry":{"type":"Point","coordinates":[100.5187076,13.7704691]}},{"type":"Feature","id":945752294,"properties":{"aeroway":"helipad","@type":"way","@id":945752294},"geometry":{"type":"Point","coordinates":[100.5189331,13.7696765]}},{"type":"Feature","id":945752295,"properties":{"aeroway":"helipad","@type":"way","@id":945752295},"geometry":{"type":"Point","coordinates":[100.5184481,13.7698439]}},{"type":"Feature","id":1153316931,"properties":{"aeroway":"helipad","layer":"1","operator":"River City","@type":"way","@id":1153316931},"geometry":{"type":"Point","coordinates":[100.5132024,13.730007]}},{"type":"Feature","id":1204448030,"properties":{"aeroway":"helipad","@type":"way","@id":1204448030},"geometry":{"type":"Point","coordinates":[100.5594987,13.722603]}},{"type":"Feature","id":1223551673,"properties":{"aeroway":"helipad","@type":"way","@id":1223551673},"geometry":{"type":"Point","coordinates":[100.5929818,13.6094389]}},{"type":"Feature","id":1223551674,"properties":{"aeroway":"helipad","@type":"way","@id":1223551674},"geometry":{"type":"Point","coordinates":[100.593238,13.6087612]}},{"type":"Feature","id":1223551951,"properties":{"aeroway":"helipad","layer":"1","@type":"way","@id":1223551951},"geometry":{"type":"Point","coordinates":[100.5638807,13.7134198]}},{"type":"Feature","id":1223552242,"properties":{"aeroway":"helipad","layer":"1","@type":"way","@id":1223552242},"geometry":{"type":"Point","coordinates":[100.5563007,13.7219323]}},{"type":"Feature","id":1223552343,"properties":{"aeroway":"helipad","layer":"1","@type":"way","@id":1223552343},"geometry":{"type":"Point","coordinates":[100.555326,13.7209047]}},{"type":"Feature","id":1223552372,"properties":{"aeroway":"helipad","layer":"1","@type":"way","@id":1223552372},"geometry":{"type":"Point","coordinates":[100.5439798,13.725098]}},{"type":"Feature","id":1223552564,"properties":{"aeroway":"helipad","layer":"1","@type":"way","@id":1223552564},"geometry":{"type":"Point","coordinates":[100.5416374,13.7247031]}},{"type":"Feature","id":1223553949,"properties":{"aeroway":"helipad","layer":"1","@type":"way","@id":1223553949},"geometry":{"type":"Point","coordinates":[100.5386312,13.7229595]}},{"type":"Feature","id":1223553950,"properties":{"aeroway":"helipad","layer":"1","@type":"way","@id":1223553950},"geometry":{"type":"Point","coordinates":[100.5390414,13.7226338]}},{"type":"Feature","id":1224423121,"properties":{"aeroway":"helipad","layer":"1","@type":"way","@id":1224423121},"geometry":{"type":"Point","coordinates":[100.5722235,13.7534568]}},{"type":"Feature","id":1224423347,"properties":{"aeroway":"helipad","layer":"1","@type":"way","@id":1224423347},"geometry":{"type":"Point","coordinates":[100.5827127,13.7488532]}},{"type":"Feature","id":1232012737,"properties":{"aeroway":"helipad","layer":"1","@type":"way","@id":1232012737},"geometry":{"type":"Point","coordinates":[100.463765,13.722802]}},{"type":"Feature","id":1232013278,"properties":{"aeroway":"helipad","layer":"1","@type":"way","@id":1232013278},"geometry":{"type":"Point","coordinates":[100.4851146,13.7568208]}},{"type":"Feature","id":1232486828,"properties":{"aeroway":"helipad","@type":"way","@id":1232486828},"geometry":{"type":"Point","coordinates":[100.5407174,13.7449667]}},{"type":"Feature","id":1238689421,"properties":{"aeroway":"helipad","layer":"1","@type":"way","@id":1238689421},"geometry":{"type":"Point","coordinates":[100.5334704,13.7291415]}},{"type":"Feature","id":1238689492,"properties":{"aeroway":"helipad","layer":"1","@type":"way","@id":1238689492},"geometry":{"type":"Point","coordinates":[100.5326406,13.7274902]}},{"type":"Feature","id":1238689493,"properties":{"aeroway":"helipad","layer":"1","@type":"way","@id":1238689493},"geometry":{"type":"Point","coordinates":[100.5329254,13.7277362]}},{"type":"Feature","id":1238689602,"properties":{"aeroway":"helipad","layer":"1","@type":"way","@id":1238689602},"geometry":{"type":"Point","coordinates":[100.5303182,13.7264387]}},{"type":"Feature","id":1239413664,"properties":{"aeroway":"helipad","@type":"way","@id":1239413664},"geometry":{"type":"Point","coordinates":[100.7676955,13.6996672]}},{"type":"Feature","id":1239615882,"properties":{"aeroway":"helipad","@type":"way","@id":1239615882},"geometry":{"type":"Point","coordinates":[100.5939766,13.8684855]}},{"type":"Feature","id":1239615883,"properties":{"aeroway":"helipad","ref":"8","@type":"way","@id":1239615883},"geometry":{"type":"Point","coordinates":[100.5930397,13.8680746]}},{"type":"Feature","id":1239615884,"properties":{"aeroway":"helipad","ref":"7","@type":"way","@id":1239615884},"geometry":{"type":"Point","coordinates":[100.5931521,13.868268]}},{"type":"Feature","id":1239615885,"properties":{"aeroway":"helipad","ref":"6","@type":"way","@id":1239615885},"geometry":{"type":"Point","coordinates":[100.5932664,13.8684482]}},{"type":"Feature","id":1239615886,"properties":{"aeroway":"helipad","ref":"5","@type":"way","@id":1239615886},"geometry":{"type":"Point","coordinates":[100.5935799,13.8686097]}},{"type":"Feature","id":1239615887,"properties":{"aeroway":"helipad","ref":"4","@type":"way","@id":1239615887},"geometry":{"type":"Point","coordinates":[100.5936978,13.8687961]}},{"type":"Feature","id":1239615888,"properties":{"aeroway":"helipad","ref":"3","@type":"way","@id":1239615888},"geometry":{"type":"Point","coordinates":[100.5938322,13.8690011]}},{"type":"Feature","id":1239615889,"properties":{"aeroway":"helipad","ref":"2","@type":"way","@id":1239615889},"geometry":{"type":"Point","coordinates":[100.5937838,13.8692904]}},{"type":"Feature","id":1239615890,"properties":{"aeroway":"helipad","ref":"1","@type":"way","@id":1239615890},"geometry":{"type":"Point","coordinates":[100.5938969,13.8694726]}},{"type":"Feature","id":1239616038,"properties":{"aeroway":"helipad","@type":"way","@id":1239616038},"geometry":{"type":"Point","coordinates":[100.6349048,13.8600434]}},{"type":"Feature","id":1240556573,"properties":{"aeroway":"helipad","layer":"1","@type":"way","@id":1240556573},"geometry":{"type":"Point","coordinates":[100.53981,13.7442941]}},{"type":"Feature","id":1240556601,"properties":{"aeroway":"helipad","layer":"1","@type":"way","@id":1240556601},"geometry":{"type":"Point","coordinates":[100.5406684,13.7434158]}},{"type":"Feature","id":1240556668,"properties":{"aeroway":"helipad","layer":"1","@type":"way","@id":1240556668},"geometry":{"type":"Point","coordinates":[100.5458756,13.743212]}},{"type":"Feature","id":1240740966,"properties":{"aeroway":"helipad","layer":"1","@type":"way","@id":1240740966},"geometry":{"type":"Point","coordinates":[100.5267995,13.7325429]}},{"type":"Feature","id":1240741077,"properties":{"aeroway":"helipad","@type":"way","@id":1240741077},"geometry":{"type":"Point","coordinates":[100.5325608,13.7336081]}},{"type":"Feature","id":1240741088,"properties":{"aeroway":"helipad","layer":"1","@type":"way","@id":1240741088},"geometry":{"type":"Point","coordinates":[100.5367362,13.7323483]}},{"type":"Feature","id":1240741148,"properties":{"aeroway":"helipad","layer":"1","@type":"way","@id":1240741148},"geometry":{"type":"Point","coordinates":[100.5367495,13.7315646]}},{"type":"Feature","id":1240741405,"properties":{"aeroway":"helipad","layer":"1","@type":"way","@id":1240741405},"geometry":{"type":"Point","coordinates":[100.5361237,13.7302196]}},{"type":"Feature","id":1244201874,"properties":{"aeroway":"helipad","layer":"1","location":"roof","@type":"way","@id":1244201874},"geometry":{"type":"Point","coordinates":[100.5355495,13.7639657]}},{"type":"Feature","id":1247258938,"properties":{"aeroway":"helipad","ref":"3","@type":"way","@id":1247258938},"geometry":{"type":"Point","coordinates":[100.5441322,13.7727236]}},{"type":"Feature","id":1247258939,"properties":{"aeroway":"helipad","ref":"2","@type":"way","@id":1247258939},"geometry":{"type":"Point","coordinates":[100.5439434,13.7723548]}},{"type":"Feature","id":1247258940,"properties":{"aeroway":"helipad","ref":"1","@type":"way","@id":1247258940},"geometry":{"type":"Point","coordinates":[100.5437247,13.7719081]}},{"type":"Feature","id":1247258941,"properties":{"aeroway":"helipad","ref":"4","@type":"way","@id":1247258941},"geometry":{"type":"Point","coordinates":[100.543495,13.7714682]}},{"type":"Feature","id":1247259033,"properties":{"aeroway":"helipad","layer":"1","location":"roof","@type":"way","@id":1247259033},"geometry":{"type":"Point","coordinates":[100.5405176,13.7710778]}},{"type":"Feature","id":1262137694,"properties":{"aeroway":"helipad","location":"roof","@type":"way","@id":1262137694},"geometry":{"type":"Point","coordinates":[100.5346844,13.7681047]}},{"type":"Feature","id":1265101322,"properties":{"aeroway":"helipad","@type":"way","@id":1265101322},"geometry":{"type":"Point","coordinates":[100.5252206,13.741748]}},{"type":"Feature","id":1266404365,"properties":{"aeroway":"helipad","location":"roof","@type":"way","@id":1266404365},"geometry":{"type":"Point","coordinates":[100.5252286,13.7186271]}},{"type":"Feature","id":1271669614,"properties":{"aeroway":"helipad","location":"roof","@type":"way","@id":1271669614},"geometry":{"type":"Point","coordinates":[100.4857511,13.7578051]}},{"type":"Feature","id":1271669721,"properties":{"aeroway":"helipad","location":"roof","@type":"way","@id":1271669721},"geometry":{"type":"Point","coordinates":[100.509431,13.7463676]}},{"type":"Feature","id":1271669798,"properties":{"aeroway":"helipad","location":"roof","@type":"way","@id":1271669798},"geometry":{"type":"Point","coordinates":[100.5152632,13.7500255]}},{"type":"Feature","id":1271669799,"properties":{"aeroway":"helipad","location":"roof","@type":"way","@id":1271669799},"geometry":{"type":"Point","coordinates":[100.515596,13.750156]}},{"type":"Feature","id":1320422103,"properties":{"aeroway":"helipad","@type":"way","@id":1320422103},"geometry":{"type":"Point","coordinates":[100.5140484,13.7214625]}},{"type":"Feature","id":1363865090,"properties":{"aeroway":"helipad","@type":"way","@id":1363865090},"geometry":{"type":"Point","coordinates":[100.5608527,13.7821095]}},{"type":"Feature","id":1369621009,"properties":{"aeroway":"helipad","ref":"3","@type":"way","@id":1369621009},"geometry":{"type":"Point","coordinates":[100.5441553,13.7727921]}},{"type":"Feature","id":1369621010,"properties":{"aeroway":"helipad","ref":"2","@type":"way","@id":1369621010},"geometry":{"type":"Point","coordinates":[100.5440107,13.7724997]}},{"type":"Feature","id":1369621011,"properties":{"aeroway":"helipad","ref":"1","@type":"way","@id":1369621011},"geometry":{"type":"Point","coordinates":[100.5438726,13.7722222]}},{"type":"Feature","id":1369621012,"properties":{"aeroway":"helipad","@type":"way","@id":1369621012},"geometry":{"type":"Point","coordinates":[100.543591,13.7716517]}},{"type":"Feature","id":1423221475,"properties":{"aeroway":"helipad","ref":"1","@type":"way","@id":1423221475},"geometry":{"type":"Point","coordinates":[100.5127145,13.7704192]}},{"type":"Feature","id":1423221476,"properties":{"aeroway":"helipad","ref":"2","@type":"way","@id":1423221476},"geometry":{"type":"Point","coordinates":[100.5123346,13.7703178]}},{"type":"Feature","id":1423221477,"properties":{"aeroway":"helipad","ref":"3","@type":"way","@id":1423221477},"geometry":{"type":"Point","coordinates":[100.5121781,13.7699874]}},{"type":"Feature","id":1423221478,"properties":{"aeroway":"helipad","ref":"4","@type":"way","@id":1423221478},"geometry":{"type":"Point","coordinates":[100.512025,13.7696655]}},{"type":"Feature","id":1423221479,"properties":{"aeroway":"helipad","ref":"5","@type":"way","@id":1423221479},"geometry":{"type":"Point","coordinates":[100.5117341,13.7690318]}},{"type":"Feature","id":1423221480,"properties":{"aeroway":"helipad","ref":"6","@type":"way","@id":1423221480},"geometry":{"type":"Point","coordinates":[100.5115794,13.7687085]}},{"type":"Feature","id":1466440822,"properties":{"aeroway":"aerodrome","landuse":"military","military":"airfield","name":"สนามบินเล็ก","name:th":"สนามบินเล็ก","@type":"way","@id":1466440822},"geometry":{"type":"Point","coordinates":[100.5742802,13.9452469]}},{"type":"Feature","id":1534177995,"properties":{"aeroway":"helipad","@type":"way","@id":1534177995},"geometry":{"type":"Point","coordinates":[100.3429502,13.7794359]}},{"type":"Feature","id":1553823287,"properties":{"aeroway":"helipad","@type":"way","@id":1553823287},"geometry":{"type":"Point","coordinates":[100.6669037,13.8336189]}},{"type":"Feature","id":2055098510,"properties":{"aeroway":"helipad","@type":"node","@id":2055098510},"geometry":{"type":"Point","coordinates":[100.8875648,12.9721069]}},{"type":"Feature","id":3127342620,"properties":{"aeroway":"helipad","@type":"node","@id":3127342620},"geometry":{"type":"Point","coordinates":[100.9985046,12.664414]}},{"type":"Feature","id":3127344910,"properties":{"aeroway":"helipad","@type":"node","@id":3127344910},"geometry":{"type":"Point","coordinates":[100.9987837,12.664375]}},{"type":"Feature","id":3127345172,"properties":{"aeroway":"helipad","@type":"node","@id":3127345172},"geometry":{"type":"Point","coordinates":[100.9979361,12.6644456]}},{"type":"Feature","id":3127345319,"properties":{"aeroway":"helipad","@type":"node","@id":3127345319},"geometry":{"type":"Point","coordinates":[100.9982149,12.664435]}},{"type":"Feature","id":3188989930,"properties":{"aeroway":"aerodrome","name":"Dokkrai Airstrip","@type":"node","@id":3188989930},"geometry":{"type":"Point","coordinates":[101.1842097,12.9217307]}},{"type":"Feature","id":4786054002,"properties":{"aeroway":"helipad","@type":"node","@id":4786054002},"geometry":{"type":"Point","coordinates":[100.9275401,13.1690378]}},{"type":"Feature","id":6601060470,"properties":{"aeroway":"helipad","@type":"node","@id":6601060470},"geometry":{"type":"Point","coordinates":[100.9293969,13.1794327]}},{"type":"Feature","id":10169429085,"properties":{"aeroway":"helipad","@type":"node","@id":10169429085},"geometry":{"type":"Point","coordinates":[100.8855616,12.9458574]}},{"type":"Feature","id":11150371952,"properties":{"aeroway":"helipad","location":"roof","@type":"node","@id":11150371952},"geometry":{"type":"Point","coordinates":[100.8860684,12.964261]}},{"type":"Feature","id":11176218241,"properties":{"aeroway":"helipad","@type":"node","@id":11176218241},"geometry":{"type":"Point","coordinates":[100.8961601,12.8621834]}},{"type":"Feature","id":11195631588,"properties":{"aeroway":"helipad","location":"roof","@type":"node","@id":11195631588},"geometry":{"type":"Point","coordinates":[100.8897538,12.9494629]}},{"type":"Feature","id":11228661291,"properties":{"aeroway":"helipad","@type":"node","@id":11228661291},"geometry":{"type":"Point","coordinates":[100.8864976,12.9478038]}},{"type":"Feature","id":11364540177,"properties":{"aeroway":"helipad","@type":"node","@id":11364540177},"geometry":{"type":"Point","coordinates":[100.8805768,12.9210491]}},{"type":"Feature","id":12373703559,"properties":{"aeroway":"helipad","location":"rooftop","@type":"node","@id":12373703559},"geometry":{"type":"Point","coordinates":[100.9267265,13.1705574]}},{"type":"Feature","id":12373703560,"properties":{"aeroway":"helipad","location":"rooftop","@type":"node","@id":12373703560},"geometry":{"type":"Point","coordinates":[100.9269115,13.170502]}},{"type":"Feature","id":12500329135,"properties":{"aeroway":"helipad","@type":"node","@id":12500329135},"geometry":{"type":"Point","coordinates":[101.4531527,12.5645536]}},{"type":"Feature","id":13430193027,"properties":{"aeroway":"helipad","@type":"node","@id":13430193027},"geometry":{"type":"Point","coordinates":[100.9249396,13.1637084]}},{"type":"Feature","id":215540706,"properties":{"aerodrome:type":"private","aeroway":"aerodrome","icao":"VTBF","name":"พัทยาแอร์ปาร์ค","name:en":"Pattaya Airpark","name:th":"พัทยาแอร์ปาร์ค","website":"http://www.pattayaairpark.com/","@type":"way","@id":215540706},"geometry":{"type":"Point","coordinates":[100.9493557,12.8329137]}},{"type":"Feature","id":258770190,"properties":{"aeroway":"helipad","@type":"way","@id":258770190},"geometry":{"type":"Point","coordinates":[101.4200694,12.5875509]}},{"type":"Feature","id":306593044,"properties":{"aeroway":"helipad","@type":"way","@id":306593044},"geometry":{"type":"Point","coordinates":[100.9490651,12.8323737]}},{"type":"Feature","id":306735731,"properties":{"aeroway":"helipad","@type":"way","@id":306735731},"geometry":{"type":"Point","coordinates":[100.9504364,12.7889236]}},{"type":"Feature","id":306739358,"properties":{"aeroway":"helipad","@type":"way","@id":306739358},"geometry":{"type":"Point","coordinates":[100.9508918,12.7888815]}},{"type":"Feature","id":306739364,"properties":{"aeroway":"helipad","@type":"way","@id":306739364},"geometry":{"type":"Point","coordinates":[100.9527328,12.7887329]}},{"type":"Feature","id":306739365,"properties":{"aeroway":"helipad","@type":"way","@id":306739365},"geometry":{"type":"Point","coordinates":[100.951845,12.7887982]}},{"type":"Feature","id":306739371,"properties":{"aeroway":"helipad","@type":"way","@id":306739371},"geometry":{"type":"Point","coordinates":[100.9522956,12.7887642]}},{"type":"Feature","id":306739373,"properties":{"aeroway":"helipad","@type":"way","@id":306739373},"geometry":{"type":"Point","coordinates":[100.9514183,12.788839]}},{"type":"Feature","id":307398124,"properties":{"aeroway":"aerodrome","icao":"VTBC","name":"สนามบินจันทบุรี","name:en":"Chanthaburi Airport","name:th":"สนามบินจันทบุรี","wikidata":"Q20584362","@type":"way","@id":307398124},"geometry":{"type":"Point","coordinates":[102.0257031,12.63179]}},{"type":"Feature","id":307398127,"properties":{"aeroway":"helipad","@type":"way","@id":307398127},"geometry":{"type":"Point","coordinates":[102.0281714,12.629522]}},{"type":"Feature","id":307398128,"properties":{"aeroway":"helipad","@type":"way","@id":307398128},"geometry":{"type":"Point","coordinates":[102.027988,12.6298045]}},{"type":"Feature","id":307474363,"properties":{"aeroway":"aerodrome","name":"ลานบินอีสเทิร์น","name:en":"Eastern Airport","name:th":"ลานบินอีสเทิร์น","@type":"way","@id":307474363},"geometry":{"type":"Point","coordinates":[100.9339971,12.9024742]}},{"type":"Feature","id":307542269,"properties":{"aeroway":"helipad","@type":"way","@id":307542269},"geometry":{"type":"Point","coordinates":[100.9986593,12.6640763]}},{"type":"Feature","id":307542299,"properties":{"aeroway":"helipad","@type":"way","@id":307542299},"geometry":{"type":"Point","coordinates":[100.9979701,12.6648424]}},{"type":"Feature","id":307542301,"properties":{"aeroway":"helipad","@type":"way","@id":307542301},"geometry":{"type":"Point","coordinates":[100.9982624,12.6633766]}},{"type":"Feature","id":311071930,"properties":{"aeroway":"aerodrome","icao":"VTBT","name":"สนามบินบางพระ","name:en":"Bang Phra Airport","name:th":"สนามบินบางพระ","type":"private","wikidata":"Q16307902","@type":"way","@id":311071930},"geometry":{"type":"Point","coordinates":[100.9573765,13.2329679]}},{"type":"Feature","id":587318902,"properties":{"aeroway":"helipad","@type":"way","@id":587318902},"geometry":{"type":"Point","coordinates":[100.8019551,12.7103673]}},{"type":"Feature","id":841087274,"properties":{"aeroway":"aerodrome","name":"ลานบินหนองค้อ","name:en":"Nong Kor Airfield","name:th":"ลานบินหนองค้อ","@type":"way","@id":841087274},"geometry":{"type":"Point","coordinates":[101.0464623,13.1402523]}},{"type":"Feature","id":1091897165,"properties":{"aeroway":"aerodrome","name":"สนามบินห้วยใหญ่พัทยาแอร์ฟิลด์","name:en":"Pattaya Huai Yai Airfield","@type":"way","@id":1091897165},"geometry":{"type":"Point","coordinates":[100.9814114,12.8350748]}},{"type":"Feature","id":1135963416,"properties":{"aeroway":"helipad","@type":"way","@id":1135963416},"geometry":{"type":"Point","coordinates":[100.8601728,12.9222491]}},{"type":"Feature","id":1135963417,"properties":{"aeroway":"helipad","@type":"way","@id":1135963417},"geometry":{"type":"Point","coordinates":[100.8617089,12.9240674]}},{"type":"Feature","id":1236410450,"properties":{"aeroway":"helipad","layer":"1","location":"roof","@type":"way","@id":1236410450},"geometry":{"type":"Point","coordinates":[100.9064457,12.9540356]}},{"type":"Feature","id":1243003829,"properties":{"aeroway":"helipad","layer":"1","@type":"way","@id":1243003829},"geometry":{"type":"Point","coordinates":[100.9092261,12.8386538]}},{"type":"Feature","id":1243004065,"properties":{"aeroway":"helipad","layer":"1","location":"roof","@type":"way","@id":1243004065},"geometry":{"type":"Point","coordinates":[100.8877752,12.927279]}},{"type":"Feature","id":1247265154,"properties":{"aeroway":"helipad","@type":"way","@id":1247265154},"geometry":{"type":"Point","coordinates":[101.1295612,12.6393763]}},{"type":"Feature","id":1257848981,"properties":{"aeroway":"helipad","@type":"way","@id":1257848981},"geometry":{"type":"Point","coordinates":[100.8626638,12.9285081]}},{"type":"Feature","id":1265060837,"properties":{"aeroway":"helipad","@type":"way","@id":1265060837},"geometry":{"type":"Point","coordinates":[100.9071522,13.0719474]}},{"type":"Feature","id":1265907170,"properties":{"aeroway":"helipad","@type":"way","@id":1265907170},"geometry":{"type":"Point","coordinates":[101.0199872,13.4929084]}},{"type":"Feature","id":1292529094,"properties":{"aeroway":"helipad","@type":"way","@id":1292529094},"geometry":{"type":"Point","coordinates":[100.9170771,13.1620631]}},{"type":"Feature","id":1356116100,"properties":{"aeroway":"helipad","@type":"way","@id":1356116100},"geometry":{"type":"Point","coordinates":[101.607468,13.0973045]}},{"type":"Feature","id":5240690710,"properties":{"aeroway":"helipad","@type":"node","@id":5240690710},"geometry":{"type":"Point","coordinates":[99.9473142,12.607155]}},{"type":"Feature","id":13516412607,"properties":{"aeroway":"helipad","@type":"node","@id":13516412607},"geometry":{"type":"Point","coordinates":[99.9544179,12.629851]}},{"type":"Feature","id":14218627052,"properties":{"aeroway":"helipad","@type":"node","@id":14218627052},"geometry":{"type":"Point","coordinates":[99.9147695,12.3935411]}},{"type":"Feature","id":401517756,"properties":{"aeroway":"helipad","@type":"way","@id":401517756},"geometry":{"type":"Point","coordinates":[99.9681063,12.4928126]}},{"type":"Feature","id":477798852,"properties":{"aeroway":"aerodrome","iata":"HHQ","icao":"VTPH","name":"ท่าอากาศยานหัวหิน","name:en":"Hua Hin Airport","name:th":"ท่าอากาศยานหัวหิน","wikidata":"Q1431510","@type":"way","@id":477798852},"geometry":{"type":"Point","coordinates":[99.9509542,12.6360354]}},{"type":"Feature","id":1107945319,"properties":{"aeroway":"helipad","@type":"way","@id":1107945319},"geometry":{"type":"Point","coordinates":[99.9628637,12.6949094]}},{"type":"Feature","id":1241462188,"properties":{"aeroway":"helipad","@type":"way","@id":1241462188},"geometry":{"type":"Point","coordinates":[99.9580852,12.6821983]}},{"type":"Feature","id":1241462189,"properties":{"aeroway":"helipad","@type":"way","@id":1241462189},"geometry":{"type":"Point","coordinates":[99.9585579,12.6821741]}},{"type":"Feature","id":1241462190,"properties":{"aeroway":"helipad","@type":"way","@id":1241462190},"geometry":{"type":"Point","coordinates":[99.9585043,12.682392]}},{"type":"Feature","id":1241462191,"properties":{"aeroway":"helipad","@type":"way","@id":1241462191},"geometry":{"type":"Point","coordinates":[99.958167,12.6824099]}},{"type":"Feature","id":1241462192,"properties":{"aeroway":"helipad","@type":"way","@id":1241462192},"geometry":{"type":"Point","coordinates":[99.9583286,12.6822294]}},{"type":"Feature","id":1241462274,"properties":{"aeroway":"helipad","@type":"way","@id":1241462274},"geometry":{"type":"Point","coordinates":[99.9542131,12.6307281]}},{"type":"Feature","id":491949519,"properties":{"aeroway":"aerodrome","alt_name":"Khok Kathiam Airport","iata":"KKM","icao":"VTBL","military":"airfield","name":"ฐานบินโคกกะเทียม","name:en":"Khok Kathiam Airforce Base","name:th":"ฐานบินโคกกะเทียม","wikidata":"Q13021969","@type":"node","@id":491949519},"geometry":{"type":"Point","coordinates":[100.6617376,14.8748428]}},{"type":"Feature","id":1071639608,"properties":{"aeroway":"aerodrome","icao":"VTBH","name:en":"Sa Pran Nak Airport","wikidata":"Q12694768","@type":"node","@id":1071639608},"geometry":{"type":"Point","coordinates":[100.6425275,14.9485818]}},{"type":"Feature","id":4260739090,"properties":{"aeroway":"aerodrome","landuse":"military","military":"airfield","name":"สนามบินป่าหวาย","name:en":"Pawai Airfield","name:th":"สนามบินป่าหวาย","@type":"node","@id":4260739090},"geometry":{"type":"Point","coordinates":[100.6528961,14.7737003]}},{"type":"Feature","id":31952588,"properties":{"aeroway":"aerodrome","landuse":"military","military":"airfield","name":"หน่วยบินทหารบกยุทธวิธีที่ 2","name:en":"2nd Tactical Army Aviation Unit","name:th":"หน่วยบินทหารบกยุทธวิธีที่ 2","@type":"way","@id":31952588},"geometry":{"type":"Point","coordinates":[102.0736756,14.9543562]}},{"type":"Feature","id":31952701,"properties":{"aeroway":"aerodrome","icao":"VTUN","landuse":"military","military":"airfield","@type":"way","@id":31952701},"geometry":{"type":"Point","coordinates":[102.0762285,14.9352366]}},{"type":"Feature","id":42203319,"properties":{"aeroway":"aerodrome","iata":"NAK","icao":"VTUQ","name":"ท่าอากาศยานนครราชสีมา","name:en":"Nakhon Ratchasima Airport","wikidata":"Q1432133","wikipedia":"th:ท่าอากาศยานนครราชสีมา","@type":"way","@id":42203319},"geometry":{"type":"Point","coordinates":[102.3098366,14.9495151]}},{"type":"Feature","id":316900230,"properties":{"aeroway":"aerodrome","name":"ศูนย์ฝึกการบินคลอง 15","name:en":"Klong 15 Nakhon Nayok Thanawana","name:th":"ศูนย์ฝึกการบินคลอง 15","@type":"way","@id":316900230},"geometry":{"type":"Point","coordinates":[100.950318,14.1149385]}},{"type":"Feature","id":316902630,"properties":{"aeroway":"aerodrome","name":"สนามบินเล็กองครักษ์ คลอง 16","name:en":"Klong 16 Ongkarak Airport","name:th":"สนามบินเล็กองครักษ์ คลอง 16","@type":"way","@id":316902630},"geometry":{"type":"Point","coordinates":[101.001188,14.1103716]}},{"type":"Feature","id":525342812,"properties":{"aeroway":"helipad","@type":"way","@id":525342812},"geometry":{"type":"Point","coordinates":[102.0854097,14.9394698]}},{"type":"Feature","id":525342813,"properties":{"aeroway":"helipad","@type":"way","@id":525342813},"geometry":{"type":"Point","coordinates":[102.0851226,14.9399123]}},{"type":"Feature","id":1091906602,"properties":{"aeroway":"aerodrome","name":"สนามบินขนงพระ","name:en":"Khanong Phra Airport","@type":"way","@id":1091906602},"geometry":{"type":"Point","coordinates":[101.4662944,14.6310791]}},{"type":"Feature","id":1235013140,"properties":{"aeroway":"helipad","@type":"way","@id":1235013140},"geometry":{"type":"Point","coordinates":[101.372563,14.4339328]}},{"type":"Feature","id":1248819941,"properties":{"aeroway":"helipad","@type":"way","@id":1248819941},"geometry":{"type":"Point","coordinates":[101.0626113,14.9119097]}},{"type":"Feature","id":1451852553,"properties":{"aeroway":"helipad","@type":"way","@id":1451852553},"geometry":{"type":"Point","coordinates":[100.6563469,14.8723547]}},{"type":"Feature","id":1474797456,"properties":{"aeroway":"aerodrome","landuse":"military","military":"airfield","name":"ค่ายวชิราลงกรณ์","name:en":"1st Special Forces Regiment (Fort Vajiralongkorn)","name:th":"ค่ายวชิราลงกรณ์","@type":"way","@id":1474797456},"geometry":{"type":"Point","coordinates":[100.6508721,14.7724047]}},{"type":"Feature","id":1495803246,"properties":{"aeroway":"helipad","@type":"way","@id":1495803246},"geometry":{"type":"Point","coordinates":[102.0739588,14.9861539]}}]}