{"type":"FeatureCollection","features":[{"type":"Feature","id":411928350,"properties":{"aeroway":"aerodrome","closest_town":"Chiang Rai","disused":"yes","ele":"400","icao":"VTCR","landuse":"military","military":"airfield","name":"สนามบินเก่าเชียงราย","name:en":"Old Chiang Rai Airport","name:th":"สนามบินเก่าเชียงราย","operator":"Military of Thailand","source":"wikipedia","wikidata":"Q1708760","wikipedia":"en:Old Chiang Rai Airport","@type":"node","@id":411928350,"branch":"airforce"},"geometry":{"type":"Point","coordinates":[99.8276212,19.8896906]}},{"type":"Feature","id":491949519,"properties":{"aeroway":"aerodrome","alt_name":"Khok Kathiam Airport","iata":"KKM","icao":"VTBL","military":"airfield","name":"ฐานบินโคกกะเทียม","name:en":"Khok Kathiam Airforce Base","name:th":"ฐานบินโคกกะเทียม","wikidata":"Q13021969","@type":"node","@id":491949519,"branch":"airforce"},"geometry":{"type":"Point","coordinates":[100.6617376,14.8748428]}},{"type":"Feature","id":1715904223,"properties":{"military":"office","name":"กองบัญชาการกองทัพอากาศ","name:en":"Royal Thai Air Force Headquarters","office":"military","@type":"node","@id":1715904223,"branch":"airforce"},"geometry":{"type":"Point","coordinates":[100.6217928,13.9233965]}},{"type":"Feature","id":2378530522,"properties":{"landuse":"military","name":"Royal Thai Airforce","@type":"node","@id":2378530522,"branch":"airforce"},"geometry":{"type":"Point","coordinates":[101.73338,16.8831364]}},{"type":"Feature","id":3401350045,"properties":{"military":"airfield","name":"Chiang klang airfield","@type":"node","@id":3401350045,"branch":"airforce"},"geometry":{"type":"Point","coordinates":[100.8568974,19.2926863]}},{"type":"Feature","id":4260739090,"properties":{"aeroway":"aerodrome","landuse":"military","military":"airfield","name":"สนามบินป่าหวาย","name:en":"Pawai Airfield","name:th":"สนามบินป่าหวาย","@type":"node","@id":4260739090,"branch":"airforce"},"geometry":{"type":"Point","coordinates":[100.6528961,14.7737003]}},{"type":"Feature","id":31952588,"properties":{"aeroway":"aerodrome","landuse":"military","military":"airfield","name":"หน่วยบินทหารบกยุทธวิธีที่ 2","name:en":"2nd Tactical Army Aviation Unit","name:th":"หน่วยบินทหารบกยุทธวิธีที่ 2","@type":"way","@id":31952588,"branch":"airforce"},"geometry":{"type":"Point","coordinates":[102.0736756,14.9543562]}},{"type":"Feature","id":31952701,"properties":{"aeroway":"aerodrome","icao":"VTUN","landuse":"military","military":"airfield","@type":"way","@id":31952701,"branch":"airforce"},"geometry":{"type":"Point","coordinates":[102.0762285,14.9352366]}},{"type":"Feature","id":40543806,"properties":{"landuse":"military","name":"Sa Pran Nak Army Airbase","@type":"way","@id":40543806,"branch":"airforce"},"geometry":{"type":"Point","coordinates":[100.6436683,14.9518665]}},{"type":"Feature","id":262856553,"properties":{"landuse":"military","name":"ศูนย์ควบคุมและรายงานดอยอินทนนท์ กองทัพอากาศ","name:en":"Doi Inthanon Air Control and Reporting Center","name:th":"ศูนย์ควบคุมและรายงานดอยอินทนนท์ กองทัพอากาศ","note":"boundary is approximate","@type":"way","@id":262856553,"branch":"airforce"},"geometry":{"type":"Point","coordinates":[98.4850273,18.5905885]}},{"type":"Feature","id":315324674,"properties":{"landuse":"military","military_service":"air_force","name":"Wing 466 Air force base","ref":"466","@type":"way","@id":315324674,"branch":"airforce"},"geometry":{"type":"Point","coordinates":[100.7829915,18.8005441]}},{"type":"Feature","id":381570985,"properties":{"aeroway":"aerodrome","landuse":"military","military":"airfield","name":"กองการบิน ศูนย์การเคลื่อนย้ายกองทัพบก","name:en":"Aviation Division Army Movement Center","name:th":"กองการบิน ศูนย์การเคลื่อนย้ายกองทัพบก","@type":"way","@id":381570985,"branch":"airforce"},"geometry":{"type":"Point","coordinates":[100.5936974,13.8686616]}},{"type":"Feature","id":698540142,"properties":{"aeroway":"aerodrome","landuse":"military","military":"airfield","@type":"way","@id":698540142,"branch":"airforce"},"geometry":{"type":"Point","coordinates":[98.8614271,16.0259487]}},{"type":"Feature","id":1338038156,"properties":{"landuse":"military","military_service":"air_force","name":"กองบิน 56","name:en":"Wing Division 56","name:th":"กองบิน 56","@type":"way","@id":1338038156,"branch":"airforce"},"geometry":{"type":"Point","coordinates":[100.3951505,6.9258726]}},{"type":"Feature","id":1433184791,"properties":{"aeroway":"aerodrome","landuse":"military","military":"airfield","name":"สนามบินกาญจนบุรี ค่ายสุรสีห์","name:en":"Airfield of Aviation Company of the 9th Infantry Brigade","@type":"way","@id":1433184791,"branch":"airforce"},"geometry":{"type":"Point","coordinates":[99.4479213,14.1258095]}},{"type":"Feature","id":1459372178,"properties":{"alt_name":"กองบิน 23","alt_name:en":"Wing 23","alt_name:th":"กองบิน 23","landuse":"military","military":"base","military_service":"air_force","name":"ฐานบินอุดรธานี","name:en":"Udon Thani Air Force Base","name:th":"ฐานบินอุดรธานี","@type":"way","@id":1459372178,"branch":"airforce"},"geometry":{"type":"Point","coordinates":[102.7946927,17.380756]}},{"type":"Feature","id":1460279759,"properties":{"alt_name":"กองบิน 21","alt_name:en":"Wing 21","landuse":"military","military":"base","military_service":"air_force","name":"ฐานบินอุบลราชธานี","name:en":"Ubon Ratchathani Air Force Base","@type":"way","@id":1460279759,"branch":"airforce"},"geometry":{"type":"Point","coordinates":[104.8683463,15.2531305]}},{"type":"Feature","id":1466440822,"properties":{"aeroway":"aerodrome","landuse":"military","military":"airfield","name":"สนามบินเล็ก","name:th":"สนามบินเล็ก","@type":"way","@id":1466440822,"branch":"airforce"},"geometry":{"type":"Point","coordinates":[100.5742802,13.9452469]}},{"type":"Feature","id":1466440833,"properties":{"landuse":"military","name":"ศูนย์วิจัยพัฒนาวิทยาศาสตร์เทคโนโลยีการบินและอวกาศกองทัพอากาศ","name:en":"research and Development Center for Space and Aeroautical Science and Technology RTAF","name:th":"ศูนย์วิจัยพัฒนาวิทยาศาสตร์เทคโนโลยีการบินและอวกาศกองทัพอากาศ","@type":"way","@id":1466440833,"branch":"airforce"},"geometry":{"type":"Point","coordinates":[100.59349,13.9405432]}},{"type":"Feature","id":1466440838,"properties":{"landuse":"military","name":"ศูนย์การทหารอากาศโยธืน","name:en":"RTAF Security Force Training Center","name:th":"ศูนย์การทหารอากาศโยธืน","@type":"way","@id":1466440838,"branch":"airforce"},"geometry":{"type":"Point","coordinates":[100.6015292,13.9382538]}},{"type":"Feature","id":1474797456,"properties":{"aeroway":"aerodrome","landuse":"military","military":"airfield","name":"ค่ายวชิราลงกรณ์","name:en":"1st Special Forces Regiment (Fort Vajiralongkorn)","name:th":"ค่ายวชิราลงกรณ์","@type":"way","@id":1474797456,"branch":"airforce"},"geometry":{"type":"Point","coordinates":[100.6508721,14.7724047]}},{"type":"Feature","id":1554502318,"properties":{"landuse":"military","military":"base","military_service":"air_force","name":"ฐานบินโคราช","name:en":"Korat Air Force Base","name:th":"ฐานบินโคราช","wikidata":"Q4356898","wikipedia":"th:ฐานบินโคราช","@type":"way","@id":1554502318,"branch":"airforce"},"geometry":{"type":"Point","coordinates":[102.0769751,14.9347218]}}]}