{"type":"FeatureCollection","features":[{"type":"Feature","id":82610962,"properties":{"facebook":"https://www.facebook.com/explosivediv/","landuse":"military","name":"โรงงานผลิตชนวนระเบิด กองโรงงานวัตถุระเบิด","name:en":"Explosives Manufacturing Division","website":"https://sites.google.com/view/explosivedivindustrialcenter","@type":"way","@id":82610962,"branch":"ammo","marked because":"name or operator mentions ammunition / ordnance"},"geometry":{"type":"Polygon","coordinates":[[[100.5952658,14.3708758],[100.5991287,14.3686155],[100.6028653,14.3753515],[100.5993766,14.3775686],[100.5967869,14.3728074],[100.5966327,14.372884],[100.5964064,14.372989],[100.5952658,14.3708758]]]}},{"type":"Feature","id":292588340,"properties":{"addr:housenumber":"72","addr:place":"หมู่ที่ 2","landuse":"military","name":"กองโรงงานวัตถุระเบิด ศูนย์อุตสาหการสรรพาวุธ","name:en":"Incendiary Factory Division","name:ja":"爆発物工場課 兵器産業センター","name:zh":"军火工厂军需部中心","name:zh-Hant":"軍火工廠軍需部中心","source":"bing;survey","@type":"way","@id":292588340,"branch":"ammo","marked because":"name or operator mentions ammunition / ordnance"},"geometry":{"type":"Polygon","coordinates":[[[100.5900216,14.3886794],[100.5847295,14.3889028],[100.5846452,14.3900285],[100.584465,14.3911274],[100.584129,14.3926037],[100.5840024,14.3931084],[100.5833305,14.3946365],[100.5828728,14.3952591],[100.5835788,14.3957354],[100.5848132,14.3957358],[100.5899935,14.3956363],[100.5898554,14.3891803],[100.5900537,14.3889667],[100.5900342,14.3887804],[100.5900216,14.3886794]]]}},{"type":"Feature","id":1466440831,"properties":{"landuse":"military","name":"แผนกคลังแสง 1","name:th":"แผนกคลังแสง 1","@type":"way","@id":1466440831,"branch":"ammo","marked because":"name or operator mentions ammunition / ordnance"},"geometry":{"type":"Polygon","coordinates":[[[100.5816126,13.9418105],[100.5824315,13.9448076],[100.5824593,13.9448988],[100.5846035,13.9444289],[100.58747,13.9437485],[100.5866253,13.940556],[100.5859684,13.940718],[100.5816126,13.9418105]]]}},{"type":"Feature","id":1524281342,"properties":{"landuse":"military","name":"คลังแสงที่ 5","name:th":"คลังแสงที่ 5","@type":"way","@id":1524281342,"branch":"ammo","marked because":"name or operator mentions ammunition / ordnance"},"geometry":{"type":"Polygon","coordinates":[[[101.5218932,14.7736802],[101.52338,14.7798337],[101.5243196,14.7796777],[101.5256744,14.7854373],[101.5282973,14.7848078],[101.5281715,14.7832261],[101.5292012,14.7828998],[101.5258779,14.7718244],[101.5218932,14.7736802]]]}}]}