{"type":"FeatureCollection","features":[{"type":"Feature","id":82610962,"properties":{"facebook":"https://www.facebook.com/explosivediv/","landuse":"military","name":"โรงงานผลิตชนวนระเบิด กองโรงงานวัตถุระเบิด","name:en":"Explosives Manufacturing Division","website":"https://sites.google.com/view/explosivedivindustrialcenter","@type":"way","@id":82610962,"branch":"ammo","marked because":"name or operator mentions ammunition / ordnance"},"geometry":{"type":"Point","coordinates":[100.5990656,14.3730921]}},{"type":"Feature","id":292588340,"properties":{"addr:housenumber":"72","addr:place":"หมู่ที่ 2","landuse":"military","name":"กองโรงงานวัตถุระเบิด ศูนย์อุตสาหการสรรพาวุธ","name:en":"Incendiary Factory Division","name:ja":"爆発物工場課 兵器産業センター","name:zh":"军火工厂军需部中心","name:zh-Hant":"軍火工廠軍需部中心","source":"bing;survey","@type":"way","@id":292588340,"branch":"ammo","marked because":"name or operator mentions ammunition / ordnance"},"geometry":{"type":"Point","coordinates":[100.5864633,14.3922076]}},{"type":"Feature","id":1466440831,"properties":{"landuse":"military","name":"แผนกคลังแสง 1","name:th":"แผนกคลังแสง 1","@type":"way","@id":1466440831,"branch":"ammo","marked because":"name or operator mentions ammunition / ordnance"},"geometry":{"type":"Point","coordinates":[100.5845413,13.9427274]}},{"type":"Feature","id":1524281342,"properties":{"landuse":"military","name":"คลังแสงที่ 5","name:th":"คลังแสงที่ 5","@type":"way","@id":1524281342,"branch":"ammo","marked because":"name or operator mentions ammunition / ordnance"},"geometry":{"type":"Point","coordinates":[101.5255472,14.7786308]}}]}