{"type":"FeatureCollection","features":[{"type":"Feature","id":2,"properties":{"name":"Bansomdejchaopraya Rajabhat University","area":"Hiran Ruchi, Khet Thon Buri, Bangkok","pm25":17.4,"aqi":32,"measured at":"2026-10-05 18:00","@type":"air4thai","@id":"02t"},"geometry":{"type":"Point","coordinates":[100.487662,13.732846]}},{"type":"Feature","id":3,"properties":{"name":"Highway NO.3902 km.13 +600","area":"Kanchanaphisek Rd, Bang Khun Thian, Bangkok","pm25":30.4,"aqi":72,"measured at":"2026-10-02 12:00","@type":"air4thai","@id":"03t"},"geometry":{"type":"Point","coordinates":[100.414262,13.636514]}},{"type":"Feature","id":4,"properties":{"name":"Thai Meteorological Department ","area":"Bang Na, Khet Bang Na, Bangkok","pm25":19.1,"aqi":36,"measured at":"2026-10-05 17:00","@type":"air4thai","@id":"05t"},"geometry":{"type":"Point","coordinates":[100.605742,13.666183]}},{"type":"Feature","id":5,"properties":{"name":"Nonsi Witthaya School","area":"Chong Nonsi, Khet Yannawa, Bangkok","pm25":18.9,"aqi":35,"measured at":"2026-10-05 17:00","@type":"air4thai","@id":"12t"},"geometry":{"type":"Point","coordinates":[100.5473333,13.70806667]}},{"type":"Feature","id":6,"properties":{"name":"Chulalongkorn Hospital","area":"Rama IV Rd. Khet Pathum Wan, Bangkok","pm25":22.1,"aqi":43,"measured at":"2026-10-05 18:00","@type":"air4thai","@id":"50t"},"geometry":{"type":"Point","coordinates":[100.536501,13.729852]}},{"type":"Feature","id":7,"properties":{"name":"Thonburi Power Sub-Station","area":"Intarapitak Rd. Khet Thon Buri, Bangkok","pm25":21.3,"aqi":41,"measured at":"2026-10-05 18:00","@type":"air4thai","@id":"52t"},"geometry":{"type":"Point","coordinates":[100.486568,13.727622]}},{"type":"Feature","id":8,"properties":{"name":"Chokchai Police Station","area":"Lat Phrao Rd. Khet Wang Thonglang, Bangkok","pm25":21.5,"aqi":42,"measured at":"2026-10-05 18:00","@type":"air4thai","@id":"53t"},"geometry":{"type":"Point","coordinates":[100.5930298,13.7954248]}},{"type":"Feature","id":9,"properties":{"name":"National Housing Authority Dindaeng","area":"Din Daeng Rd. Khet Din Daeng, Bangkok","pm25":22.6,"aqi":44,"measured at":"2026-10-05 17:00","@type":"air4thai","@id":"54t"},"geometry":{"type":"Point","coordinates":[100.5502,13.76251667]}},{"type":"Feature","id":10,"properties":{"name":"The Government Public Relations Department ","area":"Phaya Thai, Khet Phaya Thai, Bangkok","pm25":16,"aqi":28,"measured at":"2026-10-05 18:00","@type":"air4thai","@id":"59t"},"geometry":{"type":"Point","coordinates":[100.540489,13.783185]}},{"type":"Feature","id":11,"properties":{"name":"Bodindecha Sing Singhaseni School","area":"Pubpla, Khet Wang Thonglang, Bangkok","pm25":17.8,"aqi":33,"measured at":"2026-10-05 18:00","@type":"air4thai","@id":"61t"},"geometry":{"type":"Point","coordinates":[100.614567,13.769634]}},{"type":"Feature","id":12,"properties":{"name":"Bueng Kum District Office, Bangkok","area":"Khlong Kum, Bueng Kum, Bangkok","pm25":33,"aqi":82,"measured at":"2026-10-05 18:00","@type":"air4thai","@id":"bkp100t"},"geometry":{"type":"Point","coordinates":[100.669183,13.785212]}},{"type":"Feature","id":13,"properties":{"name":"Khlong Sam Wa District Office, Bangkok","area":"Khlong Sam Wa, Bangkok","pm25":23.8,"aqi":47,"measured at":"2026-10-05 18:00","@type":"air4thai","@id":"bkp101t"},"geometry":{"type":"Point","coordinates":[100.704002,13.859911]}},{"type":"Feature","id":14,"properties":{"name":"Chomthong District Office, Bangkok","area":"Chomthong, Bangkok","pm25":14,"aqi":23,"measured at":"2026-10-05 18:00","@type":"air4thai","@id":"bkp102t"},"geometry":{"type":"Point","coordinates":[100.483861,13.677757]}},{"type":"Feature","id":15,"properties":{"name":"Bang Phlat District Office, Bangkok","area":"Charansanitwong Roadside, Bangkok","pm25":23.2,"aqi":46,"measured at":"2026-10-05 18:00","@type":"air4thai","@id":"bkp103t"},"geometry":{"type":"Point","coordinates":[100.504956,13.793965]}},{"type":"Feature","id":16,"properties":{"name":"Bang Khae District Office, Bangkok","area":"Bang Khae, Bangkok","pm25":13,"aqi":22,"measured at":"2026-10-05 18:00","@type":"air4thai","@id":"bkp104t"},"geometry":{"type":"Point","coordinates":[100.409049,13.696314]}},{"type":"Feature","id":17,"properties":{"name":"Bang Khun Thian District Office, Bangkok","area":"RamaII Roadside,  Bang Khun Thian, Bangkok","pm25":24.7,"aqi":49,"measured at":"2026-10-05 18:00","@type":"air4thai","@id":"bkp105t"},"geometry":{"type":"Point","coordinates":[100.435902,13.659908]}},{"type":"Feature","id":18,"properties":{"name":"Lumpini park","area":"Lumpini park, Pathum Wan, Bangkok","pm25":14.3,"aqi":24,"measured at":"2026-10-05 18:00","@type":"air4thai","@id":"bkp114t"},"geometry":{"type":"Point","coordinates":[100.5448381,13.732225]}},{"type":"Feature","id":19,"properties":{"name":"Wacchirabenchatat Park","area":"Wacchirabenchatat Park, Chatuchak, Bangkok","pm25":15.7,"aqi":27,"measured at":"2026-10-05 18:00","@type":"air4thai","@id":"bkp115t"},"geometry":{"type":"Point","coordinates":[100.5535825,13.8118516]}},{"type":"Feature","id":20,"properties":{"name":"Chatuchak Park","area":"Chatuchak Park, Chatuchak, Bangkok","pm25":16.2,"aqi":29,"measured at":"2026-10-05 18:00","@type":"air4thai","@id":"bkp116t"},"geometry":{"type":"Point","coordinates":[100.5509191,13.802546]}},{"type":"Feature","id":21,"properties":{"name":"Suan Luang Rama IX","area":"Suan Luang Rama IX, Pravet, Bangkok","pm25":11.5,"aqi":19,"measured at":"2026-10-05 18:00","@type":"air4thai","@id":"bkp117t"},"geometry":{"type":"Point","coordinates":[100.6579657,13.6881393]}},{"type":"Feature","id":23,"properties":{"name":"Benchasiri Park","area":"Benchasiri Park, Klong Toei, Bangkok","pm25":19.8,"aqi":37,"measured at":"2026-10-05 17:00","@type":"air4thai","@id":"bkp119t"},"geometry":{"type":"Point","coordinates":[100.5684634,13.7304916]}},{"type":"Feature","id":24,"properties":{"name":"Rommani Thungsikan Park","area":"Rommani Thungsikan Park, Don Mueang, Bangkok","pm25":25.4,"aqi":52,"measured at":"2026-10-05 18:00","@type":"air4thai","@id":"bkp120t"},"geometry":{"type":"Point","coordinates":[100.5684666,13.9288678]}},{"type":"Feature","id":25,"properties":{"name":"Thonburirom Park","area":"Thonburirom Park, Thung Khru, Bangkok","pm25":11.6,"aqi":19,"measured at":"2026-10-05 18:00","@type":"air4thai","@id":"bkp121t"},"geometry":{"type":"Point","coordinates":[100.4909771,13.6502295]}},{"type":"Feature","id":26,"properties":{"name":"Benjakitti Park","area":"Benjakitti Park, Khlong Toei, Bangkok","pm25":15.3,"aqi":26,"measured at":"2026-10-05 18:00","@type":"air4thai","@id":"bkp122t"},"geometry":{"type":"Point","coordinates":[100.5600172,13.7328791]}},{"type":"Feature","id":27,"properties":{"name":"Queen Sirikit Park","area":"Queen Sirikit Park, Chatuchak, Bangkok","pm25":15,"aqi":25,"measured at":"2026-10-05 18:00","@type":"air4thai","@id":"bkp123t"},"geometry":{"type":"Point","coordinates":[100.5488338,13.8055472]}},{"type":"Feature","id":28,"properties":{"name":"80th Anniversary Commemoration Park","area":"80th Anniversary Commemoration Park, Bangkok Noi, Bangkok","pm25":18.8,"aqi":35,"measured at":"2026-10-05 18:00","@type":"air4thai","@id":"bkp124t"},"geometry":{"type":"Point","coordinates":[100.4681128,13.7716446]}},{"type":"Feature","id":29,"properties":{"name":"Serithai Park","area":"Serithai Park, Bueng Kum, Bangkok","pm25":24.1,"aqi":48,"measured at":"2026-10-05 18:00","@type":"air4thai","@id":"bkp125t"},"geometry":{"type":"Point","coordinates":[100.6733359,13.7855673]}},{"type":"Feature","id":30,"properties":{"name":"Bang Khae Phirom Park","area":"Bang Khae Phirom Park, Bang Khae, Bangkok","pm25":14.5,"aqi":24,"measured at":"2026-10-05 18:00","@type":"air4thai","@id":"bkp126t"},"geometry":{"type":"Point","coordinates":[100.3844036,13.6863478]}},{"type":"Feature","id":31,"properties":{"name":"Thawee Wanarom Park","area":"Thawee Wanarom Park, Thawi Watthana, Bangkok","pm25":17.1,"aqi":31,"measured at":"2026-10-05 18:00","@type":"air4thai","@id":"bkp127t"},"geometry":{"type":"Point","coordinates":[100.3526893,13.7435329]}},{"type":"Feature","id":33,"properties":{"name":"Nong Chok Park","area":"Nong Chok Park, Nong Chok, Bangkok","pm25":17.2,"aqi":31,"measured at":"2026-10-05 18:00","@type":"air4thai","@id":"bkp129t"},"geometry":{"type":"Point","coordinates":[100.8585539,13.855656]}},{"type":"Feature","id":34,"properties":{"name":"Ramintra Sports Park","area":"Ramintra Sports Park, Bang Khen, Bangkok","pm25":18.1,"aqi":33,"measured at":"2026-10-05 18:00","@type":"air4thai","@id":"bkp130t"},"geometry":{"type":"Point","coordinates":[100.6207085,13.8778763]}},{"type":"Feature","id":35,"properties":{"name":"Public Park to commemorate the sixth anniversary of His Majesty the King","area":"Public Park to commemorate the sixth anniversary of His Majesty the King, Bang Kho Laem, Bangkok","pm25":16.8,"aqi":30,"measured at":"2026-10-05 18:00","@type":"air4thai","@id":"bkp131t"},"geometry":{"type":"Point","coordinates":[100.51830028147444,13.685524189587932]}},{"type":"Feature","id":36,"properties":{"name":"Rama VIII Park","area":"Rama VIII Park, Bang Plad, Bangkok","pm25":15.8,"aqi":28,"measured at":"2026-10-05 17:00","@type":"air4thai","@id":"bkp133t"},"geometry":{"type":"Point","coordinates":[100.4945337,13.7693437]}},{"type":"Feature","id":37,"properties":{"name":"Din Dang, Bangkok","area":"Din Dang, Bangkok","pm25":20.6,"aqi":39,"measured at":"2026-10-05 18:00","@type":"air4thai","@id":"bkp56t"},"geometry":{"type":"Point","coordinates":[100.558606,13.7619223]}},{"type":"Feature","id":38,"properties":{"name":"Phra Kanong District Office,  Bangkok","area":"Phra Kanong, Bangkok","pm25":18,"aqi":33,"measured at":"2026-10-05 18:00","@type":"air4thai","@id":"bkp57t"},"geometry":{"type":"Point","coordinates":[100.61457,13.691511]}},{"type":"Feature","id":39,"properties":{"name":"Rat Burana District Office,  Bangkok","area":"Rat Burana, Bangkok","pm25":21.7,"aqi":42,"measured at":"2026-10-05 18:00","@type":"air4thai","@id":"bkp58t"},"geometry":{"type":"Point","coordinates":[100.5060513,13.6821364]}},{"type":"Feature","id":40,"properties":{"name":"Ratchathewi District Office, Bangkok","area":"Phayathai Roadside, Ratchathewi, Bangkok","pm25":25.2,"aqi":51,"measured at":"2026-10-05 18:00","@type":"air4thai","@id":"bkp59t"},"geometry":{"type":"Point","coordinates":[100.5345788,13.7590851]}},{"type":"Feature","id":41,"properties":{"name":"Dusit District Office, Bangkok","area":"RamaV Roadside, Dusit, Bangkok","pm25":17.7,"aqi":32,"measured at":"2026-10-05 18:00","@type":"air4thai","@id":"bkp60t"},"geometry":{"type":"Point","coordinates":[100.520982,13.776664]}},{"type":"Feature","id":42,"properties":{"name":"National Economic and Social Development Council Office","area":"Krung Kasem Roadside, Pom Prap Sattru Phai, Bangkok","pm25":23.6,"aqi":47,"measured at":"2026-10-05 18:00","@type":"air4thai","@id":"bkp61t"},"geometry":{"type":"Point","coordinates":[100.514267,13.756281]}},{"type":"Feature","id":43,"properties":{"name":"Odeon Circus","area":"TheeMitr Roadside, Samphanthawong, Bangkok","pm25":22.5,"aqi":44,"measured at":"2026-10-05 18:00","@type":"air4thai","@id":"bkp62t"},"geometry":{"type":"Point","coordinates":[100.512734,13.737136]}},{"type":"Feature","id":44,"properties":{"name":"Army Apartment Sam Sen","area":"RamaVI Roadside, Phaya Thai, Bangkok","pm25":20.4,"aqi":39,"measured at":"2026-10-05 18:00","@type":"air4thai","@id":"bkp63t"},"geometry":{"type":"Point","coordinates":[100.5344645,13.783554]}},{"type":"Feature","id":45,"properties":{"name":"Wang Thonglang District Office, Bangkok","area":"Lat Phrao Rd Soi 95, Wang Thonglang, Bangkok","pm25":28.4,"aqi":64,"measured at":"2026-10-05 18:00","@type":"air4thai","@id":"bkp64t"},"geometry":{"type":"Point","coordinates":[100.622294,13.778981]}},{"type":"Feature","id":46,"properties":{"name":"Samyan Mitrtown","area":"RamaIV Roadside, Pathum Wan, Bangkok","pm25":25.8,"aqi":54,"measured at":"2026-10-05 18:00","@type":"air4thai","@id":"bkp65t"},"geometry":{"type":"Point","coordinates":[100.52829,13.733136]}},{"type":"Feature","id":47,"properties":{"name":"Bangrak Lovely Plaza","area":"Narathiwat Roadside, Bang Rak, Bangkok","pm25":19.5,"aqi":37,"measured at":"2026-10-05 18:00","@type":"air4thai","@id":"bkp66t"},"geometry":{"type":"Point","coordinates":[100.528055,13.726136]}},{"type":"Feature","id":48,"properties":{"name":"Sathon District Office, Bangkok","area":"Thung Wat Don, Sathon, Bangkok","pm25":23.5,"aqi":46,"measured at":"2026-10-05 18:00","@type":"air4thai","@id":"bkp67t"},"geometry":{"type":"Point","coordinates":[100.526787,13.707763]}},{"type":"Feature","id":49,"properties":{"name":"Bank of Ayuthaya Head Office Yan Nawa, Bangkok","area":"RamaIII Roadside, Yan Nawa, Bangkok","pm25":31.7,"aqi":77,"measured at":"2026-10-05 18:00","@type":"air4thai","@id":"bkp69t"},"geometry":{"type":"Point","coordinates":[100.54687,13.679226]}},{"type":"Feature","id":50,"properties":{"name":"Soi Sukhumwit 63 Roadside Wattana, Bangkok","area":"Soi Sukhumwit 63 Roadside, Wattana, Bangkok","pm25":17.1,"aqi":31,"measured at":"2026-10-05 18:00","@type":"air4thai","@id":"bkp70t"},"geometry":{"type":"Point","coordinates":[100.584559,13.722096]}},{"type":"Feature","id":51,"properties":{"name":"Suan Luang District Office, Bangkok","area":"Suan Luang, Bangkok","pm25":18.7,"aqi":35,"measured at":"2026-10-05 18:00","@type":"air4thai","@id":"bkp71t"},"geometry":{"type":"Point","coordinates":[100.651705,13.731051]}},{"type":"Feature","id":52,"properties":{"name":"Big C Supercenter Bang Na","area":"Bang Na-Trat Roadside, Bang na, Bangkok","pm25":20.9,"aqi":40,"measured at":"2026-10-05 18:00","@type":"air4thai","@id":"bkp72t"},"geometry":{"type":"Point","coordinates":[100.635313,13.667987]}},{"type":"Feature","id":53,"properties":{"name":"Kasertsart University","area":"Kasertsart Intersection, Chatuchak, Bangkok","pm25":33,"aqi":82,"measured at":"2026-10-05 18:00","@type":"air4thai","@id":"bkp73t"},"geometry":{"type":"Point","coordinates":[100.575632,13.839923]}},{"type":"Feature","id":54,"properties":{"name":"Don Mueng District Office, Bangkok","area":"Don Mueng, Bangkok","pm25":20.6,"aqi":39,"measured at":"2026-10-05 18:00","@type":"air4thai","@id":"bkp74t"},"geometry":{"type":"Point","coordinates":[100.594877,13.910986]}},{"type":"Feature","id":55,"properties":{"name":"Sai Mai District Office, Bangkok","area":"Sukhaphiban 5 Roadside, Sai Mai, Bangkok","pm25":26.9,"aqi":58,"measured at":"2026-10-05 18:00","@type":"air4thai","@id":"bkp75t"},"geometry":{"type":"Point","coordinates":[100.660628,13.896035]}},{"type":"Feature","id":57,"properties":{"name":"Suan Sayam-Ram Intra Intersection","area":"Suan Sayam-Ram Intra Intersection Khan Na Yao, Bangkok","pm25":18.2,"aqi":34,"measured at":"2026-10-05 18:00","@type":"air4thai","@id":"bkp77t"},"geometry":{"type":"Point","coordinates":[100.686594,13.813844]}},{"type":"Feature","id":58,"properties":{"name":"Lat Krabang Hospital","area":"Lat Krabang Roadside, Lat Krabang, Bangkok","pm25":23,"aqi":45,"measured at":"2026-10-05 18:00","@type":"air4thai","@id":"bkp78t"},"geometry":{"type":"Point","coordinates":[100.784069,13.72205]}},{"type":"Feature","id":59,"properties":{"name":"Chaloem Phrakiat Rama 9 Park Min buri, Bangkok","area":"Sihaburanukit Roadside, Meenburi, Bangkok","pm25":19.9,"aqi":38,"measured at":"2026-10-05 18:00","@type":"air4thai","@id":"bkp79t"},"geometry":{"type":"Point","coordinates":[100.73208,13.813578]}},{"type":"Feature","id":60,"properties":{"name":"Nong Chok District Office, Bangkok","area":"Liap Wari Roadsire, Nong Chok, Bangkok","pm25":21.7,"aqi":42,"measured at":"2026-10-05 18:00","@type":"air4thai","@id":"bkp80t"},"geometry":{"type":"Point","coordinates":[100.86267,13.855362]}},{"type":"Feature","id":61,"properties":{"name":"Seacon Square","area":"Srinakarin Roadside, Prawet, Bangkok","pm25":27.3,"aqi":60,"measured at":"2026-10-05 18:00","@type":"air4thai","@id":"bkp81t"},"geometry":{"type":"Point","coordinates":[100.647615,13.695561]}},{"type":"Feature","id":62,"properties":{"name":"Mahaisawan Intersection","area":"Ratchadaphisek Roadside, Thon Buri, Bangkok","pm25":16.2,"aqi":29,"measured at":"2026-10-05 18:00","@type":"air4thai","@id":"bkp82t"},"geometry":{"type":"Point","coordinates":[100.48465,13.70515]}},{"type":"Feature","id":63,"properties":{"name":"Library under King Taksin Bridge","area":"Charoen Nakorn Roadside, Klong San, Bangkok","pm25":15.3,"aqi":26,"measured at":"2026-10-05 18:00","@type":"air4thai","@id":"bkp83t"},"geometry":{"type":"Point","coordinates":[100.508782,13.719705]}},{"type":"Feature","id":64,"properties":{"name":"Tha phra Intersection","area":"Tha phra Intersection, Bangkok Yai, Bangkok","pm25":26.4,"aqi":56,"measured at":"2026-10-05 18:00","@type":"air4thai","@id":"bkp84t"},"geometry":{"type":"Point","coordinates":[100.474373,13.729431]}},{"type":"Feature","id":65,"properties":{"name":"Bangkok Noi Train Police Station","area":"Soi Nikhom Banphak Rodfai Thonburi5, Bangkok Noi, Bangkok","pm25":21.4,"aqi":41,"measured at":"2026-10-05 18:00","@type":"air4thai","@id":"bkp85t"},"geometry":{"type":"Point","coordinates":[100.481137,13.759619]}},{"type":"Feature","id":66,"properties":{"name":"Phutthamonthon 1 - Borommaratchachonnani Intersection","area":"Phutthamonthon 1 Roadside, Taling Chan, Bangkok","pm25":17.1,"aqi":31,"measured at":"2026-10-05 18:00","@type":"air4thai","@id":"bkp86t"},"geometry":{"type":"Point","coordinates":[100.426727,13.780778]}},{"type":"Feature","id":67,"properties":{"name":"Thon Buri Market Sanam Luang 2","area":"Klong Thawi Watthana Roadside, Thawi Watthana, Bangkok","pm25":20,"aqi":38,"measured at":"2026-10-05 18:00","@type":"air4thai","@id":"bkp87t"},"geometry":{"type":"Point","coordinates":[100.355099,13.746257]}},{"type":"Feature","id":68,"properties":{"name":"Siam University","area":"Petchkasem Roadside, Phasi Charoen, Bangkok","pm25":19.1,"aqi":36,"measured at":"2026-10-05 18:00","@type":"air4thai","@id":"bkp88t"},"geometry":{"type":"Point","coordinates":[100.45391,13.718689]}},{"type":"Feature","id":69,"properties":{"name":"Ma Charean Roadside, Petcha Kasem 8, Nong Khaem","area":"Ma Charean Roadside Nong Khaem, Bangkok","pm25":17.8,"aqi":33,"measured at":"2026-10-05 18:00","@type":"air4thai","@id":"bkp89t"},"geometry":{"type":"Point","coordinates":[100.343164,13.705582]}},{"type":"Feature","id":70,"properties":{"name":"Bang Bon 5 Market","area":"Ekkachai Roadside, Bang Bon, Bangkok","pm25":21,"aqi":40,"measured at":"2026-10-05 18:00","@type":"air4thai","@id":"bkp90t"},"geometry":{"type":"Point","coordinates":[100.372958,13.639165]}},{"type":"Feature","id":71,"properties":{"name":"King Mongkut's University of Technology Thonburi ","area":"Pracha Uthit Roadside, Thung Khru, Bangkok","pm25":15.1,"aqi":26,"measured at":"2026-10-05 18:00","@type":"air4thai","@id":"bkp91t"},"geometry":{"type":"Point","coordinates":[100.496673,13.651004]}},{"type":"Feature","id":72,"properties":{"name":"Phra Nakhon District Office, Bangkok","area":"Samsen Roadside, Phra Nakhon, Bangkok","pm25":22.8,"aqi":45,"measured at":"2026-10-05 18:00","@type":"air4thai","@id":"bkp92t"},"geometry":{"type":"Point","coordinates":[100.499077,13.76415]}},{"type":"Feature","id":73,"properties":{"name":"Huai Khwang District Office, Bangkok","area":"Huai Khwang, Bangkok","pm25":19.3,"aqi":36,"measured at":"2026-10-05 18:00","@type":"air4thai","@id":"bkp93t"},"geometry":{"type":"Point","coordinates":[100.579543,13.77682]}},{"type":"Feature","id":74,"properties":{"name":"Khlong Toei District Office, Bangkok","area":"Khlong Toei, Bangkok","pm25":26.4,"aqi":56,"measured at":"2026-10-05 18:00","@type":"air4thai","@id":"bkp94t"},"geometry":{"type":"Point","coordinates":[100.583747,13.708488]}},{"type":"Feature","id":75,"properties":{"name":"Bang Sue District Office, Bangkok","area":"Bang Sue, Bangkok","pm25":19.1,"aqi":36,"measured at":"2026-10-05 18:00","@type":"air4thai","@id":"bkp95t"},"geometry":{"type":"Point","coordinates":[100.537883,13.809596]}},{"type":"Feature","id":76,"properties":{"name":"Ladphrao District Office, Bangkok","area":"Ladphrao, Bangkok","pm25":26.8,"aqi":58,"measured at":"2026-10-05 18:00","@type":"air4thai","@id":"bkp96t"},"geometry":{"type":"Point","coordinates":[100.607535,13.803587]}},{"type":"Feature","id":77,"properties":{"name":"Lak Si District Office, Bangkok","area":"Thung Song Hong, Lak Si, Bangkok","pm25":25,"aqi":50,"measured at":"2026-10-05 18:00","@type":"air4thai","@id":"bkp97t"},"geometry":{"type":"Point","coordinates":[100.579247,13.887395]}},{"type":"Feature","id":78,"properties":{"name":"Bang Khen District Office, Bangkok","area":"Phahon Yothin Roadside, Bang Khen, Bangkok","pm25":25.5,"aqi":53,"measured at":"2026-10-05 18:00","@type":"air4thai","@id":"bkp98t"},"geometry":{"type":"Point","coordinates":[100.595839,13.873603]}},{"type":"Feature","id":79,"properties":{"name":"Saphan Sung District Office, Bangkok","area":"Saphan Sung, Bangkok","pm25":18.1,"aqi":33,"measured at":"2026-10-05 18:00","@type":"air4thai","@id":"bkp99t"},"geometry":{"type":"Point","coordinates":[100.685743,13.768892]}},{"type":"Feature","id":80,"properties":{"name":"National Housing Authority Klongchan","area":"Klong Chan, Khet Bang Kapi, Bangkok","pm25":18,"aqi":33,"measured at":"2026-10-05 18:00","@type":"air4thai","@id":"o10"},"geometry":{"type":"Point","coordinates":[100.646009,13.779873]}},{"type":"Feature","id":81,"properties":{"name":"Kanchanaburi Meteorological Station","area":"Ban Nuea, Mueang, Kanchanaburi","pm25":24.3,"aqi":48,"measured at":"2026-10-05 18:00","@type":"air4thai","@id":"79t"},"geometry":{"type":"Point","coordinates":[99.536195,14.022376]}},{"type":"Feature","id":85,"properties":{"name":"Chanthaburi Meteorological Station","area":"Wat Mai Subdistrict, Mueang District, Chanthaburi","pm25":11.3,"aqi":19,"measured at":"2026-10-05 18:00","@type":"air4thai","@id":"100t"},"geometry":{"type":"Point","coordinates":[102.1040804,12.6095704]}},{"type":"Feature","id":86,"properties":{"name":"Municipality Office Tungsadao","area":"Wang Yen, Plaeng Yao, Chachoengsao","pm25":31.5,"aqi":76,"measured at":"2026-10-05 18:00","@type":"air4thai","@id":"60t"},"geometry":{"type":"Point","coordinates":[101.2863333,13.5885]}},{"type":"Feature","id":87,"properties":{"name":"Health Promotion Hospital Bankhaohin","area":"Bo Win, Si Racha, Chon buri","pm25":16.3,"aqi":29,"measured at":"2026-10-05 18:00","@type":"air4thai","@id":"33t"},"geometry":{"type":"Point","coordinates":[101.098128,13.054551]}},{"type":"Feature","id":88,"properties":{"name":"Environment Agency Section 13, Chonburi","area":"Ban Suan, Mueang, Chon Buri","pm25":10.3,"aqi":17,"measured at":"2026-10-05 18:00","@type":"air4thai","@id":"34t"},"geometry":{"type":"Point","coordinates":[100.9792167,13.35461667]}},{"type":"Feature","id":89,"properties":{"name":"Laem Chabang Municipal Stadium","area":"Thung Sukhla, Si Racha, Chon buri","pm25":15.9,"aqi":28,"measured at":"2026-10-05 18:00","@type":"air4thai","@id":"o61"},"geometry":{"type":"Point","coordinates":[100.91855,13.11923333]}},{"type":"Feature","id":90,"properties":{"name":"Chalermprakiat Rama IX Park","area":"Ban Kluai Subdistrict, Mueang District, Chai Nat","pm25":16.7,"aqi":30,"measured at":"2026-10-05 18:00","@type":"air4thai","@id":"117t"},"geometry":{"type":"Point","coordinates":[100.132105,15.173475]}},{"type":"Feature","id":94,"properties":{"name":"Trat Provincial Central Stadium","area":"Bang Phra, Mueang, Trat","pm25":13.5,"aqi":23,"measured at":"2026-10-05 18:00","@type":"air4thai","@id":"87t"},"geometry":{"type":"Point","coordinates":[102.523721,12.234862]}},{"type":"Feature","id":96,"properties":{"name":"Nakhon Nayok Municipality Public Health Service Center","area":"Ban Yai Subdistrict, Mueang District, Nakhon Nayok","pm25":15.9,"aqi":28,"measured at":"2026-10-05 18:00","@type":"air4thai","@id":"105t"},"geometry":{"type":"Point","coordinates":[101.21509,14.20422]}},{"type":"Feature","id":97,"properties":{"name":"Water reservoir","area":"Mueang, Nakhon Pathom","pm25":14.9,"aqi":25,"measured at":"2026-10-05 18:00","@type":"air4thai","@id":"81t"},"geometry":{"type":"Point","coordinates":[100.057961,13.832076]}},{"type":"Feature","id":99,"properties":{"name":"Municipal Waste Water Pumping Station","area":"Nai Mueang, Mueang, Nakhon Ratchasima","pm25":15.8,"aqi":28,"measured at":"2026-10-05 18:00","@type":"air4thai","@id":"47t"},"geometry":{"type":"Point","coordinates":[102.098335,14.979537]}},{"type":"Feature","id":102,"properties":{"name":"Department of Disease Control","area":"Talad Kwan, Muang, Nonthaburi","pm25":13.5,"aqi":23,"measured at":"2026-10-05 18:00","@type":"air4thai","@id":"13t"},"geometry":{"type":"Point","coordinates":[100.529444,13.852778]}},{"type":"Feature","id":103,"properties":{"name":"Sukhothai Thammathirat Open University","area":"Bang Phut, Pak Kret, Nonthaburi","pm25":17.7,"aqi":32,"measured at":"2026-10-05 18:00","@type":"air4thai","@id":"22t"},"geometry":{"type":"Point","coordinates":[100.535641,13.907861]}},{"type":"Feature","id":109,"properties":{"name":"Bangkok University Rangsit Campus","area":"Khlong Nueng, Khlong Luang, Pathum Thani","pm25":23.4,"aqi":46,"measured at":"2026-10-05 18:00","@type":"air4thai","@id":"20t"},"geometry":{"type":"Point","coordinates":[100.605216,14.03742]}},{"type":"Feature","id":110,"properties":{"name":"Hua Hin Weather Station Prachuap Khiri Khan Meteorological Station","area":"Hua Hin Subdistrict, Hua Hin District, Prachuap Khiri Khan","pm25":11.8,"aqi":20,"measured at":"2026-10-05 18:00","@type":"air4thai","@id":"103t"},"geometry":{"type":"Point","coordinates":[99.953663,12.577835]}},{"type":"Feature","id":111,"properties":{"name":"Bu Yai Bai Hall Station","area":"Tha Tum, SiMahaPhot, Prachin Buri","pm25":21.2,"aqi":41,"measured at":"2026-10-05 18:00","@type":"air4thai","@id":"77t"},"geometry":{"type":"Point","coordinates":[101.590529,13.917563]}},{"type":"Feature","id":113,"properties":{"name":"Ayutthaya Witthayalai School","area":"Pratu Chai, Phra Nakhon Si Ayutthaya","pm25":24.7,"aqi":49,"measured at":"2026-10-05 18:00","@type":"air4thai","@id":"21t"},"geometry":{"type":"Point","coordinates":[100.565325,14.35222]}},{"type":"Feature","id":125,"properties":{"name":"Health Promotion Hospital Maptaput","area":"Map Ta Phut, Meuang, Rayong","pm25":31,"aqi":74,"measured at":"2026-10-03 14:00","@type":"air4thai","@id":"29t"},"geometry":{"type":"Point","coordinates":[101.1659833,12.70865]}},{"type":"Feature","id":126,"properties":{"name":"Rayong Provincial Stadium","area":" Noen Phra, Muang Rayong, Rayong","pm25":13.7,"aqi":23,"measured at":"2026-10-05 18:00","@type":"air4thai","@id":"30t"},"geometry":{"type":"Point","coordinates":[101.234664,12.678917]}},{"type":"Feature","id":128,"properties":{"name":"Government Complex, Rayong","area":"Nern Pra, Meuang, Rayong","pm25":7,"aqi":12,"measured at":"2026-09-15 19:00","@type":"air4thai","@id":"74t"},"geometry":{"type":"Point","coordinates":[101.18055,12.7066]}},{"type":"Feature","id":129,"properties":{"name":"Khai Surasinghanat","area":"Taphong, Mueang, Rayong","pm25":9.8,"aqi":16,"measured at":"2026-10-05 18:00","@type":"air4thai","@id":"o63"},"geometry":{"type":"Point","coordinates":[101.32245,12.648576]}},{"type":"Feature","id":130,"properties":{"name":"Environmental Office 8 ratchaburi","area":"Na Mueang, Mueang, Ratchaburi","pm25":10.7,"aqi":18,"measured at":"2026-09-19 20:00","@type":"air4thai","@id":"26t"},"geometry":{"type":"Point","coordinates":[99.814082,13.52344]}},{"type":"Feature","id":132,"properties":{"name":" Meteorological Station Lopburi","area":" Talay Chupson Subdistrict, Mueang District, Lopburi","pm25":19.2,"aqi":36,"measured at":"2026-10-05 18:00","@type":"air4thai","@id":"99t"},"geometry":{"type":"Point","coordinates":[100.628548,14.800032]}},{"type":"Feature","id":142,"properties":{"name":"Prabadang Rehabiltation Center","area":"Song Kanong, Phra Pradaeng, Samut Prakan","pm25":23.4,"aqi":46,"measured at":"2026-10-05 18:00","@type":"air4thai","@id":"08t"},"geometry":{"type":"Point","coordinates":[100.543436,13.664087]}},{"type":"Feature","id":143,"properties":{"name":"South Bangkok Power Plant","area":"Bang Prong, Meuang, Samut Prakan","pm25":14.4,"aqi":24,"measured at":"2026-10-05 18:00","@type":"air4thai","@id":"16t"},"geometry":{"type":"Point","coordinates":[100.5562,13.618]}},{"type":"Feature","id":144,"properties":{"name":"Residence for Dept. of Mineral Resources","area":"Talat, Phra Pradaeng, Samut Prakan","pm25":16,"aqi":28,"measured at":"2026-10-05 18:00","@type":"air4thai","@id":"17t"},"geometry":{"type":"Point","coordinates":[100.531805,13.652141]}},{"type":"Feature","id":145,"properties":{"name":"City Hall, Samut Prakan","area":"Pak Nam, Meuang, Samut Prakan","pm25":23.1,"aqi":45,"measured at":"2026-09-10 21:00","@type":"air4thai","@id":"18t"},"geometry":{"type":"Point","coordinates":[100.597345,13.599149]}},{"type":"Feature","id":146,"properties":{"name":"National Housing Authority Bangplee","area":"Bang Sao Thong, Bang Sao Thong, Samut Prakan ","pm25":17.4,"aqi":32,"measured at":"2026-10-02 12:00","@type":"air4thai","@id":"19t"},"geometry":{"type":"Point","coordinates":[100.7862867,13.5705]}},{"type":"Feature","id":147,"properties":{"name":"Samut Songkhram Health Office","area":"Mueang, Samut Songkhram","pm25":11.1,"aqi":19,"measured at":"2026-10-05 18:00","@type":"air4thai","@id":"84t"},"geometry":{"type":"Point","coordinates":[100.024664,13.428581]}},{"type":"Feature","id":148,"properties":{"name":"Highway District","area":"Om Noi, Krathum Baen, Samut Sakhon","pm25":19,"aqi":35,"measured at":"2026-10-05 18:00","@type":"air4thai","@id":"14t"},"geometry":{"type":"Point","coordinates":[100.315622,13.7054879]}},{"type":"Feature","id":149,"properties":{"name":"Samut Sakhon Wittayalai School","area":"Maha Chai, Mueang, Samut Sakhon","pm25":14.1,"aqi":24,"measured at":"2026-10-05 18:00","@type":"air4thai","@id":"27t"},"geometry":{"type":"Point","coordinates":[100.2647676,13.5502631]}},{"type":"Feature","id":150,"properties":{"name":"Na Phralan Police Station ","area":"Na Phra Lan, Chaloem Phra Kiat, Saraburi","pm25":29.8,"aqi":70,"measured at":"2026-10-05 18:00","@type":"air4thai","@id":"24t"},"geometry":{"type":"Point","coordinates":[100.871996,14.685833]}},{"type":"Feature","id":151,"properties":{"name":"Khao Noi Fire Station","area":"Pak Phriao, Mueang Saraburi, Saraburi","pm25":16.3,"aqi":29,"measured at":"2026-10-05 18:00","@type":"air4thai","@id":"25t"},"geometry":{"type":"Point","coordinates":[100.926047,14.526343]}},{"type":"Feature","id":152,"properties":{"name":"Kanjanapisek Park","area":"Aranyaprathet, Aranyaprathet, Sa Kaeo","pm25":8.6,"aqi":14,"measured at":"2026-10-05 18:00","@type":"air4thai","@id":"71t"},"geometry":{"type":"Point","coordinates":[102.510442,13.691047]}},{"type":"Feature","id":153,"properties":{"name":"SINGBURI SCHOOL","area":" Bang Man Subdistrict, Mueang District, Sing Buri","pm25":17,"aqi":31,"measured at":"2026-10-05 18:00","@type":"air4thai","@id":"104t"},"geometry":{"type":"Point","coordinates":[100.4130773,14.8933874]}},{"type":"Feature","id":154,"properties":{"name":"Suphan Buri Provincial Central Stadium","area":"Don Kamyan, Mueang, Suphun Buri","pm25":11.6,"aqi":19,"measured at":"2026-10-05 18:00","@type":"air4thai","@id":"85t"},"geometry":{"type":"Point","coordinates":[100.086095,14.476214]}},{"type":"Feature","id":163,"properties":{"name":"Chaloem Phrakiat Park Station 80th birthday celebration","area":"Mueang, Uthai Thani","pm25":14.8,"aqi":25,"measured at":"2026-10-05 18:00","@type":"air4thai","@id":"98t"},"geometry":{"type":"Point","coordinates":[100.024992,15.384667]}},{"type":"Feature","id":165,"properties":{"name":"Chaloem Phra Kiat Water Park","area":"Yan Sue Subdistrict, Mueang Ang Thong District Ang Thong Province","pm25":17.7,"aqi":32,"measured at":"2026-10-05 18:00","@type":"air4thai","@id":"116t"},"geometry":{"type":"Point","coordinates":[100.453589,14.606306]}}]}