{"type":"FeatureCollection","features":[{"type":"Feature","id":968104723,"properties":{"military":"barracks","@type":"node","@id":968104723,"branch":"army"},"geometry":{"type":"Point","coordinates":[102.9113854,14.2419882]}},{"type":"Feature","id":1662778229,"properties":{"landuse":"military","military":"barracks","name":"กองร้อยอาสารักษาดินแดงนครศรีธรรมราชที่ 9","name:th":"กองร้อยอาสารักษาดินแดงนครศรีธรรมราชที่ 9","@type":"node","@id":1662778229,"branch":"army"},"geometry":{"type":"Point","coordinates":[99.9931511,8.2930445]}},{"type":"Feature","id":2193339375,"properties":{"military":"barracks","name":"บก.ปภ. 95 ตชด. กองร้อยถวายความปลอดภัย","name:en":"Royal Security Guards","@type":"node","@id":2193339375,"branch":"army"},"geometry":{"type":"Point","coordinates":[99.8104925,20.2760653]}},{"type":"Feature","id":2666846792,"properties":{"military":"barracks","name":"Military Post","@type":"node","@id":2666846792,"branch":"army"},"geometry":{"type":"Point","coordinates":[98.399721,19.660534]}},{"type":"Feature","id":2850081644,"properties":{"military":"barracks","name":"ค่ายมหาสุรสิงหนาท","name:th":"ค่ายมหาสุรสิงหนาท","@type":"node","@id":2850081644,"branch":"army"},"geometry":{"type":"Point","coordinates":[101.3219346,12.6487344]}},{"type":"Feature","id":4623395995,"properties":{"military":"barracks","@type":"node","@id":4623395995,"branch":"army"},"geometry":{"type":"Point","coordinates":[101.0193577,12.7079861]}},{"type":"Feature","id":4630711823,"properties":{"addr:street":"ถนนสุขุมวิท","military":"barracks","name":"กรมต่อสู้อากาศยานที่ 1","name:th":"กรมต่อสู้อากาศยานที่ 1","@type":"node","@id":4630711823,"branch":"army"},"geometry":{"type":"Point","coordinates":[101.0012326,12.7005895]}},{"type":"Feature","id":5375847464,"properties":{"military":"barracks","@type":"node","@id":5375847464,"branch":"army"},"geometry":{"type":"Point","coordinates":[98.5738931,19.7039074]}},{"type":"Feature","id":7620481080,"properties":{"military":"barracks","name":"ค่ายยุทธศิลป์ประสิทธฺ์ กองพันทหารปีนใหญ่ที่ 13","name:en":"Yutthasinprasit Camp 13th Artillery Battalion","name:th":"ค่ายยุทธศิลป์ประสิทธฺ์ กองพันทหารปีนใหญ่ที่ 13","@type":"node","@id":7620481080,"branch":"army"},"geometry":{"type":"Point","coordinates":[102.8838462,17.2669583]}},{"type":"Feature","id":7620488503,"properties":{"alt_name":"สำนักงานพัฒนาภาค 2","military":"barracks","name":"สำนักงานพัฒนาภาค 2 หน่วยบัญชาการทหารพัฒนา กองบัญชาการกองทัพไทย","name:en":"2nd Regional Development Office Armed Forces Development Command","name:th":"สำนักงานพัฒนาภาค 2 หน่วยบัญชาการทหารพัฒนา กองบัญชาการกองทัพไทย","@type":"node","@id":7620488503,"branch":"army"},"geometry":{"type":"Point","coordinates":[102.8881162,17.2602194]}},{"type":"Feature","id":7781988202,"properties":{"military":"barracks","name":"กองพันทหารราบที่ 2","name:th":"กองพันทหารราบที่ 2","@type":"node","@id":7781988202,"branch":"army"},"geometry":{"type":"Point","coordinates":[104.8913455,15.1934948]}},{"type":"Feature","id":7782002798,"properties":{"military":"barracks","name":"มณฑลทหารบกที่ 22","name:th":"มณฑลทหารบกที่ 22","@type":"node","@id":7782002798,"branch":"army"},"geometry":{"type":"Point","coordinates":[104.8831832,15.1974187]}},{"type":"Feature","id":7782017699,"properties":{"military":"barracks","name":"กองพันทหารปืนใหญ่ที่ 6","name:en":"6th Artillery Battalion","name:th":"กองพันทหารปืนใหญ่ที่ 6","@type":"node","@id":7782017699,"branch":"army"},"geometry":{"type":"Point","coordinates":[104.8781222,15.1899331]}},{"type":"Feature","id":7898150902,"properties":{"military":"barracks","name":"กองพันทหารราบที่ 2","name:en":"2nd Infantry Battalion","name:th":"กองพันทหารราบที่ 2","@type":"node","@id":7898150902,"branch":"army"},"geometry":{"type":"Point","coordinates":[104.0588254,15.9129965]}},{"type":"Feature","id":8863859189,"properties":{"landuse":"military","military":"barracks","@type":"node","@id":8863859189,"branch":"army"},"geometry":{"type":"Point","coordinates":[98.3177313,19.6937449]}},{"type":"Feature","id":8863875242,"properties":{"landuse":"military","military":"barracks","@type":"node","@id":8863875242,"branch":"army"},"geometry":{"type":"Point","coordinates":[98.306761,19.6871973]}},{"type":"Feature","id":8892791446,"properties":{"landuse":"military","military":"barracks","@type":"node","@id":8892791446,"branch":"army"},"geometry":{"type":"Point","coordinates":[98.0834623,19.7913589]}},{"type":"Feature","id":8892791584,"properties":{"landuse":"military","military":"barracks","@type":"node","@id":8892791584,"branch":"army"},"geometry":{"type":"Point","coordinates":[98.1331958,19.7869914]}},{"type":"Feature","id":8892791585,"properties":{"landuse":"military","military":"barracks","@type":"node","@id":8892791585,"branch":"army"},"geometry":{"type":"Point","coordinates":[98.1396438,19.7820951]}},{"type":"Feature","id":8892791586,"properties":{"landuse":"military","military":"barracks","@type":"node","@id":8892791586,"branch":"army"},"geometry":{"type":"Point","coordinates":[98.9377673,19.7706777]}},{"type":"Feature","id":8892791587,"properties":{"landuse":"military","military":"barracks","@type":"node","@id":8892791587,"branch":"army"},"geometry":{"type":"Point","coordinates":[99.5033057,20.1388769]}},{"type":"Feature","id":14124829130,"properties":{"historic":"building","landuse":"military","military":"base","name":"ค่ายทหารฝรั่งเศส จันทบุรี","name:en":"The Old French Army Base","@type":"node","@id":14124829130,"branch":"army"},"geometry":{"type":"Point","coordinates":[102.1102617,12.6176409]}},{"type":"Feature","id":124849773,"properties":{"addr:district":"พญาไท","addr:housenumber":"195","addr:postcode":"10400","addr:province":"กรุงเทพมหานคร","addr:street":"ถนนวิภาวดีรังสิต","addr:subdistrict":"สามเสนใน","landuse":"military","leisure":"sports_centre","name":"สโมสรทหารบกวิภาวดี","name:en":"Army Club Viphavadi","name:th":"สโมสรทหารบกวิภาวดี","wikidata":"Q132860475","@type":"way","@id":124849773,"branch":"army"},"geometry":{"type":"Point","coordinates":[100.557196,13.7831121]}},{"type":"Feature","id":152947526,"properties":{"barrier":"wall","landuse":"military","name":"จังหวัดทหารบกบุรีรัมย์","name:en":"Army Province Buri Ram 26th Military Circle","source":"Bing; sign","@type":"way","@id":152947526,"branch":"army"},"geometry":{"type":"Point","coordinates":[103.0866005,14.9214645]}},{"type":"Feature","id":173118629,"properties":{"landuse":"military","military_service":"army","name":"กรมยุทธโยธาทหารบก","name:en":"Post Engineer Department","name:th":"กรมยุทธโยธาทหารบก","wikidata":"Q13012507","wikipedia":"th:กรมยุทธโยธาทหารบก","@type":"way","@id":173118629,"branch":"army"},"geometry":{"type":"Point","coordinates":[100.5779821,13.8387948]}},{"type":"Feature","id":175683949,"properties":{"amenity":"college","education":"college","landuse":"military","name":"โรงเรียนเสนาธิการทหารบก","name:en":"Royal Thai Army Command and General Staff College","name:th":"โรงเรียนเสนาธิการทหารบก","wikidata":"Q13027435","wikipedia":"th:โรงเรียนเสนาธิการทหารบก","@type":"way","@id":175683949,"branch":"army"},"geometry":{"type":"Point","coordinates":[100.526919,13.7847357]}},{"type":"Feature","id":175762553,"properties":{"landuse":"military","military":"base","name":"กรมทหารราบที่ 11 มหาดเล็กราชวัลลภรักษาพระองค์","name:en":"11th Infantry Regiment","name:th":"กรมทหารราบที่ 11 มหาดเล็กราชวัลลภรักษาพระองค์","wikidata":"Q16304194","wikipedia":"th:กรมทหารราบที่ 11 มหาดเล็กราชวัลลภรักษาพระองค์","@type":"way","@id":175762553,"branch":"army"},"geometry":{"type":"Point","coordinates":[100.5952946,13.8588412]}},{"type":"Feature","id":175803685,"properties":{"landuse":"military","military_service":"army","name":"กรมการขนส่งทหารบก","name:en":"Army Transportation Department","name:th":"กรมการขนส่งทหารบก","website":"https://matulee.rta.mi.th/web/","@type":"way","@id":175803685,"branch":"army"},"geometry":{"type":"Point","coordinates":[100.5303378,13.7910061]}},{"type":"Feature","id":176359249,"properties":{"landuse":"military","name":"กองบัญชาการกองทัพภาคที่ 1","name:en":"1st Army Area Headquarters","name:th":"กองบัญชาการกองทัพภาคที่ 1","@type":"way","@id":176359249,"branch":"army"},"geometry":{"type":"Point","coordinates":[100.5118812,13.7663964]}},{"type":"Feature","id":176359251,"properties":{"landuse":"military","name":"กองพลที่ 1 รักษาพระองค์","name:en":"1st Division, the King's Guard","name:th":"กองพลที่ 1 รักษาพระองค์","@type":"way","@id":176359251,"branch":"army"},"geometry":{"type":"Point","coordinates":[100.5085827,13.7685165]}},{"type":"Feature","id":176755822,"properties":{"alt_name":"โรงเรียนนายร้อยพระจุลจอมเกล้า (เดิม)","landuse":"military","name":"กองบัญชาการกองทัพบก","name:en":"Royal Thai Army Headquarters","name:th":"กองบัญชาการกองทัพบก","@type":"way","@id":176755822,"branch":"army"},"geometry":{"type":"Point","coordinates":[100.5064577,13.7624479]}},{"type":"Feature","id":191960351,"properties":{"landuse":"military","name":"กรมทหารปืนใหญ่ต่อสู้อากาศยานที่ 1","@type":"way","@id":191960351,"branch":"army"},"geometry":{"type":"Point","coordinates":[100.568123,13.893007]}},{"type":"Feature","id":191960353,"properties":{"landuse":"military","name":"มณฑลทหารบกที่ 11","name:en":"11th Military Circle","name:th":"มณฑลทหารบกที่ 11","official_name":"กองพันทหารราบ มณฑลทหารบกที่ 11","official_name:en":"Infantry Battalion 11th Military Circle","official_name:th":"กองพันทหารราบ มณฑลทหารบกที่ 11","@type":"way","@id":191960353,"branch":"army"},"geometry":{"type":"Point","coordinates":[100.5558898,13.8915301]}},{"type":"Feature","id":191960355,"properties":{"landuse":"military","name":"กองร้อยลาดตระเวนระยะไกลที่ 1 กองพลที่ 1 รักษาพระองค์","@type":"way","@id":191960355,"branch":"army"},"geometry":{"type":"Point","coordinates":[100.5686461,13.8915588]}},{"type":"Feature","id":194555883,"properties":{"landuse":"military","name":"กองพันทหารราบที่ 3 กรมทหารมหาดเล็กราชวัลลภรักษาพระองค์ที่ 1","name:en":"3rd Infantry Battalion, 1st King's Own Bodyguard Regiment","name:th":"กองพันทหารราบที่ 3 กรมทหารมหาดเล็กราชวัลลภรักษาพระองค์ที่ 1","wikidata":"Q13012737","wikipedia":"th:กองพันทหารราบที่ 3 กรมทหารมหาดเล็กราชวัลลภรักษาพระองค์ที่ 1","@type":"way","@id":194555883,"branch":"army"},"geometry":{"type":"Point","coordinates":[100.5242454,13.7867577]}},{"type":"Feature","id":194755604,"properties":{"landuse":"military","name":"กรมพลาธิการทหารบก","name:en":"Quatermaster Department Royal Thai Army","name:th":"กรมพลาธิการทหารบก","@type":"way","@id":194755604,"branch":"army"},"geometry":{"type":"Point","coordinates":[100.5136964,13.8748025]}},{"type":"Feature","id":199988154,"properties":{"landuse":"military","name":"กรมพลาธิการทหารบก","name:en":"Quartermaster Department, Royal Thai Army","source":"Bing","@type":"way","@id":199988154,"branch":"army"},"geometry":{"type":"Point","coordinates":[100.4961866,13.8871822]}},{"type":"Feature","id":244834139,"properties":{"landuse":"military","operator:en":"Royal Thai Army","@type":"way","@id":244834139,"branch":"army"},"geometry":{"type":"Point","coordinates":[99.0377919,19.8030336]}},{"type":"Feature","id":304838060,"properties":{"addr:housenumber":"2","addr:street":"ถนนพระอาทิตย์","barrier":"wall","landuse":"military","military":"training","name":"โรงเรียนข่าวทหารบก","name:en":"The Military Intelligence School","name:th":"โรงเรียนข่าวทหารบก","short_name:th":"รร.ขว.ทบ.","start_date":"1973","@type":"way","@id":304838060,"branch":"army"},"geometry":{"type":"Point","coordinates":[100.4928285,13.7607767]}},{"type":"Feature","id":310897618,"properties":{"fixme":"Not sure whether hill inside or outside camp area","landuse":"military","name":"ศูนย์การทหารม้า ค่ายอดิศร","name:en":"Cavalry Center (Adisorn Camp)","@type":"way","@id":310897618,"branch":"army"},"geometry":{"type":"Point","coordinates":[100.9296603,14.4952426]}},{"type":"Feature","id":331012742,"properties":{"landuse":"military","name":"กองพันทหารราบที่๑๕","name:en":"15th Infantry Battalion","name:th":"กองพันทหารราบที่๑๕","@type":"way","@id":331012742,"branch":"army"},"geometry":{"type":"Point","coordinates":[99.1469632,7.9701173]}},{"type":"Feature","id":456321599,"properties":{"email":"itmtb37@gmail.com","fax":"+6653711200","landuse":"military","military":"barracks","name":"มณฑลทหารบกที่ 37 ค่ายเม็งรายมหาราช","name:en":"Fort Mengraimaharaj","name:th":"มณฑลทหารบกที่ 37 ค่ายเม็งรายมหาราช","phone":"+6653711200","website":"https://www.mengraifort.com/","@type":"way","@id":456321599,"branch":"army"},"geometry":{"type":"Point","coordinates":[99.8106772,19.911231]}},{"type":"Feature","id":465131098,"properties":{"alt_name":"ค่าย บดินทรเดชา","alt_name:en":"Bodindecha Camp","landuse":"military","name":"กองพันทหารราบที่ 3","name:en":"3rd Infantry Battalion","name:th":"กองพันทหารราบที่ 3","note":"Approx outline","source":"Bing","@type":"way","@id":465131098,"branch":"army"},"geometry":{"type":"Point","coordinates":[104.0599591,15.9074032]}},{"type":"Feature","id":482981301,"properties":{"landuse":"military","name":"กองพลทหารม้าที่ 2","name:th":"กองพลทหารม้าที่ 2","@type":"way","@id":482981301,"branch":"army"},"geometry":{"type":"Point","coordinates":[100.5444145,13.7700991]}},{"type":"Feature","id":557589009,"properties":{"landuse":"military","name":"กรมการทหารสื่อสาร","name:en":"Army Signal Department","name:th":"กรมการทหารสื่อสาร","@type":"way","@id":557589009,"branch":"army"},"geometry":{"type":"Point","coordinates":[100.5270042,13.7922174]}},{"type":"Feature","id":722877847,"properties":{"addr:housenumber":"150","addr:place":"หมู่ที่ 8","barrier":"fence","landuse":"military","name":"โรงงานซ่อมยาง กองโรงงานซ่อมสร้างรถยนต์ทหาร","name:en":"Army Factory","name:ja":"タイヤ修理工場・軍用車両修理工場部門","name:zh":"大城陆军兵械","name:zh-Hant":"大城陸軍兵械","@type":"way","@id":722877847,"branch":"army"},"geometry":{"type":"Point","coordinates":[100.5497022,14.3546402]}},{"type":"Feature","id":754589927,"properties":{"landuse":"military","military":"base","military_service":"army","name:en":"Army Tactical Training Centre","@type":"way","@id":754589927,"branch":"army"},"geometry":{"type":"Point","coordinates":[101.0840811,15.1998335]}},{"type":"Feature","id":759603161,"properties":{"landuse":"military","name":"กรมทหารราบที่ 9 ค่ายสุรสีห์","name:en":"Fort Surasee - 9th Infantry Div.","note":"Boundary estimated.","source":"Bing","@type":"way","@id":759603161,"branch":"army"},"geometry":{"type":"Point","coordinates":[99.4649144,14.1055414]}},{"type":"Feature","id":759794514,"properties":{"landuse":"military","name":"Royal Thai Army Camp","@type":"way","@id":759794514,"branch":"army"},"geometry":{"type":"Point","coordinates":[98.3868234,15.3006266]}},{"type":"Feature","id":761226271,"properties":{"building":"yes","military":"barracks","name":"อาคารการ์ดทหาร","name:en":"Royal Guard Office","name:th":"อาคารการ์ดทหาร","@type":"way","@id":761226271,"branch":"army"},"geometry":{"type":"Point","coordinates":[100.5779196,14.2326948]}},{"type":"Feature","id":778234781,"properties":{"landuse":"military","operator":"Royal Thai Army","@type":"way","@id":778234781,"branch":"army"},"geometry":{"type":"Point","coordinates":[99.2682243,20.1141789]}},{"type":"Feature","id":778234782,"properties":{"landuse":"military","operator":"Royal Thai Army","@type":"way","@id":778234782,"branch":"army"},"geometry":{"type":"Point","coordinates":[99.2599618,20.1130493]}},{"type":"Feature","id":778278559,"properties":{"access":"no","landuse":"military","operator:en":"Royal Thai Army","@type":"way","@id":778278559,"branch":"army"},"geometry":{"type":"Point","coordinates":[99.0929527,20.0993095]}},{"type":"Feature","id":779855538,"properties":{"landuse":"military","name":"ค่ายทหารพิชิตปรีชากร","name:en":"Pichit Preechakorn Military Camp","note":"boundary is approximate","@type":"way","@id":779855538,"branch":"army"},"geometry":{"type":"Point","coordinates":[98.9872187,19.4431983]}},{"type":"Feature","id":863258750,"properties":{"landuse":"military","name":"กรมการแพทย์ทหารบก","name:en":"Royal Thai Army Medical Department","@type":"way","@id":863258750,"branch":"army"},"geometry":{"type":"Point","coordinates":[100.5345241,13.7617396]}},{"type":"Feature","id":863258751,"properties":{"landuse":"military","name":"กรมการสารวัตรทหารบก","name:en":"The Provost Marshal General Department","name:ja":"陸軍監察総監部","@type":"way","@id":863258751,"branch":"army"},"geometry":{"type":"Point","coordinates":[100.5323893,13.7614119]}},{"type":"Feature","id":863471744,"properties":{"landuse":"military","name":"กรมทหารราบที่ 1 มหาดเล็กราชวัลลภรักษาพระองค์","name:en":"1st Royal Guard Regiment, King's Guard","name:th":"กรมทหารราบที่ 1 มหาดเล็กราชวัลลภรักษาพระองค์","wikidata":"Q13012493","wikipedia":"th:กรมทหารราบที่ 1 มหาดเล็กราชวัลลภรักษาพระองค์","@type":"way","@id":863471744,"branch":"army"},"geometry":{"type":"Point","coordinates":[100.551191,13.7761941]}},{"type":"Feature","id":897148924,"properties":{"landuse":"military","name":"กรมทหารทหารม้าที่ 1 กองพันทหารม้าที่ 3 รักษาพระองค์","name:en":"3rd Armored Regiment, 1st Armoured Brigade King's Royal Guard","name:th":"กรมทหารทหารม้าที่ 1 กองพันทหารม้าที่ 3 รักษาพระองค์","@type":"way","@id":897148924,"branch":"army"},"geometry":{"type":"Point","coordinates":[100.5240182,13.7949201]}},{"type":"Feature","id":897169111,"properties":{"landuse":"military","name":"กองพลทหารปืนใหญ่ต่อสู้อากาศยาน","name:en":"Air Defence Division","name:th":"กองพลทหารปืนใหญ่ต่อสู้อากาศยาน","@type":"way","@id":897169111,"branch":"army"},"geometry":{"type":"Point","coordinates":[100.5240883,13.7977543]}},{"type":"Feature","id":897169114,"properties":{"landuse":"military","name":"กรมทหารปืนใหญ่ที่ 1 รักษาพระองค์","name:en":"1st Field Artillery Regiment","name:th":"กรมทหารปืนใหญ่ที่ 1 รักษาพระองค์","wikidata":"Q13012492","wikipedia":"th:กรมทหารปืนใหญ่ที่ 1 รักษาพระองค์","@type":"way","@id":897169114,"branch":"army"},"geometry":{"type":"Point","coordinates":[100.5327974,13.7909181]}},{"type":"Feature","id":901435196,"properties":{"access":"yes","landuse":"military","name:en":"Noi Lae Thai Army Base","operator:en":"Royal Thai Army","@type":"way","@id":901435196,"branch":"army"},"geometry":{"type":"Point","coordinates":[99.0415201,19.9404996]}},{"type":"Feature","id":934873926,"properties":{"landuse":"military","name":"หน่วยเฉพาะกิจทหารราบที่ 9","@type":"way","@id":934873926,"branch":"army"},"geometry":{"type":"Point","coordinates":[99.7820161,11.7669097]}},{"type":"Feature","id":1016877512,"properties":{"building":"yes","landuse":"military","military":"barracks","@type":"way","@id":1016877512,"branch":"army"},"geometry":{"type":"Point","coordinates":[98.6822805,19.7373585]}},{"type":"Feature","id":1027599694,"properties":{"landuse":"military","name":"ค่ายพระยาพิชัยดาบหัก กรมทหารม้าที่ 2","@type":"way","@id":1027599694,"branch":"army"},"geometry":{"type":"Point","coordinates":[100.132457,17.6608541]}},{"type":"Feature","id":1128334432,"properties":{"landuse":"military","name":"กองพันทหารราบที่ 3 กรมทหารราบที่ 23","name:en":"3rd Infantry Battalion 23rd Infantry Regiment","@type":"way","@id":1128334432,"branch":"army"},"geometry":{"type":"Point","coordinates":[103.4751728,14.8707621]}},{"type":"Feature","id":1143877414,"properties":{"landuse":"military","name":"กรมสรรพวุธทหารบก","@type":"way","@id":1143877414,"branch":"army"},"geometry":{"type":"Point","coordinates":[99.7813269,13.4708837]}},{"type":"Feature","id":1230631047,"properties":{"landuse":"military","operator:en":"Myanmar Army","@type":"way","@id":1230631047,"branch":"army"},"geometry":{"type":"Point","coordinates":[99.0321794,19.9752915]}},{"type":"Feature","id":1268992606,"properties":{"landuse":"military","military":"barracks","name":"ค่ายพระยาสุนทรธรรมธาดา","name:en":"Phraya Sunthon Thammathada Barracks","name:th":"ค่ายพระยาสุนทรธรรมธาดา","@type":"way","@id":1268992606,"branch":"army"},"geometry":{"type":"Point","coordinates":[102.8714417,17.2903118]}},{"type":"Feature","id":1337840046,"properties":{"landuse":"military","name":"มณฑลทหารบกที่ 46 - ค่ายอิงคยุทธบริหาร","name:en":"46th Military District - Fort Ingkhayutthaborihan","name:th":"มณฑลทหารบกที่ 46 - ค่ายอิงคยุทธบริหาร","@type":"way","@id":1337840046,"branch":"army"},"geometry":{"type":"Point","coordinates":[101.1411155,6.7882837]}},{"type":"Feature","id":1337840048,"properties":{"landuse":"military","name":"กรมทหารราบที่ 153","name:en":"153rd Infantry Brigade","name:th":"กรมทหารราบที่ 153","@type":"way","@id":1337840048,"branch":"army"},"geometry":{"type":"Point","coordinates":[101.1693986,6.7770028]}},{"type":"Feature","id":1365826762,"properties":{"healthcare":"rehabilitation","landuse":"military","leisure":"resort","name":"สถานพักฟื้นและพักผ่อนกองทัพบก","name:en":"Army Rehabilitation and Recreation Center","name:th":"สถานพักฟื้นและพักผ่อนกองทัพบก","operator":"กองทัพบก","resort":"recreation_center","@type":"way","@id":1365826762,"branch":"army"},"geometry":{"type":"Point","coordinates":[99.9724174,12.4954937]}},{"type":"Feature","id":1373252914,"properties":{"landuse":"military","name":"กรมสรรพาวุธทหารบก","name:en":"Ordnance Department","name:th":"กรมสรรพาวุธทหารบก","wikidata":"Q16304226","wikipedia":"th:กรมสรรพาวุธทหารบก","@type":"way","@id":1373252914,"branch":"army"},"geometry":{"type":"Point","coordinates":[100.5290882,13.7956795]}},{"type":"Feature","id":1373265586,"properties":{"landuse":"residential","military":"yes","name":"อาคารสงเคราะห์ทบ. เกียกกาย","name:en":"Royal Thai Army Central Housing","name:th":"อาคารสงเคราะห์ทบ. เกียกกาย","residential":"apartments","@type":"way","@id":1373265586,"branch":"army"},"geometry":{"type":"Point","coordinates":[100.523935,13.7927508]}},{"type":"Feature","id":1393451128,"properties":{"landuse":"military","military":"base","name":"กองพันทหารม้าที่ 4 กองพลที่ 1 รักษาพระองค์","name:en":"4th Cavalry Battalion, 1st Brigade","name:th":"กองพันทหารม้าที่ 4 กองพลที่ 1 รักษาพระองค์","@type":"way","@id":1393451128,"branch":"army"},"geometry":{"type":"Point","coordinates":[100.519319,13.7934782]}},{"type":"Feature","id":1434628379,"properties":{"landuse":"military","military":"base","name":"กองพันทหารม้าที่ 1","name:en":"Cavalry Squadron, 11th King’s Guard","name:th":"กองพันทหารม้าที่ 1","@type":"way","@id":1434628379,"branch":"army"},"geometry":{"type":"Point","coordinates":[100.9024823,14.5355818]}},{"type":"Feature","id":1434628381,"properties":{"landuse":"military","military":"base","name":"กองเครื่องมือช่วยฝึก ศูนย์การทหารม้า","name:th":"กองเครื่องมือช่วยฝึก ศูนย์การทหารม้า","@type":"way","@id":1434628381,"branch":"army"},"geometry":{"type":"Point","coordinates":[100.9011234,14.5308001]}},{"type":"Feature","id":1446519646,"properties":{"landuse":"military","name":"กองพลทหารม้าที่ 3","@type":"way","@id":1446519646,"branch":"army"},"geometry":{"type":"Point","coordinates":[102.9583966,16.6921732]}},{"type":"Feature","id":1446636848,"properties":{"landuse":"military","operator:en":"Royal Thai Army","@type":"way","@id":1446636848,"branch":"army"},"geometry":{"type":"Point","coordinates":[99.04347,19.8579172]}},{"type":"Feature","id":1453039404,"properties":{"landuse":"military","name":"ศูนย์การเคลื่อนย้ายกองทัพบก","name:th":"ศูนย์การเคลื่อนย้ายกองทัพบก","@type":"way","@id":1453039404,"branch":"army"},"geometry":{"type":"Point","coordinates":[100.6022019,13.877897]}},{"type":"Feature","id":1464956011,"properties":{"landuse":"military","name":"2nd Army Cavalry Brigade","@type":"way","@id":1464956011,"branch":"army"},"geometry":{"type":"Point","coordinates":[100.8053625,18.7918112]}},{"type":"Feature","id":1472324938,"properties":{"landuse":"military","military":"base","military_service":"army","name":"มณฑลทหารบกที่ 16","name:en":"16th Military Cicle","name:th":"มณฑลทหารบกที่ 16","@type":"way","@id":1472324938,"branch":"army"},"geometry":{"type":"Point","coordinates":[99.8227809,13.5490489]}},{"type":"Feature","id":1481314968,"properties":{"landuse":"military","military":"base","name":"กองพันทหารราบที่ 2","name:th":"กองพันทหารราบที่ 2","@type":"way","@id":1481314968,"branch":"army"},"geometry":{"type":"Point","coordinates":[101.2850976,13.421883]}},{"type":"Feature","id":1481314974,"properties":{"landuse":"military","military":"base","name":"กองพันทหารราบที่ 3","name:th":"กองพันทหารราบที่ 3","@type":"way","@id":1481314974,"branch":"army"},"geometry":{"type":"Point","coordinates":[101.2801896,13.4204294]}},{"type":"Feature","id":1510676182,"properties":{"landuse":"military","name":"กองทัพน้อยที่ 4","name:en":"4th Army Corps","name:th":"กองทัพน้อยที่ 4","@type":"way","@id":1510676182,"branch":"army"},"geometry":{"type":"Point","coordinates":[100.3852632,6.8774826]}},{"type":"Feature","id":1562773308,"properties":{"military":"barracks","name":"กองร้ออาสาสมัครรักษาดินแดน","@type":"way","@id":1562773308,"branch":"army"},"geometry":{"type":"Point","coordinates":[100.6353146,7.131791]}}]}