{"type":"FeatureCollection","features":[{"type":"Feature","id":1,"properties":{"name":"สถานีสูบน้ำคลองบางปะกอก","canal":"คลองบางปะกอก ถนนราษฎร์บูรณะ","pumps":"2","capacity (cms)":"4","remark":"ดำเนินการปัองกันแก้ไขปัญหาน้ำท่วม เขตราษฎร์บูรณะ  กรุงเทพมหานคร","@type":"bma","@id":1},"geometry":{"type":"Point","coordinates":[100.4971,13.6841]}},{"type":"Feature","id":2,"properties":{"name":"สถานีสูบน้ำคลองระหัส","canal":"คลองรหัส","pumps":"2","capacity (cms)":"6","remark":"","@type":"bma","@id":2},"geometry":{"type":"Point","coordinates":[100.6735,13.7946]}},{"type":"Feature","id":3,"properties":{"name":"สถานีสูบน้ำคลองบางเขนใหม่","canal":"คลองบางเขนใหม่","pumps":"10","capacity (cms)":"30","remark":"-","@type":"bma","@id":3},"geometry":{"type":"Point","coordinates":[100.5106,13.81716]}},{"type":"Feature","id":4,"properties":{"name":"สถานีสูบน้ำคลองบางซ่อน (วัดสร้อยทอง)","canal":"คลองบางซ่อน","pumps":"5","capacity (cms)":"7","remark":"-","@type":"bma","@id":4},"geometry":{"type":"Point","coordinates":[100.51811,13.81208]}},{"type":"Feature","id":5,"properties":{"name":"สถานีสูบน้ำคลองเตย","canal":"คลองหัวลำโพง","pumps":"15","capacity (cms)":"30","remark":"","@type":"bma","@id":5},"geometry":{"type":"Point","coordinates":[100.5877294,13.70629308]}},{"type":"Feature","id":6,"properties":{"name":"สถานีสูบน้ำพระโขนง","canal":"คลองพระโขนง","pumps":"51","capacity (cms)":"0","remark":"","@type":"bma","@id":6},"geometry":{"type":"Point","coordinates":[100.595614,13.70923713]}},{"type":"Feature","id":7,"properties":{"name":"สถานีสูบน้ำคลองจิกมิตรมหาดไทย","canal":"คลองเเสนแสบ","pumps":"3","capacity (cms)":"3","remark":"คลองเเสนแสบ ซอยลาดพร้าว 122 แยก 26","@type":"bma","@id":7},"geometry":{"type":"Point","coordinates":[100.622717,13.762693]}},{"type":"Feature","id":8,"properties":{"name":"สถานีสูบน้ำบางนา","canal":"คลองบางนา","pumps":"7","capacity (cms)":"3","remark":"","@type":"bma","@id":8},"geometry":{"type":"Point","coordinates":[100.5877,13.6748]}},{"type":"Feature","id":9,"properties":{"name":"สถานีสูบน้ำคลองหนองบอน (ตอนถนนลาดพร้าววังหิน)","canal":"คลองหนองบอน","pumps":"3","capacity (cms)":"3.2","remark":"คลองหนองบอน","@type":"bma","@id":9},"geometry":{"type":"Point","coordinates":[100.5892,13.8104]}},{"type":"Feature","id":10,"properties":{"name":"ปากซอย มบ.เคหะธานี 4","canal":"คลองญี่ปุ่น","pumps":"1","capacity (cms)":"0.13","remark":"","@type":"bma","@id":10},"geometry":{"type":"Point","coordinates":[100.706555,13.785078]}},{"type":"Feature","id":11,"properties":{"name":"สถานีสูบน้ำคูน้ำข้างวัดกลาง","canal":"คลองแสนแสบ (ข้างคลองวัดกลาง)","pumps":"2","capacity (cms)":"1.5","remark":"","@type":"bma","@id":11},"geometry":{"type":"Point","coordinates":[100.6363,13.7639]}},{"type":"Feature","id":12,"properties":{"name":"สถานีสูบน้ำคลองบ้านใหม่","canal":"คลองบ้านใหม่","pumps":"3","capacity (cms)":"3.3","remark":"","@type":"bma","@id":12},"geometry":{"type":"Point","coordinates":[100.5069737,13.7078018]}},{"type":"Feature","id":13,"properties":{"name":"สถานีสูบน้ำคลองยายสุ่น","canal":"ถนนพระราม 9 แขวงห้วยขวาง เขตห้วยขวาง กรุงเทพฯ","pumps":"","capacity (cms)":"","remark":"","@type":"bma","@id":13},"geometry":{"type":"Point","coordinates":[100.5661189,13.75520006]}},{"type":"Feature","id":14,"properties":{"name":"สถานีคลองดอนอีกา","canal":"คลองดอนอีกา","pumps":"4","capacity (cms)":"4","remark":"","@type":"bma","@id":14},"geometry":{"type":"Point","coordinates":[100.6599,13.8237]}},{"type":"Feature","id":15,"properties":{"name":"สถานีคลองลำเจียก","canal":"คลองลำเจียก","pumps":"4","capacity (cms)":"8","remark":"","@type":"bma","@id":15},"geometry":{"type":"Point","coordinates":[100.6265,13.8192]}},{"type":"Feature","id":16,"properties":{"name":"สถานีสูบน้ำคลองขรัวตาแก่น","canal":"คลองขรัวตาแก่น","pumps":"4","capacity (cms)":"4","remark":"อยู่ระหว่างปรับปรุง ปี พ.ศ. 2566","@type":"bma","@id":16},"geometry":{"type":"Point","coordinates":[100.51958,13.80515]}},{"type":"Feature","id":17,"properties":{"name":"สถานีสูบน้ำรัชดาวิภาวดี","canal":"ดำเนินการป้องกันน้ำท่วมเขตจตุจักร","pumps":"5","capacity (cms)":"17","remark":"ตั้งอยู่ที่บ่อสูบน้ำรัชดาภิเฐก","@type":"bma","@id":17},"geometry":{"type":"Point","coordinates":[100.5569744,13.8301513]}},{"type":"Feature","id":18,"properties":{"name":"สถานีสูบน้ำคลองวัดโยธินประดิษฐ์","canal":"คลองวัดโยธินประดิษฐ์","pumps":"2","capacity (cms)":"1.5","remark":"","@type":"bma","@id":18},"geometry":{"type":"Point","coordinates":[100.5818,13.6677]}},{"type":"Feature","id":19,"properties":{"name":"สถานีสูบน้ำคลองรางขี้เหล็ก","canal":"คลองรางขี้เหล็ก","pumps":"3","capacity (cms)":"9","remark":"","@type":"bma","@id":19},"geometry":{"type":"Point","coordinates":[100.3675568,13.6680324]}},{"type":"Feature","id":20,"properties":{"name":"สถานีสูบน้ำจอมทอง 1","canal":"ลำกระโดงสาธารณะประโยชน์","pumps":"","capacity (cms)":"","remark":"","@type":"bma","@id":20},"geometry":{"type":"Point","coordinates":[100.4807222,13.69310965]}},{"type":"Feature","id":21,"properties":{"name":"สถานีสูบน้ำคลองทรงกระเทียม (ตอนวัดลาดพร้าว)","canal":"คลองทรงกระเทียม","pumps":"3","capacity (cms)":"7","remark":"ตั้งอยู่ที่คลองทรงกระเทียม-วัดลาดพร้าว","@type":"bma","@id":21},"geometry":{"type":"Point","coordinates":[100.5889,13.8027]}},{"type":"Feature","id":22,"properties":{"name":"สถานีสูบน้ำคลองบางเขน-ขาออก(ฝั่งเหนือ)","canal":"คลองบางเขน","pumps":"3","capacity (cms)":"1.5","remark":"","@type":"bma","@id":22},"geometry":{"type":"Point","coordinates":[100.5656,13.8559]}},{"type":"Feature","id":23,"properties":{"name":"สถานีสูบน้ำคลองบางตลาด","canal":"คลองบางตลาด","pumps":"4","capacity (cms)":"4","remark":"","@type":"bma","@id":23},"geometry":{"type":"Point","coordinates":[100.5627485,13.8819273]}},{"type":"Feature","id":24,"properties":{"name":"ซอย 86 มบ.เคหะธานี 4","canal":"คลองลาดบัวขาว","pumps":"1","capacity (cms)":"0.13","remark":"","@type":"bma","@id":24},"geometry":{"type":"Point","coordinates":[100.713291,13.785188]}},{"type":"Feature","id":25,"properties":{"name":"สถานีสูบน้ำคลองตาป่วน","canal":"คลองตาป่วน","pumps":"2","capacity (cms)":"2","remark":"คลองตาป่วน ซอยรามคำแหง 21","@type":"bma","@id":25},"geometry":{"type":"Point","coordinates":[100.608797,13.756177]}},{"type":"Feature","id":26,"properties":{"name":"สถานีสูบน้ำเทเวศร์","canal":"การสูบน้ำออกจากคลองผดุงกรุงเกษมเป็นคลองหลักในการระบายน้ำและการป้องกันน้ำท่วม","pumps":"5","capacity (cms)":"0.3","remark":"ตั้งอยู่ที่ท่าน้ำเทเวศร์ ถ.กรุงเกษม เขตพระนคร","@type":"bma","@id":26},"geometry":{"type":"Point","coordinates":[100.5005874,13.77198197]}},{"type":"Feature","id":27,"properties":{"name":"สถานีสูบน้ำคลองวัดไก่เตี้ย","canal":"คลองบางน้อย","pumps":"3","capacity (cms)":"6","remark":"","@type":"bma","@id":27},"geometry":{"type":"Point","coordinates":[100.4654,13.7863]}},{"type":"Feature","id":28,"properties":{"name":"สถานีสูบน้ำคลองวัดศรีสุดาราม","canal":"","pumps":"2","capacity (cms)":"1","remark":"","@type":"bma","@id":28},"geometry":{"type":"Point","coordinates":[100.4721,13.7683]}},{"type":"Feature","id":29,"properties":{"name":"สถานีสูบน้ำคลองขุดวัดช่องลม","canal":"ดำเนินการป้องกันและแก้ไขปัญหาน้ำท่วม รวมทั้งการป้องกันน้ำเค็มเข้าในพื้นที่ยานนาวา","pumps":"5","capacity (cms)":"45","remark":"","@type":"bma","@id":29},"geometry":{"type":"Point","coordinates":[100.5485904,13.70462389]}},{"type":"Feature","id":30,"properties":{"name":"สถานีสูบน้ำคลองผักหนาม","canal":"","pumps":"2","capacity (cms)":"4","remark":"","@type":"bma","@id":30},"geometry":{"type":"Point","coordinates":[100.4727,13.7713]}},{"type":"Feature","id":31,"properties":{"name":"สถานีสูบน้ำคลองน้ำตาล","canal":"","pumps":"2","capacity (cms)":"1","remark":"","@type":"bma","@id":31},"geometry":{"type":"Point","coordinates":[100.4785,13.7639]}},{"type":"Feature","id":32,"properties":{"name":"สถานีสูบน้ำคลองบางพลัด","canal":"คลองบางพลัด","pumps":"0","capacity (cms)":"0","remark":"อยู่ในความรับผิดชอบของสำนักการระบายน้ำ","@type":"bma","@id":32},"geometry":{"type":"Point","coordinates":[100.5056013,13.79100017]}},{"type":"Feature","id":33,"properties":{"name":"สถานีสูบน้ำบึงกุ่ม (ตอนคลองบางเตย)","canal":"คลองบางเตย","pumps":"2","capacity (cms)":"2","remark":"","@type":"bma","@id":33},"geometry":{"type":"Point","coordinates":[100.6614,13.7847]}},{"type":"Feature","id":34,"properties":{"name":"สถานีสูบน้ำบึงกุ่ม (ตอนสวนเสรีไทย)","canal":"คลองบางเตย","pumps":"1","capacity (cms)":"3","remark":"","@type":"bma","@id":34},"geometry":{"type":"Point","coordinates":[100.667,13.7846]}},{"type":"Feature","id":35,"properties":{"name":"สถานีสูบน้ำคลองบางซื่อ-ขาเข้า (ฝั่งเหนือ)","canal":"คลองบางซื่อ","pumps":"3","capacity (cms)":"4","remark":"","@type":"bma","@id":35},"geometry":{"type":"Point","coordinates":[100.5615,13.795]}},{"type":"Feature","id":36,"properties":{"name":"สถานีสูบน้ำคลองบางเขน-ขาเข้า (ฝั่งใต้)","canal":"คลองบางเขน","pumps":"4","capacity (cms)":"6","remark":"","@type":"bma","@id":36},"geometry":{"type":"Point","coordinates":[100.5656,13.8544]}},{"type":"Feature","id":37,"properties":{"name":"สถานีสูบน้ำเรือนจำคลองเปรมประชากร","canal":"คลองเปรมประชากร","pumps":"2","capacity (cms)":"2","remark":"","@type":"bma","@id":37},"geometry":{"type":"Point","coordinates":[100.5566,13.8457]}},{"type":"Feature","id":38,"properties":{"name":"สถานีสูบน้ำพระราม 4","canal":"ใกล้แม่น้ำเจ้าพระยา","pumps":"4","capacity (cms)":"0","remark":"","@type":"bma","@id":38},"geometry":{"type":"Point","coordinates":[100.5547034,13.70860169]}},{"type":"Feature","id":39,"properties":{"name":"สถานนีสูบน้ำคลองนาซอง","canal":"คลองนาซอง","pumps":"7","capacity (cms)":"14","remark":"","@type":"bma","@id":39},"geometry":{"type":"Point","coordinates":[100.5618249,13.75586107]}},{"type":"Feature","id":40,"properties":{"name":"สถานีสูบน้ำประชาสงเคราะห์","canal":"บ่อสูบน้ำประชาสงเคราะห์","pumps":"2","capacity (cms)":"2","remark":"","@type":"bma","@id":40},"geometry":{"type":"Point","coordinates":[100.566803,13.77403478]}},{"type":"Feature","id":41,"properties":{"name":"สถานีสูบน้ำหลุมไผ่ (ตอนคลองลาดพร้าว)","canal":"คลองหลุมไผ่","pumps":"8","capacity (cms)":"17","remark":"คลองหลุมไผ่","@type":"bma","@id":41},"geometry":{"type":"Point","coordinates":[100.591,13.8441]}},{"type":"Feature","id":42,"properties":{"name":"หน้าสนามกอล์ฟยูนิโก้","canal":"คลองบ้านม้า","pumps":"2","capacity (cms)":"2.13","remark":"","@type":"bma","@id":42},"geometry":{"type":"Point","coordinates":[100.665777,13.746149]}},{"type":"Feature","id":43,"properties":{"name":"นักกีฬาแหลมทอง 21 ง","canal":"คลองทับช้างบน","pumps":"3","capacity (cms)":"1.13","remark":"","@type":"bma","@id":43},"geometry":{"type":"Point","coordinates":[100.701078,13.746539]}},{"type":"Feature","id":44,"properties":{"name":"ซอย 106 มบ.เคหะธานี 4","canal":"คลองบางเลา","pumps":"1","capacity (cms)":"0.16","remark":"","@type":"bma","@id":44},"geometry":{"type":"Point","coordinates":[100.712897,13.780603]}},{"type":"Feature","id":45,"properties":{"name":"ท้ายซอยรามคำแหง 118 แยก 57","canal":"คลองบัวคลี่","pumps":"1","capacity (cms)":"0.16","remark":"","@type":"bma","@id":45},"geometry":{"type":"Point","coordinates":[100.691173,13.755486]}},{"type":"Feature","id":46,"properties":{"name":"สถานีสูบน้ำคลองบางซื่อ","canal":"ปากคลองบางซื่อ ติดวัดแก้วฟ้าจุฬามณี เขตบางซื่อ","pumps":"17","capacity (cms)":"51","remark":"การสูบน้ำออกจากคลองบางซื่อ ซึ่งเป็นคลองหลักและมีความสัมพันธ์กันระหว่างคลองเปรมประชากรตัดผ่านช่งหน้าตลาดบางซื่อและไปบรรจบกับคลองลาดพร้าวช่วงโชค","@type":"bma","@id":46},"geometry":{"type":"Point","coordinates":[100.5184706,13.80012815]}},{"type":"Feature","id":47,"properties":{"name":"สถานีสูบน้ำคลองยายเผื่อน","canal":"คลองยายเผื่อน","pumps":"2","capacity (cms)":"4","remark":"","@type":"bma","@id":47},"geometry":{"type":"Point","coordinates":[100.6395,13.7678]}},{"type":"Feature","id":48,"properties":{"name":"สถานีสูบน้ำบึงกระเทียม","canal":"บึงกระเทียม","pumps":"2","capacity (cms)":"1.5","remark":"","@type":"bma","@id":48},"geometry":{"type":"Point","coordinates":[100.7028134,13.80467205]}},{"type":"Feature","id":49,"properties":{"name":"สถานีสูบน้ำคลองพิกุล","canal":"","pumps":"2","capacity (cms)":"4","remark":"","@type":"bma","@id":49},"geometry":{"type":"Point","coordinates":[100.4702,13.7783]}},{"type":"Feature","id":50,"properties":{"name":"สถานีสูบน้ำคลองวัดดุสิต","canal":"","pumps":"2","capacity (cms)":"1","remark":"","@type":"bma","@id":50},"geometry":{"type":"Point","coordinates":[100.4882,13.7619]}},{"type":"Feature","id":51,"properties":{"name":"สถานีสูบน้ำคลองบางซื่อ","canal":"คลองบางซื่อ (ติดวัดแก้วฟ้าจุฬามณี)","pumps":"17","capacity (cms)":"51","remark":"การสูบน้ำออกจากคลองบางซื่อ ซึ่งเป็นคลองหลักและมีความสัมพันธ์กันระหว่างคลองเปรมประชากรตัดผ่านช่งหน้าตลาดบางซื่อและไปบรรจบกับคลองลาดพร้าวช่วงโชค","@type":"bma","@id":51},"geometry":{"type":"Point","coordinates":[100.51841,13.80017]}},{"type":"Feature","id":52,"properties":{"name":"สถานีสูบน้ำหอวัง","canal":"ดำเนินการป้องกันน้ำท่วม","pumps":"4","capacity (cms)":"7","remark":"ตั้งอยู่ที่หลังโรงเรียน หอวัง","@type":"bma","@id":52},"geometry":{"type":"Point","coordinates":[100.5590916,13.81935646]}},{"type":"Feature","id":53,"properties":{"name":"สถานีสูบน้ำคลองลาดยาว","canal":"คลองลาดยาว","pumps":"3","capacity (cms)":"3","remark":"","@type":"bma","@id":53},"geometry":{"type":"Point","coordinates":[100.5592,13.8441]}},{"type":"Feature","id":54,"properties":{"name":"สถานีสูบน้ำบางอ้อ","canal":"คลองบางอ้อ","pumps":"6","capacity (cms)":"3","remark":"","@type":"bma","@id":54},"geometry":{"type":"Point","coordinates":[100.5923,13.6821]}},{"type":"Feature","id":55,"properties":{"name":"สถานีสูบน้ำสุทธิสาร-ขาเข้า","canal":"บ่อสูบน้ำสุทธิสาร","pumps":"2","capacity (cms)":"3","remark":"","@type":"bma","@id":55},"geometry":{"type":"Point","coordinates":[100.5626832,13.78570522]}},{"type":"Feature","id":56,"properties":{"name":"สถานีสูบน้ำคลองบางสะแก","canal":"คลองบางสะแก","pumps":"","capacity (cms)":"","remark":"","@type":"bma","@id":56},"geometry":{"type":"Point","coordinates":[100.4821893,13.69542927]}},{"type":"Feature","id":57,"properties":{"name":"สถานีสูบน้ำคลองวัดสิงห์","canal":"คลองวัดสิงห์","pumps":"","capacity (cms)":"","remark":"","@type":"bma","@id":57},"geometry":{"type":"Point","coordinates":[100.4487271,13.68169531]}},{"type":"Feature","id":58,"properties":{"name":"สถานีสูบน้ำคลองวัดหลักสี่-ขาเข้า","canal":"คลองวัดหลักสี่","pumps":"5","capacity (cms)":"8","remark":"","@type":"bma","@id":58},"geometry":{"type":"Point","coordinates":[100.5854,13.8903]}},{"type":"Feature","id":59,"properties":{"name":"หมู่บ้านอยู่สบาย","canal":"คลองทับช้างล่าง","pumps":"1","capacity (cms)":"0.13","remark":"","@type":"bma","@id":59},"geometry":{"type":"Point","coordinates":[100.687995,13.740391]}},{"type":"Feature","id":60,"properties":{"name":"นักกีฬาแหลมทอง 5","canal":"คลองทับช้างล่าง","pumps":"3","capacity (cms)":"1.5","remark":"","@type":"bma","@id":60},"geometry":{"type":"Point","coordinates":[100.689387,13.745169]}},{"type":"Feature","id":61,"properties":{"name":"นักกีฬาแหลมทอง 12","canal":"คลองทับช้างบน","pumps":"2","capacity (cms)":"0.699","remark":"","@type":"bma","@id":61},"geometry":{"type":"Point","coordinates":[100.696897,13.740819]}},{"type":"Feature","id":62,"properties":{"name":"สถานีสูบน้ำสามเสน","canal":"ปากคลองสามเสน ถ.ขาว แขวงวชิรพยาบาล เขตดุสิต","pumps":"15","capacity (cms)":"45","remark":"การสูบระบายน้ำออกจากคลองสามเสน","@type":"bma","@id":62},"geometry":{"type":"Point","coordinates":[100.5065034,13.78203838]}},{"type":"Feature","id":63,"properties":{"name":"สถานีสูบน้ำคลองวัดอนงค์","canal":"คลองวัดอนงคาราม","pumps":"2","capacity (cms)":"2","remark":"","@type":"bma","@id":63},"geometry":{"type":"Point","coordinates":[100.4987,13.7378]}},{"type":"Feature","id":64,"properties":{"name":"สถานีสูบน้ำคลองสวนแดน 2","canal":"คลองมหาสวัสดิ์","pumps":"2","capacity (cms)":"1","remark":"","@type":"bma","@id":64},"geometry":{"type":"Point","coordinates":[100.5159,13.8067]}},{"type":"Feature","id":65,"properties":{"name":"สถานีสูบน้ำวัดไทร","canal":"คลองวัดไทร","pumps":"3","capacity (cms)":"18","remark":"","@type":"bma","@id":65},"geometry":{"type":"Point","coordinates":[100.5167584,13.68686839]}},{"type":"Feature","id":66,"properties":{"name":"สถานีสูบน้ำคลองมอญ","canal":"คลองมอญ","pumps":"8","capacity (cms)":"3","remark":"บริเวณปากคลองมอญ อยู่ในวัดเครือวัลย์ ถ.อรุณอัมรินทร์ บางกอกใหญ่ กรุงเทพฯ","@type":"bma","@id":66},"geometry":{"type":"Point","coordinates":[100.4848154,13.74689]}},{"type":"Feature","id":67,"properties":{"name":"สถานีสูบน้ำคลองเจ๊ก","canal":"คลองเจ๊ก","pumps":"","capacity (cms)":"","remark":"","@type":"bma","@id":67},"geometry":{"type":"Point","coordinates":[100.5897585,13.69223622]}},{"type":"Feature","id":68,"properties":{"name":"สถานีสูบน้ำคลองบางจาก","canal":"คลองบางจาก","pumps":"","capacity (cms)":"","remark":"","@type":"bma","@id":68},"geometry":{"type":"Point","coordinates":[100.5910077,13.68906054]}},{"type":"Feature","id":69,"properties":{"name":"สถานีสูบน้ำคลองบางบำหรุ","canal":"บริเวณใกล้คลองบางบำหรุ","pumps":"5","capacity (cms)":"15","remark":"","@type":"bma","@id":69},"geometry":{"type":"Point","coordinates":[100.4711,13.7736]}},{"type":"Feature","id":70,"properties":{"name":"สถานีสูบน้ำคลองพิณพาทย์","canal":"","pumps":"2","capacity (cms)":"1","remark":"","@type":"bma","@id":70},"geometry":{"type":"Point","coordinates":[100.4762,13.7654]}},{"type":"Feature","id":71,"properties":{"name":"สถานีสูบน้ำคลองราษฎร์บูรณะ","canal":"คลองราษฎร์บูรณะ ถนนราษฎร์บูรณะ","pumps":"3","capacity (cms)":"6","remark":"ดำเนินการปัองกันแก้ไขปัญหาน้ำท่วม เขตราษฎร์บูรณะ  กรุงเทพมหานคร","@type":"bma","@id":71},"geometry":{"type":"Point","coordinates":[100.505,13.6823]}},{"type":"Feature","id":72,"properties":{"name":"สถานีสูบน้ำคลองเตาอิฐ","canal":"คลองเตาอิฐ","pumps":"0","capacity (cms)":"0","remark":"อยู่ในความรับผิดชอบของสำนักการระบายน้ำ","@type":"bma","@id":72},"geometry":{"type":"Point","coordinates":[100.5107619,13.79570611]}},{"type":"Feature","id":73,"properties":{"name":"สถานีสูบน้ำคลองบางจาก","canal":"คลองบางจาก","pumps":"0","capacity (cms)":"0","remark":"อยู่ในความรับผิดชอบของสำนักการระบายน้ำ","@type":"bma","@id":73},"geometry":{"type":"Point","coordinates":[100.4985741,13.77874844]}},{"type":"Feature","id":74,"properties":{"name":"สถานีสูบน้ำคลองบางยี่ขัน","canal":"คลองบางยี่ขัน","pumps":"0","capacity (cms)":"0","remark":"อยู่ในความรับผิดชอบของสำนักการระบายน้ำ","@type":"bma","@id":74},"geometry":{"type":"Point","coordinates":[100.4938647,13.76718665]}},{"type":"Feature","id":75,"properties":{"name":"สถานีสูบน้ำบางโพ","canal":"คลองบางโพ","pumps":"2","capacity (cms)":"4","remark":"-","@type":"bma","@id":75},"geometry":{"type":"Point","coordinates":[100.51889,13.80811]}},{"type":"Feature","id":76,"properties":{"name":"สถานีสูบน้ำคูน้ำข้างวัดอนัมนิกายาราม","canal":"คูน้ำข้างวัดอนัมนิกายาราม","pumps":"2","capacity (cms)":"1","remark":"-","@type":"bma","@id":76},"geometry":{"type":"Point","coordinates":[100.5182,13.81074]}},{"type":"Feature","id":77,"properties":{"name":"สถานีสูบน้ำคลองต้นไทร","canal":"คลองต้นไทร","pumps":"","capacity (cms)":"","remark":"","@type":"bma","@id":77},"geometry":{"type":"Point","coordinates":[100.4665185,13.70728343]}},{"type":"Feature","id":78,"properties":{"name":"สถานีสูบน้ำคลองบางขวด (ตอนคลองเกรียง)","canal":"คลองโคกคราม","pumps":"4","capacity (cms)":"8","remark":"คลองโคกคราม","@type":"bma","@id":78},"geometry":{"type":"Point","coordinates":[100.6287,13.8426]}},{"type":"Feature","id":79,"properties":{"name":"ซอยพหลโยธิน 58 แยก 1","canal":"","pumps":"3","capacity (cms)":"4","remark":"-ไฟฟ้า 28\" จำนวน 2 เครื่อง,ไฟฟ้า 40\" จำนวน 1 เครื่อง","@type":"bma","@id":79},"geometry":{"type":"Point","coordinates":[100.6266131,13.9378435]}},{"type":"Feature","id":80,"properties":{"name":"ซอยพหลโยธิน 58 (ท้ายซอย)","canal":"","pumps":"4","capacity (cms)":"8","remark":"-ไฟฟ้า 40\" จำนวน 4 เครื่อง","@type":"bma","@id":80},"geometry":{"type":"Point","coordinates":[100.6392235,13.9373069]}},{"type":"Feature","id":81,"properties":{"name":"ซอย 69 มบ.เคหะธานี 4","canal":"คลองลาดบัวขาว","pumps":"1","capacity (cms)":"0.13","remark":"","@type":"bma","@id":81},"geometry":{"type":"Point","coordinates":[100.711752,13.78774]}},{"type":"Feature","id":82,"properties":{"name":"สถานีสูบน้ำคลองตาหนัง","canal":"คลองตาหน้ง","pumps":"3","capacity (cms)":"6","remark":"","@type":"bma","@id":82},"geometry":{"type":"Point","coordinates":[100.6437,13.7648]}},{"type":"Feature","id":83,"properties":{"name":"สถานีสูบน้ำคลองลำพังพวย (นิด้า)","canal":"คลองลำพังพวย","pumps":"4","capacity (cms)":"8","remark":"","@type":"bma","@id":83},"geometry":{"type":"Point","coordinates":[100.6518,13.7685]}},{"type":"Feature","id":84,"properties":{"name":"สถานีสูบน้ำดาวคะนอง","canal":"ดำเนินการป้องกันและแก้ไขปัญหาน้ำท่วม รวมทั้งการป้องกันน้ำเค็มเข้าในพื้นที่เขตราษฎร์บูรณะ เขตจอมทองบางส่วนเขตทุ่งครุและบางขุนเทียน","pumps":"15","capacity (cms)":"3","remark":"บริเวณปากคลองดาวคะนอง เขตธนบุรี กรุงเทพฯ","@type":"bma","@id":84},"geometry":{"type":"Point","coordinates":[100.4860337,13.69487897]}},{"type":"Feature","id":85,"properties":{"name":"สถานีสูบน้ำคลองจักรทอง (ด้านบางกอกน้อย)","canal":"","pumps":"3","capacity (cms)":"6","remark":"","@type":"bma","@id":85},"geometry":{"type":"Point","coordinates":[100.4774,13.7633]}},{"type":"Feature","id":86,"properties":{"name":"สถานีสูบน้ำคลองบางปะแก้ว","canal":"คลองบางปะแก้ว","pumps":"","capacity (cms)":"","remark":"","@type":"bma","@id":86},"geometry":{"type":"Point","coordinates":[100.4887564,13.68434218]}},{"type":"Feature","id":87,"properties":{"name":"สถานีสูบน้ำดาวคะนอง","canal":"คลองดาวคะนอง ถนนราษฎร์บูรณะ","pumps":"15","capacity (cms)":"45","remark":"ดำเนินการปัองกันแก้ไขปัญหาน้ำท่วม เขตธนบุรี  กรุงเทพมหานคร","@type":"bma","@id":87},"geometry":{"type":"Point","coordinates":[100.4869,13.6951]}},{"type":"Feature","id":88,"properties":{"name":"สถานีสูบน้ำบางปะแก้ว","canal":"คลองบางปะแก้ว ถนนราษฎร์บูรณะ","pumps":"3","capacity (cms)":"9","remark":"ดำเนินการปัองกันแก้ไขปัญหาน้ำท่วม เขตราษฎร์บูรณะ  กรุงเทพมหานคร","@type":"bma","@id":88},"geometry":{"type":"Point","coordinates":[100.4902,13.689]}},{"type":"Feature","id":89,"properties":{"name":"สถานีสูบน้ำคลองแจงร้อน","canal":"คลองแจงร้อน ถนนราษฎร์บูรณะ","pumps":"3","capacity (cms)":"6","remark":"ดำเนินการปัองกันแก้ไขปัญหาน้ำท่วม เขตราษฎร์บูรณะ  กรุงเทพมหานคร","@type":"bma","@id":89},"geometry":{"type":"Point","coordinates":[100.521,13.6762]}},{"type":"Feature","id":90,"properties":{"name":"สถานีสูบน้ำคลองบางละมุด","canal":"คลองบางละมุด","pumps":"0","capacity (cms)":"0","remark":"อยู่ในความรับผิดชอบของสำนักการระบายน้ำ","@type":"bma","@id":90},"geometry":{"type":"Point","coordinates":[100.5150763,13.8100905]}},{"type":"Feature","id":92,"properties":{"name":"สถานีสูบน้ำลำรางสาธารณะ (ตอนคลองบางเตย นวมินทร์ 26)","canal":"คลองบางเตย","pumps":"2","capacity (cms)":"4","remark":"","@type":"bma","@id":92},"geometry":{"type":"Point","coordinates":[100.6567,13.7924]}},{"type":"Feature","id":93,"properties":{"name":"สถานีสูบน้ำคลองบวบขม (ตอนคลองบางเตย)","canal":"คลองบางเตย","pumps":"4","capacity (cms)":"8","remark":"","@type":"bma","@id":93},"geometry":{"type":"Point","coordinates":[100.6517,13.801]}},{"type":"Feature","id":94,"properties":{"name":"สถานีสูบน้ำลำรางบางเตย (นวมินทร์ 66)","canal":"คลองบางเตย","pumps":"2","capacity (cms)":"2","remark":"","@type":"bma","@id":94},"geometry":{"type":"Point","coordinates":[100.6498,13.8061]}},{"type":"Feature","id":95,"properties":{"name":"สถานีสูบน้ำคลองเปรมประชากร","canal":"คลองเปรมประชากร (ติด SCG สำนักงานใหญ่)","pumps":"8","capacity (cms)":"34.4","remark":"ดำเนินการป้องกันและแก้ไขปัญหาน้ำท่วม รวมทั้งการป้องกันน้ำเค็มเข้าในพื้นที่เขตบางซื่อ","@type":"bma","@id":95},"geometry":{"type":"Point","coordinates":[100.53603,13.8046]}},{"type":"Feature","id":96,"properties":{"name":"สถานีสูบน้ำคลองส้มป่อย","canal":"คลองส้มป่อย","pumps":"2","capacity (cms)":"2","remark":"-","@type":"bma","@id":96},"geometry":{"type":"Point","coordinates":[100.5164,13.81416]}},{"type":"Feature","id":97,"properties":{"name":"สถานีสูบน้ำคลองบางเขนเก่า","canal":"คลองบางเขนเก่า","pumps":"3","capacity (cms)":"9","remark":"-","@type":"bma","@id":97},"geometry":{"type":"Point","coordinates":[100.50709,13.82113]}},{"type":"Feature","id":98,"properties":{"name":"สถานีสูบน้ำคลองบางซื่อ-ขาออก (ฝั่งเหนือ)","canal":"คลองบางซื่อ","pumps":"3","capacity (cms)":"4","remark":"","@type":"bma","@id":98},"geometry":{"type":"Point","coordinates":[100.5607,13.7951]}},{"type":"Feature","id":99,"properties":{"name":"สถานีสูบน้ำคลองพลับพลาตอนคลองลาดพร้าว","canal":"คลองพลับพลา","pumps":"3","capacity (cms)":"3","remark":"คลองพลับพลา หลังคลินิกศูนย์แพทย์พัฒนา","@type":"bma","@id":99},"geometry":{"type":"Point","coordinates":[100.595901,13.763501]}},{"type":"Feature","id":100,"properties":{"name":"สถานีสูบน้ำคลองทรงกระเทียมตอนคลองจั่น","canal":"คลองทรงกระเทียม","pumps":"4","capacity (cms)":"9","remark":"คลองทรงกระเทียม ซอยลาดพร้าว 87 แยก 26","@type":"bma","@id":100},"geometry":{"type":"Point","coordinates":[100.623419,13.800117]}},{"type":"Feature","id":101,"properties":{"name":"สถานีสูบน้ำโบสถ์แม่พระฟาติมา","canal":"บ่อสูบน้ำโบสถ์แม่พระฟาติมา","pumps":"5","capacity (cms)":"9","remark":"-","@type":"bma","@id":101},"geometry":{"type":"Point","coordinates":[100.5563317,13.75602781]}},{"type":"Feature","id":102,"properties":{"name":"สถานีสูบน้ำคลองห้วยขวาง","canal":"คลองห้วยขวาง","pumps":"5","capacity (cms)":"10","remark":"","@type":"bma","@id":102},"geometry":{"type":"Point","coordinates":[100.5690346,13.79270721]}},{"type":"Feature","id":103,"properties":{"name":"สถานีสูบน้ำคลองบางค้อ","canal":"คลองบางค้อ","pumps":"","capacity (cms)":"","remark":"","@type":"bma","@id":103},"geometry":{"type":"Point","coordinates":[100.4659338,13.70202353]}},{"type":"Feature","id":104,"properties":{"name":"สถานีสูบน้ำคลองเสือน้อย (ตอนคลองจั่น)","canal":"คลองเสือน้อย","pumps":"5","capacity (cms)":"15","remark":"ตั้งอยู่ที่ปากคลองเสือน้อย-ถนนประดิษฐ์มนูธรรม","@type":"bma","@id":104},"geometry":{"type":"Point","coordinates":[100.6261,13.8224]}},{"type":"Feature","id":105,"properties":{"name":"(ศูนย์ราชการแจ้งวัฒนะ)","canal":"\"\"","pumps":"2","capacity (cms)":"2","remark":"","@type":"bma","@id":105},"geometry":{"type":"Point","coordinates":[100.5627485,13.8819273]}},{"type":"Feature","id":106,"properties":{"name":"หน้าสุเหล่า 93","canal":"คลองทับช้างล่าง","pumps":"1","capacity (cms)":"0.13","remark":"","@type":"bma","@id":106},"geometry":{"type":"Point","coordinates":[100.688129,13.74029]}},{"type":"Feature","id":107,"properties":{"name":"สถานีสูบน้ำจิตมิตรมหาดไทย (ตอนคลองจั่น)","canal":"คลองจิตร","pumps":"2","capacity (cms)":"2","remark":"พื้นที่เขตวังทองหลางต่อเนื่องเขตบางกะปิ","@type":"bma","@id":107},"geometry":{"type":"Point","coordinates":[100.6282,13.7746]}},{"type":"Feature","id":108,"properties":{"name":"สถานีสูบน้ำคลองสาน (เจริญนคร 1)","canal":"คลองสาน","pumps":"2","capacity (cms)":"4","remark":"","@type":"bma","@id":108},"geometry":{"type":"Point","coordinates":[100.5088,13.7296]}},{"type":"Feature","id":109,"properties":{"name":"สถานีสูบน้ำคลองศาลเจ้า","canal":"คลองศาลเจ้า","pumps":"3","capacity (cms)":"3","remark":"","@type":"bma","@id":109},"geometry":{"type":"Point","coordinates":[100.445,13.7984]}},{"type":"Feature","id":110,"properties":{"name":"สถานีสูบน้ำช่องนนทรี","canal":"การสูบน้ำระบายน้ำและคบคุมระดับน้ำในคลองช่องนนทรีเชื่อมต่อกับคลองสาทรและคูน้ำกลางถนนพระรามที่ 3","pumps":"7","capacity (cms)":"42","remark":"ตั้งอยู่บนถนนพระรามที่ 3 ตัดคลองช่องนนทรี","@type":"bma","@id":110},"geometry":{"type":"Point","coordinates":[100.547831,13.6914824]}},{"type":"Feature","id":111,"properties":{"name":"สถานีสูบน้ำคลองสวน","canal":"คลองสวนหลวง","pumps":"3","capacity (cms)":"1.85","remark":"","@type":"bma","@id":111},"geometry":{"type":"Point","coordinates":[100.4997639,13.70300445]}},{"type":"Feature","id":112,"properties":{"name":"สถานีสูบน้ำคลองบางอ้อ","canal":"คลองบางอ้อ","pumps":"","capacity (cms)":"","remark":"","@type":"bma","@id":112},"geometry":{"type":"Point","coordinates":[100.607119,13.68243722]}},{"type":"Feature","id":113,"properties":{"name":"สถานีสูบน้ำหน้าหมู่บ้านภักดี","canal":"คลองข้างหมู่บ้านภักดี","pumps":"2","capacity (cms)":"0.65","remark":"","@type":"bma","@id":113},"geometry":{"type":"Point","coordinates":[100.5035753,13.69003471]}},{"type":"Feature","id":114,"properties":{"name":"สถานีสูบน้ำถนนตก","canal":"(ตั้งอยู่บนถนนเจริญกรุง)","pumps":"3","capacity (cms)":"1.5","remark":"","@type":"bma","@id":114},"geometry":{"type":"Point","coordinates":[100.4927311,13.6931619]}},{"type":"Feature","id":115,"properties":{"name":"สถานีสูบน้ำคลองขวางสะพานเตี้ย","canal":"คลองขวางสะพานเตี้ย","pumps":"4","capacity (cms)":"2.05","remark":"","@type":"bma","@id":115},"geometry":{"type":"Point","coordinates":[100.5077408,13.70955551]}},{"type":"Feature","id":116,"properties":{"name":"สถานีสูบน้ำคลองสนามชัย","canal":"ดำเนินการป้องกันแก้ปัญหาป้องกันน้ำท่วม","pumps":"15","capacity (cms)":"45","remark":"บริเวณปากคลองสนามชัย","@type":"bma","@id":116},"geometry":{"type":"Point","coordinates":[100.4397593,13.62771934]}},{"type":"Feature","id":117,"properties":{"name":"สถานีสูบน้ำข้างวัดมักกะสัน","canal":"คูข้างโรงพยาบาลมักกะสัน (รพ.รถไฟ)","pumps":"2","capacity (cms)":"6","remark":"","@type":"bma","@id":117},"geometry":{"type":"Point","coordinates":[100.5518,13.7497]}},{"type":"Feature","id":118,"properties":{"name":"สถานีสูบน้ำคลองเสือน้อย (ตอนถนนลาดพร้าววังหิน)","canal":"คลองเสือน้อย","pumps":"3","capacity (cms)":"5.2","remark":"ตั้งอยู่ที่คลองเสือน้อย-ถนนลาดพร้าววังหิน","@type":"bma","@id":118},"geometry":{"type":"Point","coordinates":[100.5913,13.8216]}},{"type":"Feature","id":119,"properties":{"name":"สถานีสูบน้ำคลองจิกมิตรมหาดไทยตอนคลองจั่น","canal":"คลองจั่น","pumps":"2","capacity (cms)":"2","remark":"คลองจั่น ลาดพร้าว 126","@type":"bma","@id":119},"geometry":{"type":"Point","coordinates":[100.630385,13.763501]}},{"type":"Feature","id":120,"properties":{"name":"สถานีสูบน้ำคลองศรีสำราญ","canal":"คลองศรีสำราญ","pumps":"7","capacity (cms)":"21","remark":"","@type":"bma","@id":120},"geometry":{"type":"Point","coordinates":[100.3361428,13.6780819]}},{"type":"Feature","id":121,"properties":{"name":"ทำนบสูบน้ำคลองกะจะ ถนนศรีนครินทร์","canal":"คลองกะจะ","pumps":"2","capacity (cms)":"1","remark":"พื้นที่สวนหลวงต่อเนื่องเขตสวนหลวง","@type":"bma","@id":121},"geometry":{"type":"Point","coordinates":[100.643648,13.746528]}},{"type":"Feature","id":122,"properties":{"name":"สถานีสูบน้ำบางกอกใหญ่","canal":"ดำเนินการป้องกันและแก้ไขปัญหาน้ำท่วมรวมทั้งการป้องกันน้ำเค็มเข้าพื้นที่เขตธนบุรี บางกอกใหญ่ และบางส่วนเขตภาษีเจริญ","pumps":"18","capacity (cms)":"54","remark":"ใกล้วัดกัลยาณ์ เขตธนบุรี กรุงเทพฯ","@type":"bma","@id":122},"geometry":{"type":"Point","coordinates":[100.4933857,13.74087175]}},{"type":"Feature","id":123,"properties":{"name":"สถานีสูบน้ำคลองจักรทอง (ด้านชักพระ)","canal":"","pumps":"2","capacity (cms)":"2","remark":"","@type":"bma","@id":123},"geometry":{"type":"Point","coordinates":[100.4602,13.7547]}},{"type":"Feature","id":124,"properties":{"name":"สถานีสูบน้ำคลองสะแกงาม","canal":"ดำเนินการป้องกันแก้ปัญหาป้องกันน้ำท่วม","pumps":"4","capacity (cms)":"8","remark":"บริเวณปากคลองสะแกงาม","@type":"bma","@id":124},"geometry":{"type":"Point","coordinates":[100.4359503,13.62309198]}},{"type":"Feature","id":125,"properties":{"name":"สถานีสูบน้ำคลองบางอ้อ","canal":"คลองบางอ้อ","pumps":"0","capacity (cms)":"0","remark":"อยู่ในความรับผิดชอบของสำนักการระบายน้ำ","@type":"bma","@id":125},"geometry":{"type":"Point","coordinates":[100.5141336,13.80110883]}},{"type":"Feature","id":126,"properties":{"name":"สถานีสูบน้ำคลองบางซื่อ-ขาเข้า (ฝั่งใต้)","canal":"คลองบางซื่อ","pumps":"3","capacity (cms)":"4","remark":"","@type":"bma","@id":126},"geometry":{"type":"Point","coordinates":[100.5615,13.7947]}},{"type":"Feature","id":127,"properties":{"name":"สถานีสูบน้ำบึงมักกะสัน","canal":"คลองสามเสน","pumps":"0","capacity (cms)":"0","remark":"ประตูระบายน้ำ เปิดลอย","@type":"bma","@id":127},"geometry":{"type":"Point","coordinates":[100.5524,13.7559]}},{"type":"Feature","id":128,"properties":{"name":"สถานีสูบน้ำคลองทรงกระเทียมตอนคลองลาดพร้าว","canal":"คลองทรงกระเทียม","pumps":"3","capacity (cms)":"7","remark":"คลองทรงกระเทียม วัดลาดพร้าว","@type":"bma","@id":128},"geometry":{"type":"Point","coordinates":[100.588917,13.802786]}},{"type":"Feature","id":129,"properties":{"name":"สถานีสูบน้ำดินแดง-ขาเข้า","canal":"บ่อสูบน้ำดินแดง","pumps":"3","capacity (cms)":"6","remark":"","@type":"bma","@id":129},"geometry":{"type":"Point","coordinates":[100.5525551,13.76786588]}},{"type":"Feature","id":130,"properties":{"name":"สถานีสูบน้ำคลองมหาศร","canal":"คลองมหาศร","pumps":"4","capacity (cms)":"5.4","remark":"","@type":"bma","@id":130},"geometry":{"type":"Point","coordinates":[100.3504336,13.68220999]}},{"type":"Feature","id":131,"properties":{"name":"สถานีสูบน้ำจอมทอง 2","canal":"ลำกระโดงสาธารณะประโยชน์","pumps":"","capacity (cms)":"","remark":"","@type":"bma","@id":131},"geometry":{"type":"Point","coordinates":[100.4715785,13.69982574]}},{"type":"Feature","id":132,"properties":{"name":"สถานีสูบน้ำจอมทอง 3","canal":"ลำกระโดงสาธารณะประโยชน์","pumps":"","capacity (cms)":"","remark":"","@type":"bma","@id":132},"geometry":{"type":"Point","coordinates":[100.4646504,13.69862051]}},{"type":"Feature","id":133,"properties":{"name":"สถานีสูบน้ำคลองจีน","canal":"คลองจีน","pumps":"","capacity (cms)":"","remark":"","@type":"bma","@id":133},"geometry":{"type":"Point","coordinates":[100.466953,13.71069311]}},{"type":"Feature","id":134,"properties":{"name":"สถานีสูบน้ำคลองดาวคะนอง","canal":"คลองดาวคะนอง","pumps":"","capacity (cms)":"","remark":"","@type":"bma","@id":134},"geometry":{"type":"Point","coordinates":[100.4824881,13.69480532]}},{"type":"Feature","id":135,"properties":{"name":"สถานีสูบน้ำคลองวัดหลักสี่-ขาออก","canal":"คลองวัดหลักสี่","pumps":"3","capacity (cms)":"6","remark":"","@type":"bma","@id":135},"geometry":{"type":"Point","coordinates":[100.5847,13.8906]}},{"type":"Feature","id":136,"properties":{"name":"นักกีฬาแหลมทอง 3","canal":"คลองทับช้างล่าง","pumps":"2","capacity (cms)":"0.29","remark":"","@type":"bma","@id":136},"geometry":{"type":"Point","coordinates":[100.689032,13.744009]}},{"type":"Feature","id":137,"properties":{"name":"ข้างโรงเรียนนานาชาติแอสคอต","canal":"คลองสะพานสูง","pumps":"2","capacity (cms)":"0.35","remark":"","@type":"bma","@id":137},"geometry":{"type":"Point","coordinates":[100.687405,13.762596]}},{"type":"Feature","id":138,"properties":{"name":"สถานีสูบน้ำคลองวัดตึก","canal":"คลองวัดตึก","pumps":"4","capacity (cms)":"8","remark":"คลองวัดตึก หมู่บ้านกลางเมืองรามคำแหง 39","@type":"bma","@id":138},"geometry":{"type":"Point","coordinates":[100.611899,13.761035]}},{"type":"Feature","id":139,"properties":{"name":"สถานีสูบน้ำลำรางกระบือตอนคลองแสนแสบ","canal":"ลำรางกระบือ","pumps":"2","capacity (cms)":"2","remark":"ลำรางกระบือ ซอยเทพลีลา 1","@type":"bma","@id":139},"geometry":{"type":"Point","coordinates":[100.610509,13.757148]}},{"type":"Feature","id":140,"properties":{"name":"สถานีสูบน้ำคลองเจ้าคุณสิงห์","canal":"คลองเจ้าคุณสิงห์","pumps":"4","capacity (cms)":"9","remark":"คลองเจ้าคุณสิงห์ ซอยรามคำแหง 43/1","@type":"bma","@id":140},"geometry":{"type":"Point","coordinates":[100.615335,13.761578]}},{"type":"Feature","id":141,"properties":{"name":"สถานีสูบน้ำลำรางสาธารณะซอยลาดพร้าว 130 (ตอนคลองแสนแสบ)","canal":"ลำรางเลียบซอยลาดพร้าว 130","pumps":"3","capacity (cms)":"3","remark":"","@type":"bma","@id":141},"geometry":{"type":"Point","coordinates":[100.6337,13.7636]}},{"type":"Feature","id":142,"properties":{"name":"สถานีสูบน้ำคลองชักพระ","canal":"คลองชักพระ","pumps":"15","capacity (cms)":"45","remark":"","@type":"bma","@id":142},"geometry":{"type":"Point","coordinates":[100.4649,13.7788]}},{"type":"Feature","id":143,"properties":{"name":"สถานีสูบน้ำคลองสวนแดน 1","canal":"คลองบางน้อย","pumps":"2","capacity (cms)":"2","remark":"","@type":"bma","@id":143},"geometry":{"type":"Point","coordinates":[100.466,13.7895]}},{"type":"Feature","id":144,"properties":{"name":"สถานีสูบน้ำคลองแกลบ","canal":"","pumps":"2","capacity (cms)":"1","remark":"","@type":"bma","@id":144},"geometry":{"type":"Point","coordinates":[100.468,13.7772]}}]}