{"type":"FeatureCollection","features":[{"type":"Feature","id":3390411925,"properties":{"communication:mobile_phone":"yes","man_made":"mast","tower:type":"communication","@type":"node","@id":3390411925},"geometry":{"type":"Point","coordinates":[100.5491105,13.8219133]}},{"type":"Feature","id":6562667614,"properties":{"communication:mobile_phone":"yes","man_made":"mast","tower:construction":"guyed_lattice","tower:type":"communication","@type":"node","@id":6562667614},"geometry":{"type":"Point","coordinates":[100.4674217,13.8334528]}},{"type":"Feature","id":12581597976,"properties":{"communication:4g":"yes","communication:mobile_phone":"yes","man_made":"mast","manufacturer":"NT","tower:construction":"guyed_lattice","tower:type":"communication","@type":"node","@id":12581597976},"geometry":{"type":"Point","coordinates":[100.6593721,13.7168428]}},{"type":"Feature","id":12581597978,"properties":{"communication:mobile_phone":"yes","man_made":"mast","tower:type":"communication","@type":"node","@id":12581597978},"geometry":{"type":"Point","coordinates":[100.6535552,13.7175934]}},{"type":"Feature","id":12619899718,"properties":{"communication:3g":"yes","communication:4g":"yes","communication:4g+":"yes","communication:5g":"yes","communication:lte":"yes","communication:mobile_phone":"yes","man_made":"tower","tower:type":"communication","@type":"node","@id":12619899718},"geometry":{"type":"Point","coordinates":[100.6466531,13.7328703]}},{"type":"Feature","id":13284855745,"properties":{"check_date":"2025-11-06","communication:mobile_phone":"yes","description":"Rooftop mounted","ele":"80","height":"3","man_made":"mast","tower:construction":"pole","tower:type":"communication","@type":"node","@id":13284855745},"geometry":{"type":"Point","coordinates":[100.5764055,13.718614]}},{"type":"Feature","id":13448182236,"properties":{"communication:mobile_phone":"yes","man_made":"mast","tower:type":"communication","@type":"node","@id":13448182236},"geometry":{"type":"Point","coordinates":[100.5139618,13.7297732]}},{"type":"Feature","id":13685763269,"properties":{"communication:mobile_phone":"yes","man_made":"mast","tower:type":"communication","@type":"node","@id":13685763269},"geometry":{"type":"Point","coordinates":[100.5408334,13.7963117]}},{"type":"Feature","id":13687925527,"properties":{"communication:mobile_phone":"yes","man_made":"mast","tower:type":"communication","@type":"node","@id":13687925527},"geometry":{"type":"Point","coordinates":[100.5404026,13.8886121]}},{"type":"Feature","id":13687925533,"properties":{"communication:mobile_phone":"yes","man_made":"mast","tower:type":"communication","@type":"node","@id":13687925533},"geometry":{"type":"Point","coordinates":[100.5428764,13.9063699]}},{"type":"Feature","id":13687925534,"properties":{"communication:mobile_phone":"yes","man_made":"mast","tower:type":"communication","@type":"node","@id":13687925534},"geometry":{"type":"Point","coordinates":[100.5420133,13.9140125]}},{"type":"Feature","id":13717861340,"properties":{"communication:mobile_phone":"yes","man_made":"mast","tower:type":"communication","@type":"node","@id":13717861340},"geometry":{"type":"Point","coordinates":[100.7260026,13.7358]}},{"type":"Feature","id":13717861341,"properties":{"communication:mobile_phone":"yes","man_made":"mast","tower:type":"communication","@type":"node","@id":13717861341},"geometry":{"type":"Point","coordinates":[100.7506445,13.730881]}},{"type":"Feature","id":13717861342,"properties":{"communication:mobile_phone":"yes","man_made":"mast","tower:type":"communication","@type":"node","@id":13717861342},"geometry":{"type":"Point","coordinates":[100.6870171,13.7357042]}},{"type":"Feature","id":13717861346,"properties":{"communication:mobile_phone":"yes","man_made":"mast","tower:type":"communication","@type":"node","@id":13717861346},"geometry":{"type":"Point","coordinates":[100.6867504,13.7358654]}},{"type":"Feature","id":13717861347,"properties":{"communication:mobile_phone":"yes","man_made":"mast","tower:type":"communication","@type":"node","@id":13717861347},"geometry":{"type":"Point","coordinates":[100.7262507,13.7280226]}},{"type":"Feature","id":13717861349,"properties":{"communication:mobile_phone":"yes","man_made":"mast","tower:type":"communication","@type":"node","@id":13717861349},"geometry":{"type":"Point","coordinates":[100.7210283,13.7300862]}},{"type":"Feature","id":13717861351,"properties":{"communication:mobile_phone":"yes","man_made":"mast","tower:type":"communication","@type":"node","@id":13717861351},"geometry":{"type":"Point","coordinates":[100.7475811,13.7314051]}},{"type":"Feature","id":13717861352,"properties":{"communication:mobile_phone":"yes","man_made":"mast","tower:construction":"lattice","tower:type":"communication","@type":"node","@id":13717861352},"geometry":{"type":"Point","coordinates":[100.6634517,13.7391427]}},{"type":"Feature","id":13717861353,"properties":{"communication:mobile_phone":"yes","man_made":"mast","tower:type":"communication","@type":"node","@id":13717861353},"geometry":{"type":"Point","coordinates":[100.7224592,13.7296262]}},{"type":"Feature","id":13717861355,"properties":{"communication:mobile_phone":"yes","man_made":"mast","tower:type":"communication","@type":"node","@id":13717861355},"geometry":{"type":"Point","coordinates":[100.7545161,13.7267211]}},{"type":"Feature","id":13717861356,"properties":{"communication:mobile_phone":"yes","man_made":"mast","tower:type":"communication","@type":"node","@id":13717861356},"geometry":{"type":"Point","coordinates":[100.708832,13.734739]}},{"type":"Feature","id":13717861357,"properties":{"communication:mobile_phone":"yes","man_made":"mast","tower:type":"communication","@type":"node","@id":13717861357},"geometry":{"type":"Point","coordinates":[100.7262068,13.736279]}},{"type":"Feature","id":13717861358,"properties":{"communication:mobile_phone":"yes","man_made":"mast","tower:type":"communication","@type":"node","@id":13717861358},"geometry":{"type":"Point","coordinates":[100.7194262,13.7290353]}},{"type":"Feature","id":13801017679,"properties":{"communication:mobile_phone":"yes","man_made":"mast","tower:type":"communication","@type":"node","@id":13801017679},"geometry":{"type":"Point","coordinates":[100.5688162,13.7312922]}},{"type":"Feature","id":10176080020,"properties":{"communication:mobile_phone":"yes","communication:radio":"yes","communication:television":"yes","man_made":"antenna","@type":"node","@id":10176080020},"geometry":{"type":"Point","coordinates":[100.8840373,12.7584858]}},{"type":"Feature","id":11173578127,"properties":{"communication:mobile_phone":"yes","man_made":"mast","tower:construction":"guyed_lattice","tower:type":"communication","@type":"node","@id":11173578127},"geometry":{"type":"Point","coordinates":[100.893212,12.9292559]}},{"type":"Feature","id":11187452086,"properties":{"communication:mobile_phone":"yes","man_made":"mast","tower:construction":"guyed_lattice","tower:type":"communication","@type":"node","@id":11187452086},"geometry":{"type":"Point","coordinates":[100.8887226,12.9316222]}},{"type":"Feature","id":11187452087,"properties":{"communication:mobile_phone":"yes","man_made":"mast","tower:type":"communication","@type":"node","@id":11187452087},"geometry":{"type":"Point","coordinates":[100.8896681,12.9313749]}},{"type":"Feature","id":11374847876,"properties":{"communication:mobile_phone":"yes","man_made":"mast","tower:construction":"guyed_lattice","tower:type":"communication","@type":"node","@id":11374847876},"geometry":{"type":"Point","coordinates":[100.8921506,12.9349572]}},{"type":"Feature","id":13391354943,"properties":{"communication:mobile_phone":"yes","communication:radio":"yes","man_made":"tower","tower:construction":"lattice","tower:type":"communication","@type":"node","@id":13391354943},"geometry":{"type":"Point","coordinates":[101.470232,13.7115103]}},{"type":"Feature","id":13391354944,"properties":{"communication:mobile_phone":"yes","communication:radio":"yes","man_made":"tower","tower:construction":"guyed_lattice","tower:type":"communication","@type":"node","@id":13391354944},"geometry":{"type":"Point","coordinates":[101.4703401,13.7118349]}},{"type":"Feature","id":8338765104,"properties":{"communication:mobile_phone":"yes","man_made":"tower","tower:type":"communication","@type":"node","@id":8338765104},"geometry":{"type":"Point","coordinates":[99.8332116,13.337822]}},{"type":"Feature","id":8681154060,"properties":{"communication:mobile_phone":"yes","man_made":"tower","tower:construction":"lattice","tower:type":"communication","@type":"node","@id":8681154060},"geometry":{"type":"Point","coordinates":[99.97518,12.5191001]}},{"type":"Feature","id":13255289197,"properties":{"communication:mobile_phone":"yes","man_made":"mast","tower:type":"communication","@type":"node","@id":13255289197},"geometry":{"type":"Point","coordinates":[100.0636194,13.4385134]}},{"type":"Feature","id":13255364503,"properties":{"communication:mobile_phone":"yes","man_made":"mast","tower:type":"communication","@type":"node","@id":13255364503},"geometry":{"type":"Point","coordinates":[99.8929509,13.1237834]}},{"type":"Feature","id":13255364504,"properties":{"communication:mobile_phone":"yes","man_made":"mast","tower:type":"communication","@type":"node","@id":13255364504},"geometry":{"type":"Point","coordinates":[99.9038446,12.9470665]}},{"type":"Feature","id":13255364505,"properties":{"communication:mobile_phone":"yes","man_made":"mast","tower:type":"communication","@type":"node","@id":13255364505},"geometry":{"type":"Point","coordinates":[99.9293693,13.1149213]}},{"type":"Feature","id":13255364507,"properties":{"communication:mobile_phone":"yes","man_made":"mast","tower:construction":"lattice","tower:type":"communication","@type":"node","@id":13255364507},"geometry":{"type":"Point","coordinates":[99.9214859,13.3549545]}},{"type":"Feature","id":13255364509,"properties":{"communication:mobile_phone":"yes","man_made":"mast","tower:type":"communication","@type":"node","@id":13255364509},"geometry":{"type":"Point","coordinates":[100.1243172,13.4920783]}},{"type":"Feature","id":13255364517,"properties":{"communication:mobile_phone":"yes","man_made":"mast","tower:type":"communication","@type":"node","@id":13255364517},"geometry":{"type":"Point","coordinates":[100.0518387,13.4315842]}},{"type":"Feature","id":13255364521,"properties":{"communication:mobile_phone":"yes","man_made":"mast","tower:type":"communication","@type":"node","@id":13255364521},"geometry":{"type":"Point","coordinates":[99.9945222,13.3854243]}},{"type":"Feature","id":13255364525,"properties":{"communication:mobile_phone":"yes","man_made":"mast","tower:construction":"guyed_lattice","tower:type":"communication","@type":"node","@id":13255364525},"geometry":{"type":"Point","coordinates":[99.8443264,13.163001]}},{"type":"Feature","id":13255364526,"properties":{"communication:mobile_phone":"yes","man_made":"mast","tower:type":"communication","@type":"node","@id":13255364526},"geometry":{"type":"Point","coordinates":[99.8349121,13.1888978]}},{"type":"Feature","id":13255364527,"properties":{"communication:mobile_phone":"yes","man_made":"mast","tower:type":"communication","@type":"node","@id":13255364527},"geometry":{"type":"Point","coordinates":[99.9044211,12.9399016]}},{"type":"Feature","id":13255364528,"properties":{"communication:mobile_phone":"yes","man_made":"mast","tower:type":"communication","@type":"node","@id":13255364528},"geometry":{"type":"Point","coordinates":[99.879753,13.1260314]}},{"type":"Feature","id":13255364531,"properties":{"communication:mobile_phone":"yes","man_made":"mast","tower:construction":"monopole","tower:type":"communication","@type":"node","@id":13255364531},"geometry":{"type":"Point","coordinates":[99.9356282,13.355696]}},{"type":"Feature","id":13264512967,"properties":{"communication:mobile_phone":"yes","man_made":"mast","tower:construction":"lattice","tower:type":"communication","@type":"node","@id":13264512967},"geometry":{"type":"Point","coordinates":[99.9179992,12.8739001]}},{"type":"Feature","id":13264512968,"properties":{"communication:mobile_phone":"yes","man_made":"mast","tower:type":"communication","@type":"node","@id":13264512968},"geometry":{"type":"Point","coordinates":[99.9096586,12.90523]}},{"type":"Feature","id":13264512971,"properties":{"communication:mobile_phone":"yes","man_made":"mast","tower:type":"communication","@type":"node","@id":13264512971},"geometry":{"type":"Point","coordinates":[99.91423,12.8786815]}},{"type":"Feature","id":13264512972,"properties":{"communication:mobile_phone":"yes","ele":"15","man_made":"mast","tower:construction":"monopole","tower:type":"communication","@type":"node","@id":13264512972},"geometry":{"type":"Point","coordinates":[99.9659699,12.5349905]}},{"type":"Feature","id":13264575469,"properties":{"communication:mobile_phone":"yes","man_made":"mast","tower:type":"communication","@type":"node","@id":13264575469},"geometry":{"type":"Point","coordinates":[99.9455747,13.0773536]}},{"type":"Feature","id":13264583798,"properties":{"communication:mobile_phone":"yes","man_made":"mast","tower:construction":"monopole","tower:type":"communication","@type":"node","@id":13264583798},"geometry":{"type":"Point","coordinates":[99.8559421,13.1440722]}},{"type":"Feature","id":13264583799,"properties":{"communication:mobile_phone":"yes","man_made":"mast","tower:construction":"lattice","tower:type":"communication","@type":"node","@id":13264583799},"geometry":{"type":"Point","coordinates":[99.8387562,13.1726382]}},{"type":"Feature","id":13264583800,"properties":{"communication:mobile_phone":"yes","man_made":"mast","tower:construction":"lattice","tower:type":"communication","@type":"node","@id":13264583800},"geometry":{"type":"Point","coordinates":[99.8521616,13.1516858]}},{"type":"Feature","id":13264599102,"properties":{"communication:mobile_phone":"yes","man_made":"mast","tower:type":"communication","@type":"node","@id":13264599102},"geometry":{"type":"Point","coordinates":[99.898048,12.976525]}},{"type":"Feature","id":13264599103,"properties":{"communication:mobile_phone":"yes","man_made":"mast","tower:construction":"lattice","tower:type":"communication","@type":"node","@id":13264599103},"geometry":{"type":"Point","coordinates":[99.8288836,13.1933963]}},{"type":"Feature","id":13264618925,"properties":{"communication:mobile_phone":"yes","man_made":"mast","tower:construction":"lattice","tower:type":"communication","@type":"node","@id":13264618925},"geometry":{"type":"Point","coordinates":[99.8219162,13.2970927]}},{"type":"Feature","id":13264618926,"properties":{"communication:mobile_phone":"yes","man_made":"mast","tower:construction":"lattice","tower:type":"communication","@type":"node","@id":13264618926},"geometry":{"type":"Point","coordinates":[99.8233397,13.2252374]}},{"type":"Feature","id":13264618927,"properties":{"communication:mobile_phone":"yes","man_made":"mast","tower:type":"communication","@type":"node","@id":13264618927},"geometry":{"type":"Point","coordinates":[99.8333577,13.3380478]}},{"type":"Feature","id":13264618928,"properties":{"communication:mobile_phone":"yes","man_made":"mast","tower:construction":"lattice","tower:type":"communication","@type":"node","@id":13264618928},"geometry":{"type":"Point","coordinates":[99.8233277,13.3017427]}},{"type":"Feature","id":13264618931,"properties":{"communication:mobile_phone":"yes","man_made":"mast","tower:construction":"monopole","tower:type":"communication","@type":"node","@id":13264618931},"geometry":{"type":"Point","coordinates":[99.8194188,13.2777675]}},{"type":"Feature","id":13264618934,"properties":{"communication:mobile_phone":"yes","man_made":"mast","tower:type":"communication","@type":"node","@id":13264618934},"geometry":{"type":"Point","coordinates":[99.8248955,13.2133139]}},{"type":"Feature","id":13264664058,"properties":{"communication:mobile_phone":"yes","man_made":"mast","tower:type":"communication","@type":"node","@id":13264664058},"geometry":{"type":"Point","coordinates":[100.1041765,13.4682177]}},{"type":"Feature","id":13264664059,"properties":{"communication:mobile_phone":"yes","man_made":"mast","tower:construction":"lattice","tower:type":"communication","@type":"node","@id":13264664059},"geometry":{"type":"Point","coordinates":[99.9526665,13.3674558]}},{"type":"Feature","id":13264664061,"properties":{"communication:mobile_phone":"yes","man_made":"mast","tower:construction":"monopole","tower:type":"communication","@type":"node","@id":13264664061},"geometry":{"type":"Point","coordinates":[99.8822461,13.3468975]}},{"type":"Feature","id":13264664062,"properties":{"communication:mobile_phone":"yes","man_made":"mast","tower:construction":"lattice","tower:type":"communication","@type":"node","@id":13264664062},"geometry":{"type":"Point","coordinates":[100.0155818,13.4074619]}},{"type":"Feature","id":13265138914,"properties":{"communication:mobile_phone":"yes","man_made":"mast","tower:construction":"lattice","tower:type":"communication","@type":"node","@id":13265138914},"geometry":{"type":"Point","coordinates":[100.1187745,13.4830108]}},{"type":"Feature","id":4406410385,"properties":{"communication:mobile_phone":"yes","man_made":"mast","tower:construction":"lattice","tower:type":"communication","@type":"node","@id":4406410385},"geometry":{"type":"Point","coordinates":[102.1655735,14.7391827]}},{"type":"Feature","id":13319245604,"properties":{"communication:mobile_phone":"yes","man_made":"mast","tower:type":"communication","@type":"node","@id":13319245604},"geometry":{"type":"Point","coordinates":[102.0753792,15.1976373]}},{"type":"Feature","id":13841744892,"properties":{"communication:mobile_phone":"yes","man_made":"mast","tower:construction":"lattice","tower:type":"communication","@type":"node","@id":13841744892},"geometry":{"type":"Point","coordinates":[102.3446926,14.7487829]}},{"type":"Feature","id":13858996472,"properties":{"communication:mobile_phone":"yes","man_made":"mast","tower:construction":"guyed_lattice","tower:type":"communication","@type":"node","@id":13858996472},"geometry":{"type":"Point","coordinates":[102.0982146,14.7382633]}},{"type":"Feature","id":13858996473,"properties":{"communication:mobile_phone":"yes","man_made":"mast","tower:construction":"guyed_lattice","tower:type":"communication","@type":"node","@id":13858996473},"geometry":{"type":"Point","coordinates":[102.0978646,14.7378558]}},{"type":"Feature","id":13858996474,"properties":{"communication:mobile_phone":"yes","man_made":"mast","tower:construction":"lattice","tower:type":"communication","@type":"node","@id":13858996474},"geometry":{"type":"Point","coordinates":[102.0981265,14.7378281]}},{"type":"Feature","id":13874337267,"properties":{"communication:mobile_phone":"yes","man_made":"mast","tower:construction":"guyed_lattice","tower:type":"communication","@type":"node","@id":13874337267},"geometry":{"type":"Point","coordinates":[101.9036099,14.7992016]}},{"type":"Feature","id":13874337268,"properties":{"communication:mobile_phone":"yes","man_made":"mast","tower:construction":"guyed_lattice","tower:type":"communication","@type":"node","@id":13874337268},"geometry":{"type":"Point","coordinates":[101.9036371,14.7995113]}},{"type":"Feature","id":13874337269,"properties":{"communication:mobile_phone":"yes","man_made":"mast","tower:construction":"guyed_lattice","tower:type":"communication","@type":"node","@id":13874337269},"geometry":{"type":"Point","coordinates":[101.9029818,14.800946]}},{"type":"Feature","id":13874442418,"properties":{"communication:mobile_phone":"yes","man_made":"mast","tower:construction":"lattice","tower:type":"communication","@type":"node","@id":13874442418},"geometry":{"type":"Point","coordinates":[101.7928354,14.8346831]}},{"type":"Feature","id":13894762552,"properties":{"communication:mobile_phone":"yes","man_made":"mast","tower:construction":"guyed_lattice","tower:type":"communication","@type":"node","@id":13894762552},"geometry":{"type":"Point","coordinates":[101.7668557,14.8778254]}},{"type":"Feature","id":13894762576,"properties":{"communication:mobile_phone":"yes","man_made":"mast","tower:construction":"lattice","tower:type":"communication","@type":"node","@id":13894762576},"geometry":{"type":"Point","coordinates":[101.7752208,14.8723797]}},{"type":"Feature","id":13897876671,"properties":{"communication:mobile_phone":"yes","man_made":"mast","tower:construction":"lattice","tower:type":"communication","@type":"node","@id":13897876671},"geometry":{"type":"Point","coordinates":[101.8786276,14.8903762]}},{"type":"Feature","id":13944088745,"properties":{"communication:mobile_phone":"yes","man_made":"mast","tower:construction":"lattice","tower:type":"communication","@type":"node","@id":13944088745},"geometry":{"type":"Point","coordinates":[102.0677828,14.978249]}},{"type":"Feature","id":13954121780,"properties":{"communication:mobile_phone":"yes","man_made":"mast","tower:construction":"lattice","tower:type":"communication","@type":"node","@id":13954121780},"geometry":{"type":"Point","coordinates":[102.1453145,15.0382405]}},{"type":"Feature","id":13956414746,"properties":{"communication:mobile_phone":"yes","man_made":"mast","tower:construction":"lattice","tower:type":"communication","@type":"node","@id":13956414746},"geometry":{"type":"Point","coordinates":[102.3019901,15.1252371]}},{"type":"Feature","id":13956414770,"properties":{"communication:mobile_phone":"yes","man_made":"mast","tower:construction":"lattice","tower:type":"communication","@type":"node","@id":13956414770},"geometry":{"type":"Point","coordinates":[102.3179776,15.1438953]}},{"type":"Feature","id":13958509359,"properties":{"communication:mobile_phone":"yes","man_made":"mast","tower:construction":"lattice","tower:type":"communication","@type":"node","@id":13958509359},"geometry":{"type":"Point","coordinates":[102.336197,15.1830372]}},{"type":"Feature","id":13958509360,"properties":{"communication:mobile_phone":"yes","man_made":"mast","tower:construction":"lattice","tower:type":"communication","@type":"node","@id":13958509360},"geometry":{"type":"Point","coordinates":[102.3389692,15.1863572]}},{"type":"Feature","id":13958509361,"properties":{"communication:mobile_phone":"yes","man_made":"mast","tower:construction":"guyed_lattice","tower:type":"communication","@type":"node","@id":13958509361},"geometry":{"type":"Point","coordinates":[102.3402,15.1862226]}},{"type":"Feature","id":13958509418,"properties":{"communication:mobile_phone":"yes","man_made":"mast","tower:construction":"lattice","tower:type":"communication","@type":"node","@id":13958509418},"geometry":{"type":"Point","coordinates":[102.3475033,15.190407]}},{"type":"Feature","id":13960536637,"properties":{"communication:mobile_phone":"yes","man_made":"mast","tower:construction":"lattice","tower:type":"communication","@type":"node","@id":13960536637},"geometry":{"type":"Point","coordinates":[102.3883326,15.2423293]}}]}