{"type":"FeatureCollection","features":[{"type":"Feature","id":978630950,"properties":{"amenity":"fire_station","@type":"node","@id":978630950},"geometry":{"type":"Point","coordinates":[100.5062212,13.7545147]}},{"type":"Feature","id":1206929521,"properties":{"addr:housenumber":"181","addr:street":"ถนนเจริญกรุง","amenity":"fire_station","name":"สถานีดับเพลิงและกู้ภัยยานนาวา","name:en":"Yannawa Fire and Rescue Station","name:th":"สถานีดับเพลิงและกู้ภัยยานนาวา","phone":"199","@type":"node","@id":1206929521},"geometry":{"type":"Point","coordinates":[100.5136493,13.7148673]}},{"type":"Feature","id":1958715652,"properties":{"amenity":"fire_station","@type":"node","@id":1958715652},"geometry":{"type":"Point","coordinates":[100.5793009,13.8031083]}},{"type":"Feature","id":2339079119,"properties":{"amenity":"fire_station","name":"สถานีดับเพลิงตลิ่งชัน","@type":"node","@id":2339079119},"geometry":{"type":"Point","coordinates":[100.3195279,13.8178011]}},{"type":"Feature","id":2505964790,"properties":{"amenity":"fire_station","fire_station:type":"airport","name":"สถานีดับเพลิงสนามบินสุวรรณภูมิ","name:en":"Suvarnabhumi Airport Fire Station","name:th":"สถานีดับเพลิงสนามบินสุวรรณภูมิ","@type":"node","@id":2505964790},"geometry":{"type":"Point","coordinates":[100.7524308,13.6744544]}},{"type":"Feature","id":5234740918,"properties":{"amenity":"fire_station","@type":"node","@id":5234740918},"geometry":{"type":"Point","coordinates":[100.6720711,13.5625767]}},{"type":"Feature","id":6396177671,"properties":{"amenity":"fire_station","name":"ศูนย์ป้องกันและบรรเทาสาธารณภัย เทศบาลตำบลบางเลน","name:en":"Bang Len Fire Station","name:th":"ศูนย์ป้องกันและบรรเทาสาธารณภัย เทศบาลตำบลบางเลน","phone":"025951664","@type":"node","@id":6396177671},"geometry":{"type":"Point","coordinates":[100.4365676,13.8486583]}},{"type":"Feature","id":6396199787,"properties":{"amenity":"fire_station","name":"งานป้องกันและบรรเทาสาธารณภัย เทศบาลเมืองบางกรวย","name:en":"Bang Kruai Fire Station","name:th":"งานป้องกันและบรรเทาสาธารณภัย เทศบาลเมืองบางกรวย","phone":"024430000, 024470101","@type":"node","@id":6396199787},"geometry":{"type":"Point","coordinates":[100.4712123,13.8078305]}},{"type":"Feature","id":6432214199,"properties":{"amenity":"fire_station","name":"สถานีดับเพลิงและกู้ภัยบางซ่อน","name:en":"Bang Son Fire & Rescue Station","name:th":"สถานีดับเพลิงและกู้ภัยบางซ่อน","@type":"node","@id":6432214199},"geometry":{"type":"Point","coordinates":[100.5283456,13.8286544]}},{"type":"Feature","id":7260021185,"properties":{"amenity":"fire_station","name":"สถานีดับเพลิงสวนใหญ่ (ย่อย) เทศบาลนครนนทบุรี","name:en":"Suan Yai Sub Fire Station","name:th":"สถานีดับเพลิงสวนใหญ่ (ย่อย) เทศบาลนครนนทบุรี","phone":"025252633","@type":"node","@id":7260021185},"geometry":{"type":"Point","coordinates":[100.4924118,13.842241]}},{"type":"Feature","id":7265667652,"properties":{"amenity":"fire_station","description":"FB page: https://www.facebook.com/people/%E0%B8%87%E0%B8%B2%E0%B8%99%E0%B8%9B%E0%B9%89%E0%B8%AD%E0%B8%87%E0%B8%81%E0%B8%B1%E0%B8%99%E0%B9%81%E0%B8%A5%E0%B8%B0%E0%B8%9A%E0%B8%A3%E0%B8%A3%E0%B9%80%E0%B8%97%E0%B8%B2%E0%B8%AA%E0%B8%B2%E0%B8%98%E0%B8%B2%E0%B8%","name":"งานป้องกันและบรรเทาสาธารณภัย องค์การบริหารส่วนตำบลบางกร่างบางกร่าง","name:en":"Bang Krang Fire Station","name:th":"งานป้องกันและบรรเทาสาธารณภัย องค์การบริหารส่วนตำบลบางกร่างบางกร่าง","phone":"0 2497 6068","@type":"node","@id":7265667652},"geometry":{"type":"Point","coordinates":[100.461387,13.8444395]}},{"type":"Feature","id":7270925030,"properties":{"amenity":"fire_station","name":"งานป้องกันและบรรเทาสาธารณภัย ศูนย์อาสาสมัครป้องกันภัยฝ่ายพลเรือน (อปพร.)","name:en":"Bang Namchuet Disaster Relief Volunteer Center","name:th":"งานป้องกันและบรรเทาสาธารณภัย ศูนย์อาสาสมัครป้องกันภัยฝ่ายพลเรือน (อปพร.)","phone":"0 3441 0684","@type":"node","@id":7270925030},"geometry":{"type":"Point","coordinates":[100.3572864,13.6232336]}},{"type":"Feature","id":12794492847,"properties":{"amenity":"fire_station","name":"สถานนีดับเพลิงชั่วคราว พระโขนง","@type":"node","@id":12794492847},"geometry":{"type":"Point","coordinates":[100.6381996,13.7115147]}},{"type":"Feature","id":13888715253,"properties":{"addr:district":"เมืองสมุทรสาคร","addr:place":"9","addr:postcode":"74000","addr:province":"สมุทรสาคร","addr:subdistrict":"โคกขาม","amenity":"fire_station","country":"ไทย","name":"สถานีดับเพลิงโคกขาม","name:en":"Khokkham fire station","@type":"node","@id":13888715253},"geometry":{"type":"Point","coordinates":[100.3111196,13.5160947]}},{"type":"Feature","id":209482686,"properties":{"addr:district":"ยานนาวา","addr:housenumber":"137","addr:postcode":"10120","addr:province":"กรุงเทพมหานคร","addr:street":"ซอยจันทน์ 19","addr:subdistrict":"ช่องนนทรี","amenity":"fire_station","building":"yes","designation":"สถานีดับเพลิง","name":"สถานีดับเพลิงและกู้ภัยถนนจันทน์","@type":"way","@id":209482686},"geometry":{"type":"Point","coordinates":[100.5332722,13.705163]}},{"type":"Feature","id":299627663,"properties":{"amenity":"fire_station","name":"สถานีดับเพลิงบางอ้อ","name:en":"Bang O Fire Station","name:th":"สถานีดับเพลิงบางอ้อ","phone":"024242910, 024333317, 199","@type":"way","@id":299627663},"geometry":{"type":"Point","coordinates":[100.5122098,13.8028429]}},{"type":"Feature","id":368290559,"properties":{"amenity":"fire_station","building":"yes","check_date":"2025-08-04","name":"สถานีดับเพลิงสนามบินสุวรรณภูมิ","name:en":"Suvarnabhumi Airport Fire Station","name:th":"สถานีดับเพลิงสนามบินสุวรรณภูมิ","@type":"way","@id":368290559},"geometry":{"type":"Point","coordinates":[100.742199,13.6840133]}},{"type":"Feature","id":368559617,"properties":{"addr:district":"ดินแดง","addr:postcode":"10400","addr:province":"กรุงเทพมหานคร","addr:subdistrict":"ดินแดง","amenity":"fire_station","building":"yes","name":"สถานีดับเพลิงและกู้ภัยห้วยขวาง","name:en":"Huai Khwang Police Fire Brigade Station","name:th":"สถานีดับเพลิงและกู้ภัยห้วยขวาง","@type":"way","@id":368559617},"geometry":{"type":"Point","coordinates":[100.570223,13.7770808]}},{"type":"Feature","id":418864403,"properties":{"amenity":"fire_station","building":"yes","name":"สถานีดับเพลิงและกู้ภัยหนองแขม","@type":"way","@id":418864403},"geometry":{"type":"Point","coordinates":[100.3635687,13.7203848]}},{"type":"Feature","id":431684254,"properties":{"addr:district":"วัฒนา","addr:province":"กรุงเทพมหานคร","addr:subdistrict":"พระโขนงเหนือ","amenity":"fire_station","building":"yes","name":"สถานีดับเพลิงพระโขนง","name:en":"Phra Kanong Fire Station","name:th":"สถานีดับเพลิงพระโขนง","@type":"way","@id":431684254},"geometry":{"type":"Point","coordinates":[100.6001548,13.7081901]}},{"type":"Feature","id":559199332,"properties":{"amenity":"fire_station","name":"สถานีดับเพลิงบางขุนเทียน","@type":"way","@id":559199332},"geometry":{"type":"Point","coordinates":[100.4223581,13.6442904]}},{"type":"Feature","id":587737423,"properties":{"amenity":"fire_station","building":"yes","@type":"way","@id":587737423},"geometry":{"type":"Point","coordinates":[100.6077181,13.9145112]}},{"type":"Feature","id":587737424,"properties":{"amenity":"fire_station","building":"yes","@type":"way","@id":587737424},"geometry":{"type":"Point","coordinates":[100.6077311,13.9142248]}},{"type":"Feature","id":659085429,"properties":{"alt_name":"สถานีดับเพลิงบางศรีเมือง","alt_name:en":"Bang Si Mueang Fire brigade","alt_name:th":"สถานีดับเพลิงบางศรีเมือง","amenity":"fire_station","building":"yes","building:levels":"2","name":"ศูนย์ป้องกันและบรรเทาสาธารณภัย เทศบาลเมืองบางศรีเมือง","name:en":"Bang Si Mueang Subdivision of Disaster Prevention and Mitigation","name:th":"ศูนย์ป้องกันและบรรเทาสาธารณภัย เทศบาลเมืองบางศรีเมือง","operator":"Bang Si Mueang Municipality","phone":"0 2447 4293","website":"http://www.bangsrimuang.go.th/%E0%B8%A0%E0%B8%B2%E0%B8%84%E0%B8%AD%E0%B8%87%E0%B8%84%E0%B9%8C%E0%B8%81%E0%B8%A3%E0%B8%97%E0%B8%B5%E0%B9%88%E0%B8%84%E0%B8%A7%E0%B8%A3%E0%B8%A3%E0%B8%B9%E0%B9%89/132","@type":"way","@id":659085429},"geometry":{"type":"Point","coordinates":[100.4816044,13.8432601]}},{"type":"Feature","id":682898313,"properties":{"amenity":"fire_station","building":"yes","name":"งานป้องกันและบรรเทาสาธารณภัย เทศบาลตำบลบางสีทอง ศูนย์ฆชา","name:en":"Bang Si Thong Fire Station","name:th":"งานป้องกันและบรรเทาสาธารณภัย เทศบาลตำบลบางสีทอง ศูนย์ฆชา","phone":"028837393","@type":"way","@id":682898313},"geometry":{"type":"Point","coordinates":[100.4801104,13.8208829]}},{"type":"Feature","id":705888228,"properties":{"amenity":"fire_station","building":"yes","layer":"-1","name":"หน่วยกู้ภัยมูลนิธิสยามนนทบุรี","name:en":"Siam Nonthaburi Foundation Fire & Rescue Station","name:th":"หน่วยกู้ภัยมูลนิธิสยามนนทบุรี","phone":"06 3237 1669, 09 5550 1669","website":"https://www.siamnonrescue.com","@type":"way","@id":705888228},"geometry":{"type":"Point","coordinates":[100.4222535,13.8551602]}},{"type":"Feature","id":705888889,"properties":{"amenity":"fire_station","building":"yes","name":"งานป้องกันและบรรเทาสาธารณภัย เทศบาลตำบลบางม่วง","name:en":"Bangmoung Fire Station","name:th":"งานป้องกันและบรรเทาสาธารณภัย เทศบาลตำบลบางม่วง","phone":"029200787","@type":"way","@id":705888889},"geometry":{"type":"Point","coordinates":[100.423504,13.8517801]}},{"type":"Feature","id":777200321,"properties":{"amenity":"fire_station","building":"yes","name":"ฝ่ายป้องกันและบรรเทาสาธารณะภัย เทศบาลเมืองบางบัวทอง","name:en":"Bang Bua Thong Fire Station","name:th":"ฝ่ายป้องกันและบรรเทาสาธารณะภัย เทศบาลเมืองบางบัวทอง","@type":"way","@id":777200321},"geometry":{"type":"Point","coordinates":[100.4224501,13.9184203]}},{"type":"Feature","id":868346622,"properties":{"addr:district":"เมืองสมุทรสาคร","addr:postcode":"74000","addr:province":"สมุทรสาคร","addr:subdistrict":"มหาชัย","amenity":"fire_station","building":"yes","name":"สถานีดับเพลิงเทศบาลนครสมุทรสาคร","@type":"way","@id":868346622},"geometry":{"type":"Point","coordinates":[100.2768748,13.5491977]}},{"type":"Feature","id":1153290094,"properties":{"amenity":"fire_station","name":"สถานีดับเพลิงและกู้ภัยบรรทัดทอง","name:en":"Banthat Thong Fire & Rescue Station","name:th":"สถานีดับเพลิงและกู้ภัยบรรทัดทอง","@type":"way","@id":1153290094},"geometry":{"type":"Point","coordinates":[100.5244858,13.7362409]}},{"type":"Feature","id":1185686019,"properties":{"amenity":"fire_station","name":"สถานีดับเพลิงและกู้ภัยบางรัก (ชั่วคราว)","name:en":"Bang Rak Fire and Rescue Station (Temporary)","name:th":"สถานีดับเพลิงและกู้ภัยบางรัก (ชั่วคราว)","@type":"way","@id":1185686019},"geometry":{"type":"Point","coordinates":[100.5174848,13.7298367]}},{"type":"Feature","id":1220706467,"properties":{"addr:housenumber":"80","addr:street":"ซอยปลูกจิต","amenity":"fire_station","landuse":"commercial","name":"สถานีดับเพลิงและกู้ภัยบ่อนไก่","name:en":"Bon Kai Fire and Recuse Station","name:th":"สถานีดับเพลิงบ่อนไก่","@type":"way","@id":1220706467},"geometry":{"type":"Point","coordinates":[100.5492045,13.7262034]}},{"type":"Feature","id":1227719175,"properties":{"amenity":"fire_station","building":"yes","name":"ศูนย์ป้องกันและบรรเทาสาธารณภัยพระสมุทรเจดีย์","name:th":"ศูนย์ป้องกันและบรรเทาสาธารณภัยพระสมุทรเจดีย์","@type":"way","@id":1227719175},"geometry":{"type":"Point","coordinates":[100.5846793,13.5979699]}},{"type":"Feature","id":1229703738,"properties":{"amenity":"fire_station","@type":"way","@id":1229703738},"geometry":{"type":"Point","coordinates":[100.5980142,13.6003295]}},{"type":"Feature","id":1254566929,"properties":{"amenity":"fire_station","name":"สนามฝึกซ้อมดับเพลิงและกู้ภัยอากาศยานพาณิช","name:en":"Commercial aircraft fire and rescue training field","name:th":"สนามฝึกซ้อมดับเพลิงและกู้ภัยอากาศยานพาณิช","@type":"way","@id":1254566929},"geometry":{"type":"Point","coordinates":[100.7665655,13.6843989]}},{"type":"Feature","id":1254573939,"properties":{"amenity":"fire_station","name":"ฝ่ายดับเพลิง และกู้ภัย","name:th":"ฝ่ายดับเพลิง และกู้ภัย","@type":"way","@id":1254573939},"geometry":{"type":"Point","coordinates":[100.762956,13.7121009]}},{"type":"Feature","id":1292903637,"properties":{"amenity":"fire_station","name":"สถานีดับเพลิงและกู้ภัยทุ่งครุ","name:th":"สถานีดับเพลิงและกู้ภัยทุ่งครุ","@type":"way","@id":1292903637},"geometry":{"type":"Point","coordinates":[100.5082683,13.6112874]}},{"type":"Feature","id":1383256066,"properties":{"amenity":"fire_station","building":"yes","name":"แฟลตสถานีดับเพลิงดุสิต","name:th":"แฟลตสถานีดับเพลิงดุสิต","@type":"way","@id":1383256066},"geometry":{"type":"Point","coordinates":[100.5303303,13.7819005]}},{"type":"Feature","id":1388136864,"properties":{"amenity":"fire_station","building":"yes","name":"สถานีดับเพลิงและกู้ภัยคลองเตย","name:en":"Khlong Toei Fire Station","name:th":"สถานีดับเพลิงและกู้ภัยคลองเตย","@type":"way","@id":1388136864},"geometry":{"type":"Point","coordinates":[100.5644827,13.7243884]}},{"type":"Feature","id":1426347604,"properties":{"amenity":"fire_station","building":"yes","name":"ศูนย์ปฎิบัติการย่อยอาสาสมัครป้องกันภัยฝ่ายพลเรือนเขตสัมพันธวงศ์","name:en":"Civil Defense Volunteer Samphanthawong District Sub-Operations Center","name:th":"ศูนย์ปฎิบัติการย่อยอาสาสมัครป้องกันภัยฝ่ายพลเรือนเขตสัมพันธวงศ์","@type":"way","@id":1426347604},"geometry":{"type":"Point","coordinates":[100.5146765,13.7367372]}},{"type":"Feature","id":1449667320,"properties":{"amenity":"fire_station","building":"yes","name":"สถานีดับเพลิงพหลโยธิน","name:th":"สถานีดับเพลิงพหลโยธิน","@type":"way","@id":1449667320},"geometry":{"type":"Point","coordinates":[100.5462114,13.7804584]}},{"type":"Feature","id":1464128347,"properties":{"amenity":"fire_station","name":"สถานีดับเพลิงและกู้ภัยบางเขน","name:th":"สถานีดับเพลิงและกู้ภัยบางเขน","@type":"way","@id":1464128347},"geometry":{"type":"Point","coordinates":[100.5948015,13.8714782]}},{"type":"Feature","id":1466422193,"properties":{"amenity":"fire_station","name":"สถานีดับเพลิงย่อยทุ่งสีกัน","operator":"กองดับเพลิงและกู้ภัย กรมช่างโยธาทหารอากาศ","@type":"way","@id":1466422193},"geometry":{"type":"Point","coordinates":[100.5892171,13.9401765]}},{"type":"Feature","id":1520794277,"properties":{"addr:district":"เมืองสมุทรสาคร","addr:postcode":"74000","addr:province":"สมุทรสาคร","addr:subdistrict":"ท่าทราย","amenity":"fire_station","building":"yes","name":"สถานีดับเพลิงและกู้ภัย อบต.ท่าทราย","operator":"อบต.ท่าทราย","@type":"way","@id":1520794277},"geometry":{"type":"Point","coordinates":[100.2650873,13.5753664]}},{"type":"Feature","id":1524309869,"properties":{"addr:city":"เทศบาลนครสมุทรสาคร","addr:district":"เมืองสมุทรสาคร","addr:postcode":"74000","addr:province":"สมุทรสาคร","addr:street":"ถนนธรรมคุณากร","addr:subdistrict":"โกรกกราก","amenity":"fire_station","country":"ไทย","name":"สถานีดับเพลิงย่อย ตำบลโกรกกราก","name:en":"Krokkrak fire station","@type":"way","@id":1524309869},"geometry":{"type":"Point","coordinates":[100.2766667,13.5313293]}},{"type":"Feature","id":1526719590,"properties":{"addr:housenumber":"78","amenity":"fire_station","building":"yes","name":"สถานีดับเพลิงและกู้ภัยสวนมะลิ","@type":"way","@id":1526719590},"geometry":{"type":"Point","coordinates":[100.5108464,13.7480811]}},{"type":"Feature","id":1532301788,"properties":{"amenity":"fire_station","building":"yes","name":"สถานีดับเพลิงและกู้ภัยสามแสน","@type":"way","@id":1532301788},"geometry":{"type":"Point","coordinates":[100.5060829,13.7817665]}},{"type":"Feature","id":1544844225,"properties":{"addr:housenumber":"131/1","amenity":"fire_station","name":"ฝ่ายปฏิบัติการพิเศษและกู้ภัยทางน้ำ","@type":"way","@id":1544844225},"geometry":{"type":"Point","coordinates":[100.5055638,13.7819782]}},{"type":"Feature","id":1544844226,"properties":{"alt_name":"สถานีดับเพลิงและกู้ภัยพญาไท","amenity":"fire_station","name":"สำนักป้องกันและบรรเทาสาธารณภัยกรุงเทศมหานคร","name:en":"Bangkok Fire and Recuse Department","name:th":"สำนักป้องกันและบรรเทาสาธารณภัยกรุงเทศมหานคร","@type":"way","@id":1544844226},"geometry":{"type":"Point","coordinates":[100.5259267,13.7610684]}},{"type":"Feature","id":1564862331,"properties":{"amenity":"fire_station","building":"yes","name":"สถานีดับเพลิงและกู้ภัยร่มเกล้า","name:en":"Romklao Fire and Rescue Station","name:th":"สถานีดับเพลิงและกู้ภัยร่มเกล้า","@type":"way","@id":1564862331},"geometry":{"type":"Point","coordinates":[100.7280545,13.7606841]}},{"type":"Feature","id":2498777308,"properties":{"amenity":"fire_station","@type":"node","@id":2498777308},"geometry":{"type":"Point","coordinates":[100.9986975,12.6816516]}},{"type":"Feature","id":4213354223,"properties":{"amenity":"fire_station","@type":"node","@id":4213354223},"geometry":{"type":"Point","coordinates":[100.9740523,12.830963]}},{"type":"Feature","id":4624077146,"properties":{"amenity":"fire_station","@type":"node","@id":4624077146},"geometry":{"type":"Point","coordinates":[101.2963286,12.7836598]}},{"type":"Feature","id":9668750438,"properties":{"amenity":"fire_station","@type":"node","@id":9668750438},"geometry":{"type":"Point","coordinates":[100.9706092,13.0959788]}},{"type":"Feature","id":12095365554,"properties":{"amenity":"fire_station","@type":"node","@id":12095365554},"geometry":{"type":"Point","coordinates":[101.7015777,12.7802969]}},{"type":"Feature","id":12964925166,"properties":{"amenity":"fire_station","@type":"node","@id":12964925166},"geometry":{"type":"Point","coordinates":[101.3114127,12.8459564]}},{"type":"Feature","id":13316050541,"properties":{"amenity":"fire_station","name:signed":"no","@type":"node","@id":13316050541},"geometry":{"type":"Point","coordinates":[101.4410524,12.6285798]}},{"type":"Feature","id":115879618,"properties":{"amenity":"fire_station","building":"yes","name":"สถานีดับเพลิงพนัสนิคม","name:en":"Phanat Nikhom Fire Station","@type":"way","@id":115879618},"geometry":{"type":"Point","coordinates":[101.177781,13.4516679]}},{"type":"Feature","id":336954447,"properties":{"amenity":"fire_station","check_date":"2023-10-12","name":"Pattaya Firestation","@type":"way","@id":336954447},"geometry":{"type":"Point","coordinates":[100.8927842,12.8895514]}},{"type":"Feature","id":401164884,"properties":{"amenity":"fire_station","building":"yes","@type":"way","@id":401164884},"geometry":{"type":"Point","coordinates":[100.9353982,12.9105537]}},{"type":"Feature","id":452925430,"properties":{"amenity":"fire_station","name":"Banglamung Firestation","@type":"way","@id":452925430},"geometry":{"type":"Point","coordinates":[100.9125829,12.9768499]}},{"type":"Feature","id":1206411545,"properties":{"amenity":"fire_station","name":"คลินิคส่งเสริมสุขภาพ เมืองพัทยา","name:en":"Pattaya City Fire Station","name:th":"คลินิคส่งเสริมสุขภาพ เมืองพัทยา","@type":"way","@id":1206411545},"geometry":{"type":"Point","coordinates":[100.8851602,12.9268085]}},{"type":"Feature","id":1259389562,"properties":{"amenity":"fire_station","name":"สถานีดับเพลิง 2 ศูนย์สัจจา","@type":"way","@id":1259389562},"geometry":{"type":"Point","coordinates":[100.9793738,13.3609505]}},{"type":"Feature","id":1464356190,"properties":{"amenity":"fire_station","name":"สถานีดับเพลิงท่าเรือแหลมฉบัง การท่าเรือแห่งประเทศไทย","name:en":"Fire Station Laemchabang Port","@type":"way","@id":1464356190},"geometry":{"type":"Point","coordinates":[100.9079935,13.0735065]}},{"type":"Feature","id":1562666282,"properties":{"amenity":"fire_station","building":"yes","@type":"way","@id":1562666282},"geometry":{"type":"Point","coordinates":[101.1270532,12.7242986]}},{"type":"Feature","id":1562666289,"properties":{"amenity":"fire_station","building":"yes","@type":"way","@id":1562666289},"geometry":{"type":"Point","coordinates":[101.1910132,12.7031925]}},{"type":"Feature","id":1591495718,"properties":{"amenity":"fire_station","name":"ฝ่ายป้องกันและบรรเทาสาธารณภัย","name:th":"ฝ่ายป้องกันและบรรเทาสาธารณภัย","@type":"node","@id":1591495718},"geometry":{"type":"Point","coordinates":[100.0017314,13.4092937]}},{"type":"Feature","id":2189276216,"properties":{"amenity":"fire_station","@type":"node","@id":2189276216},"geometry":{"type":"Point","coordinates":[99.9555123,12.5679329]}},{"type":"Feature","id":4733435849,"properties":{"amenity":"fire_station","@type":"node","@id":4733435849},"geometry":{"type":"Point","coordinates":[99.9882683,12.3936791]}},{"type":"Feature","id":4746281682,"properties":{"amenity":"fire_station","@type":"node","@id":4746281682},"geometry":{"type":"Point","coordinates":[99.9679843,12.7832792]}},{"type":"Feature","id":13264599101,"properties":{"amenity":"fire_station","@type":"node","@id":13264599101},"geometry":{"type":"Point","coordinates":[99.8736109,13.1266036]}},{"type":"Feature","id":841781623,"properties":{"amenity":"fire_station","building":"yes","@type":"way","@id":841781623},"geometry":{"type":"Point","coordinates":[100.0018009,13.4092839]}},{"type":"Feature","id":2066042986,"properties":{"amenity":"fire_station","@type":"node","@id":2066042986},"geometry":{"type":"Point","coordinates":[100.6129655,14.8026503]}},{"type":"Feature","id":6504320021,"properties":{"amenity":"fire_station","@type":"node","@id":6504320021},"geometry":{"type":"Point","coordinates":[101.9642708,15.3096364]}},{"type":"Feature","id":6766747831,"properties":{"amenity":"fire_station","@type":"node","@id":6766747831},"geometry":{"type":"Point","coordinates":[101.7737195,15.2041601]}},{"type":"Feature","id":6979356157,"properties":{"amenity":"fire_station","@type":"node","@id":6979356157},"geometry":{"type":"Point","coordinates":[102.1630365,14.732107]}},{"type":"Feature","id":8089901819,"properties":{"amenity":"fire_station","name":"งานป้องกันเทศบาลตำบลด่านเกวียน","name:en":"Defense of Dan Wien Subdistrict Municipality","@type":"node","@id":8089901819},"geometry":{"type":"Point","coordinates":[102.1951476,14.8418086]}},{"type":"Feature","id":8089911118,"properties":{"addr:housenumber":"เลขที่7ม.7","addr:postcode":"30190","addr:street":"กาญจนาภิเษก","amenity":"fire_station","email":"katippateedjup@gmail.com","name":"งานป้องกันสาธารณภัด่านยตำบลเกวียน","name:en":"Public Protection Work at Dan Kwian Subdistrict","name:ja_rm":"ダンクウィアン地区での公共保護活動","name:zh-Hant":"丹桂縣街道的公共保護工作","opening_hours":"24/7","phone":"044338399","@type":"node","@id":8089911118},"geometry":{"type":"Point","coordinates":[102.1951631,14.8418125]}},{"type":"Feature","id":11738919937,"properties":{"amenity":"fire_station","name":"Khao Yai Forest Fire Control Station Headquarters","@type":"node","@id":11738919937},"geometry":{"type":"Point","coordinates":[101.3857192,14.5072124]}},{"type":"Feature","id":12104451567,"properties":{"amenity":"fire_station","@type":"node","@id":12104451567},"geometry":{"type":"Point","coordinates":[101.0021941,14.1238832]}},{"type":"Feature","id":1228803092,"properties":{"amenity":"fire_station","name":"สถานีดับเพลิงนครราชสีมา","@type":"way","@id":1228803092},"geometry":{"type":"Point","coordinates":[102.0862752,14.973006]}}]}