{"type":"FeatureCollection","features":[{"type":"Feature","id":1,"properties":{"name":"ช่วงถนนหทัยราษฎร์","district":"มีนบุรี","group":"กรุงเทพตะวันออก","@type":"bma","@id":1},"geometry":{"type":"Point","coordinates":[100.722415,13.870411]}},{"type":"Feature","id":2,"properties":{"name":"นิคมฯ บางชัน","district":"คันนายาว","group":"กรุงเทพตะวันออก","@type":"bma","@id":2},"geometry":{"type":"Point","coordinates":[100.697705,13.798187]}},{"type":"Feature","id":3,"properties":{"name":"ถ.พหลโยธิน ช่วงซอยพหลโยธิน 60/1","district":"สายไหม","group":"กรุงเทพเหนือ","@type":"bma","@id":3},"geometry":{"type":"Point","coordinates":[100.624302,13.940239]}},{"type":"Feature","id":4,"properties":{"name":"แยกสุวรรณภูมิ","district":"ลาดกระบัง","group":"กรุงเทพตะวันออก","@type":"bma","@id":4},"geometry":{"type":"Point","coordinates":[100.77573,13.721853]}},{"type":"Feature","id":5,"properties":{"name":"ช่วงแยกกิ่งแก้ว","district":"ลาดกระบัง","group":"กรุงเทพตะวันออก","@type":"bma","@id":5},"geometry":{"type":"Point","coordinates":[100.73898,13.722368]}},{"type":"Feature","id":6,"properties":{"name":"ฝั่งตรงข้ามตลาดสุวรรณภูมิ","district":"ลาดกระบัง","group":"กรุงเทพตะวันออก","@type":"bma","@id":6},"geometry":{"type":"Point","coordinates":[100.778388,13.721741]}},{"type":"Feature","id":7,"properties":{"name":"หมู่บ้าน เสรี อ่อนนุช","district":"ประเวศ","group":"กรุงเทพตะวันออก","@type":"bma","@id":7},"geometry":{"type":"Point","coordinates":[100.660655,13.708428]}},{"type":"Feature","id":8,"properties":{"name":"ช่วงแยกศรีอุดม","district":"ประเวศ","group":"กรุงเทพตะวันออก","@type":"bma","@id":8},"geometry":{"type":"Point","coordinates":[100.646716,13.677851]}},{"type":"Feature","id":9,"properties":{"name":"ช่วงแยกบางนา","district":"บางนา","group":"กรุงเทพใต้","@type":"bma","@id":9},"geometry":{"type":"Point","coordinates":[100.607161,13.67355]}},{"type":"Feature","id":10,"properties":{"name":"ช่วงซอยวัชรพล 8","district":"บางเขน","group":"กรุงเทพเหนือ","@type":"bma","@id":10},"geometry":{"type":"Point","coordinates":[100.643094,13.876829]}},{"type":"Feature","id":11,"properties":{"name":"ช่วงซอยเอกชัย 87/1","district":"บางบอน","group":"กรุงธนใต้","@type":"bma","@id":11},"geometry":{"type":"Point","coordinates":[100.42328,13.672594]}},{"type":"Feature","id":12,"properties":{"name":"ช่วงซอย เฉลิมพระเกียรติ ร.9 40","district":"ประเวศ","group":"กรุงเทพตะวันออก","@type":"bma","@id":12},"geometry":{"type":"Point","coordinates":[100.670053,13.690186]}},{"type":"Feature","id":13,"properties":{"name":"ช่วงซอยสีหบุรานุกิจ 14","district":"มีนบุรี","group":"กรุงเทพตะวันออก","@type":"bma","@id":13},"geometry":{"type":"Point","coordinates":[100.724202,13.81239]}},{"type":"Feature","id":14,"properties":{"name":"ซอยลาดกระบัง 30/1","district":"ลาดกระบัง","group":"กรุงเทพตะวันออก","@type":"bma","@id":14},"geometry":{"type":"Point","coordinates":[100.737452,13.722434]}},{"type":"Feature","id":15,"properties":{"name":"เชิงสะพานกรุงธนบุรี","district":"ดุสิต","group":"กรุงเทพกลาง","@type":"bma","@id":15},"geometry":{"type":"Point","coordinates":[100.503933,13.780425]}},{"type":"Feature","id":16,"properties":{"name":"แยก ณ ระนอง ฝั่งสนามกีฬา","district":"คลองเตย","group":"กรุงเทพใต้","@type":"bma","@id":16},"geometry":{"type":"Point","coordinates":[100.56011,13.716641]}},{"type":"Feature","id":17,"properties":{"name":"ธนาคารกรุงไทย","district":"สวนหลวง","group":"กรุงเทพใต้","@type":"bma","@id":17},"geometry":{"type":"Point","coordinates":[100.609457,13.737714]}},{"type":"Feature","id":18,"properties":{"name":"ซ.ช่างอากาศอุทิศ15","district":"ดอนเมือง","group":"กรุงเทพเหนือ","@type":"bma","@id":18},"geometry":{"type":"Point","coordinates":[100.578203,13.917766]}},{"type":"Feature","id":19,"properties":{"name":"ช่วงซอยบางกระดี่ 3ถึงซอยบางกระดี่ 9","district":"บางขุนเทียน","group":"กรุงธนใต้","@type":"bma","@id":19},"geometry":{"type":"Point","coordinates":[100.400381,13.626979]}},{"type":"Feature","id":20,"properties":{"name":"ใต้สะพานมอเตอร์เวย์ พระราม9","district":"บางกะปิ","group":"กรุงเทพตะวันออก","@type":"bma","@id":20},"geometry":{"type":"Point","coordinates":[100.601,13.754106]}},{"type":"Feature","id":21,"properties":{"name":"ช่วงตรงข้ามซอยรามคำแหง 43","district":"บางกะปิ","group":"กรุงเทพตะวันออก","@type":"bma","@id":21},"geometry":{"type":"Point","coordinates":[100.616637,13.75863]}},{"type":"Feature","id":22,"properties":{"name":"ช่วงตรงข้าม ซอยรามคำแหง 53","district":"บางกะปิ","group":"กรุงเทพตะวันออก","@type":"bma","@id":22},"geometry":{"type":"Point","coordinates":[100.619222,13.764158]}},{"type":"Feature","id":23,"properties":{"name":"ช่วงซอยลาดพร้าววังหิน 64","district":"ลาดพร้าว","group":"กรุงเทพเหนือ","@type":"bma","@id":23},"geometry":{"type":"Point","coordinates":[100.593458,13.825396]}},{"type":"Feature","id":24,"properties":{"name":"หน้าโรบินสัน","district":"คลองสาน","group":"กรุงธนเหนือ","@type":"bma","@id":24},"geometry":{"type":"Point","coordinates":[100.508562,13.730136]}},{"type":"Feature","id":25,"properties":{"name":"ช่วงซอย 46 (สันติอโศก)","district":"บึงกุ่ม","group":"กรุงเทพตะวันออก","@type":"bma","@id":25},"geometry":{"type":"Point","coordinates":[100.650994,13.796323]}},{"type":"Feature","id":26,"properties":{"name":"ช่วง ซ.รามคำแหง 33","district":"บางกะปิ","group":"กรุงเทพตะวันออก","@type":"bma","@id":26},"geometry":{"type":"Point","coordinates":[100.614296,13.756263]}},{"type":"Feature","id":27,"properties":{"name":"แจ้งวัฒนะขาออก (มทบ.11)","district":"หลักสี่","group":"กรุงเทพเหนือ","@type":"bma","@id":27},"geometry":{"type":"Point","coordinates":[100.556657,13.894381]}},{"type":"Feature","id":28,"properties":{"name":"ช่วง ซ.เปรมสมบัติ33","district":"ดินแดง","group":"กรุงเทพกลาง","@type":"bma","@id":28},"geometry":{"type":"Point","coordinates":[100.567836,13.774165]}},{"type":"Feature","id":29,"properties":{"name":"ช่วง ซอยเสนานิเวศน์ 112","district":"ลาดพร้าว","group":"กรุงเทพเหนือ","@type":"bma","@id":29},"geometry":{"type":"Point","coordinates":[100.611403,13.827693]}},{"type":"Feature","id":30,"properties":{"name":"ช่วงหน้ามหาวิทยาลัยราชภัฏพระนคร","district":"บางเขน","group":"กรุงเทพเหนือ","@type":"bma","@id":30},"geometry":{"type":"Point","coordinates":[100.591276,13.878578]}},{"type":"Feature","id":31,"properties":{"name":"ช่วง ซ.อินทามระ34","district":"ดินแดง","group":"กรุงเทพกลาง","@type":"bma","@id":31},"geometry":{"type":"Point","coordinates":[100.565318,13.786077]}},{"type":"Feature","id":32,"properties":{"name":"ช่วงซอยรามคำแหง 20","district":"บางกะปิ","group":"กรุงเทพตะวันออก","@type":"bma","@id":32},"geometry":{"type":"Point","coordinates":[100.613087,13.753705]}},{"type":"Feature","id":33,"properties":{"name":"ซอยพร้อมใจ - ซอยพร้อมมิตร","district":"วัฒนา","group":"กรุงเทพใต้","@type":"bma","@id":33},"geometry":{"type":"Point","coordinates":[100.573222,13.733669]}},{"type":"Feature","id":34,"properties":{"name":"ช่วง วงเวียนบางเขน - ซ.รามอินทรา5","district":"บางเขน","group":"กรุงเทพเหนือ","@type":"bma","@id":34},"geometry":{"type":"Point","coordinates":[100.605342,13.871642]}},{"type":"Feature","id":35,"properties":{"name":"ช่วงวัดศรีเอี่ยม","district":"บางนา","group":"กรุงเทพใต้","@type":"bma","@id":35},"geometry":{"type":"Point","coordinates":[100.644118,13.668616]}},{"type":"Feature","id":36,"properties":{"name":"แยกพงษ์เพชร","district":"หลักสี่","group":"กรุงเทพเหนือ","@type":"bma","@id":36},"geometry":{"type":"Point","coordinates":[100.545931,13.856001]}},{"type":"Feature","id":37,"properties":{"name":"ช่วงแบริ่ง","district":"บางนา","group":"กรุงเทพใต้","@type":"bma","@id":37},"geometry":{"type":"Point","coordinates":[100.601945,13.661218]}},{"type":"Feature","id":38,"properties":{"name":"ถ.วชิรธรรมสาธิต ช่วง 3 แยกชอยวัดทุ่ง","district":"พระโขนง","group":"กรุงเทพใต้","@type":"bma","@id":38},"geometry":{"type":"Point","coordinates":[100.60197,13.70233]}},{"type":"Feature","id":39,"properties":{"name":"ช่วงหน้าเซนทรัลลาดพร้าว","district":"จตุจักร","group":"กรุงเทพเหนือ","@type":"bma","@id":39},"geometry":{"type":"Point","coordinates":[100.561701,13.816251]}},{"type":"Feature","id":40,"properties":{"name":"ช่วงโลตัสลาดกระบัง","district":"ลาดกระบัง","group":"กรุงเทพตะวันออก","@type":"bma","@id":40},"geometry":{"type":"Point","coordinates":[100.793328,13.720778]}},{"type":"Feature","id":41,"properties":{"name":"หน้ามหาวิทยาลัยราชภัฎสวนสุนันทา","district":"ดุสิต","group":"กรุงเทพกลาง","@type":"bma","@id":41},"geometry":{"type":"Point","coordinates":[100.509779,13.772879]}},{"type":"Feature","id":42,"properties":{"name":"กรมศุลกากร - สนามกีฬา","district":"คลองเตย","group":"กรุงเทพใต้","@type":"bma","@id":42},"geometry":{"type":"Point","coordinates":[100.565638,13.713939]}},{"type":"Feature","id":43,"properties":{"name":"ช่วงซอยเพชรเกษม 31/4","district":"ภาษีเจริญ","group":"กรุงธนใต้","@type":"bma","@id":43},"geometry":{"type":"Point","coordinates":[100.44513,13.714858]}},{"type":"Feature","id":44,"properties":{"name":"แยกแปลงนาม","district":"สัมพันธวงศ์","group":"กรุงเทพกลาง","@type":"bma","@id":44},"geometry":{"type":"Point","coordinates":[100.510026,13.741413]}},{"type":"Feature","id":45,"properties":{"name":"ช่วงหน้ามหาวิทยาลัยเกษตรศาสตร์","district":"จตุจักร","group":"กรุงเทพเหนือ","@type":"bma","@id":45},"geometry":{"type":"Point","coordinates":[100.571399,13.841917]}},{"type":"Feature","id":46,"properties":{"name":"ช่วงบิ๊กซีสะพานควาย","district":"พญาไท","group":"กรุงเทพกลาง","@type":"bma","@id":46},"geometry":{"type":"Point","coordinates":[100.549548,13.792113]}},{"type":"Feature","id":47,"properties":{"name":"แยกสุขสมาน","district":"ลาดกระบัง","group":"กรุงเทพตะวันออก","@type":"bma","@id":47},"geometry":{"type":"Point","coordinates":[100.776572,13.721772]}},{"type":"Feature","id":48,"properties":{"name":"ช่วงซอยสายลม","district":"พญาไท","group":"กรุงเทพกลาง","@type":"bma","@id":48},"geometry":{"type":"Point","coordinates":[100.548725,13.779472]}},{"type":"Feature","id":49,"properties":{"name":"หน้าโลตัสหลักสี่","district":"หลักสี่","group":"กรุงเทพเหนือ","@type":"bma","@id":49},"geometry":{"type":"Point","coordinates":[100.59932,13.879865]}},{"type":"Feature","id":50,"properties":{"name":"ถนนสวนพลูตลอดสาย","district":"สาทร","group":"กรุงเทพใต้","@type":"bma","@id":50},"geometry":{"type":"Point","coordinates":[100.53816,13.719999]}},{"type":"Feature","id":51,"properties":{"name":"ถ.หัวหมาก ช่วง ซ.รามคำแหง 24 แยก 18","district":"บางกะปิ","group":"กรุงเทพตะวันออก","@type":"bma","@id":51},"geometry":{"type":"Point","coordinates":[100.621378,13.753436]}},{"type":"Feature","id":52,"properties":{"name":"ซอยเอกชัย 62/1","district":"บางบอน","group":"กรุงธนใต้","@type":"bma","@id":52},"geometry":{"type":"Point","coordinates":[100.430986,13.680393]}},{"type":"Feature","id":53,"properties":{"name":"ช่วงซอยรามคำแหง 33","district":"บางกะปิ","group":"กรุงเทพตะวันออก","@type":"bma","@id":53},"geometry":{"type":"Point","coordinates":[100.61345,13.75705]}},{"type":"Feature","id":54,"properties":{"name":"ถ.ประชาราษฎร์บำเพ็ญ ช่วง ซ.ประชาราษฎร์บำเพ็ญ 14","district":"ห้วยขวาง","group":"กรุงเทพกลาง","@type":"bma","@id":54},"geometry":{"type":"Point","coordinates":[100.578509,13.776098]}},{"type":"Feature","id":55,"properties":{"name":"อุโมงค์ห้วยขวาง (ขาเข้า)","district":"ห้วยขวาง","group":"กรุงเทพกลาง","@type":"bma","@id":55},"geometry":{"type":"Point","coordinates":[100.573754,13.779018]}},{"type":"Feature","id":56,"properties":{"name":"ช่วงแยกเทียมร่วมมิตร","district":"ห้วยขวาง","group":"กรุงเทพกลาง","@type":"bma","@id":56},"geometry":{"type":"Point","coordinates":[100.583292,13.766247]}},{"type":"Feature","id":57,"properties":{"name":"ช่วงซอยตรงข้ามสถานีตำรวจนครบาลลาดพร้าว","district":"บางกะปิ","group":"กรุงเทพตะวันออก","@type":"bma","@id":57},"geometry":{"type":"Point","coordinates":[100.647666,13.768259]}},{"type":"Feature","id":58,"properties":{"name":"ช่วง ซ.ประชาสงเคราะห์9","district":"ดินแดง","group":"กรุงเทพกลาง","@type":"bma","@id":58},"geometry":{"type":"Point","coordinates":[100.556077,13.765735]}},{"type":"Feature","id":59,"properties":{"name":"ถ.ศรีวรา หน้าทาวน์อินทาวน์","district":"วังทองหลาง","group":"กรุงเทพกลาง","@type":"bma","@id":59},"geometry":{"type":"Point","coordinates":[100.609781,13.773172]}},{"type":"Feature","id":60,"properties":{"name":"หน้าโรงพยาบาลสหวิทยาการมะลิ","district":"บางบอน","group":"กรุงธนใต้","@type":"bma","@id":60},"geometry":{"type":"Point","coordinates":[100.424164,13.673123]}},{"type":"Feature","id":61,"properties":{"name":"สุขุมวิท 24 ช่วงซอยเมธีนิเวศม์","district":"คลองเตย","group":"กรุงเทพใต้","@type":"bma","@id":61},"geometry":{"type":"Point","coordinates":[100.569626,13.730214]}},{"type":"Feature","id":62,"properties":{"name":"ตลาดนำชัย","district":"ลาดกระบัง","group":"กรุงเทพตะวันออก","@type":"bma","@id":62},"geometry":{"type":"Point","coordinates":[100.712164,13.722212]}},{"type":"Feature","id":63,"properties":{"name":"ถนนจันทน์ถึงชุมชนกุศลทอง","district":"สาทร","group":"กรุงเทพใต้","@type":"bma","@id":63},"geometry":{"type":"Point","coordinates":[100.527788,13.713456]}},{"type":"Feature","id":64,"properties":{"name":"ถ.นิคมมักกะสัน แยกราชปรารภ","district":"ราชเทวี","group":"กรุงเทพกลาง","@type":"bma","@id":64},"geometry":{"type":"Point","coordinates":[100.548649,13.753364]}},{"type":"Feature","id":65,"properties":{"name":"ถนนสนามไชยตลอดสาย","district":"พระนคร","group":"กรุงเทพกลาง","@type":"bma","@id":65},"geometry":{"type":"Point","coordinates":[100.494224,13.747886]}},{"type":"Feature","id":66,"properties":{"name":"วชิรธรรมสาธิต 32","district":"พระโขนง","group":"กรุงเทพใต้","@type":"bma","@id":66},"geometry":{"type":"Point","coordinates":[100.620371,13.684393]}},{"type":"Feature","id":67,"properties":{"name":"หน้าห้างบิ๊กซี (ขาเข้าคลองเคล็ด)","district":"บางนา","group":"กรุงเทพใต้","@type":"bma","@id":67},"geometry":{"type":"Point","coordinates":[100.635687,13.667856]}},{"type":"Feature","id":68,"properties":{"name":"ซอยสาธุประดิษฐ์ 15","district":"ยานนาวา","group":"กรุงเทพใต้","@type":"bma","@id":68},"geometry":{"type":"Point","coordinates":[100.532841,13.701677]}},{"type":"Feature","id":69,"properties":{"name":"แยกพญาไท","district":"พญาไท","group":"กรุงเทพกลาง","@type":"bma","@id":69},"geometry":{"type":"Point","coordinates":[100.531199,13.749305]}},{"type":"Feature","id":70,"properties":{"name":"ช่วง BIG C บางบอน","district":"บางบอน","group":"กรุงธนใต้","@type":"bma","@id":70},"geometry":{"type":"Point","coordinates":[100.435349,13.679303]}},{"type":"Feature","id":71,"properties":{"name":"ช่วง ซอยสุคนธสวัสดิ์ 15","district":"ลาดพร้าว","group":"กรุงเทพเหนือ","@type":"bma","@id":71},"geometry":{"type":"Point","coordinates":[100.622878,13.828696]}},{"type":"Feature","id":72,"properties":{"name":"ช่วง ซอยนวมินทร์ 38","district":"บึงกุ่ม","group":"กรุงเทพตะวันออก","@type":"bma","@id":72},"geometry":{"type":"Point","coordinates":[100.652366,13.794861]}},{"type":"Feature","id":73,"properties":{"name":"ถ.วิภาวดีขาออก ช่วงแยก ถ.กำแพงเพชร 6","district":"ดอนเมือง","group":"กรุงเทพเหนือ","@type":"bma","@id":73},"geometry":{"type":"Point","coordinates":[100.59492,13.91053]}},{"type":"Feature","id":74,"properties":{"name":"ช่วงถนนเพชรบุรี","district":"ราชเทวี","group":"กรุงเทพกลาง","@type":"bma","@id":74},"geometry":{"type":"Point","coordinates":[100.560666,13.749483]}},{"type":"Feature","id":75,"properties":{"name":"ช่วงซอยนาคนิวาส 38","district":"ลาดพร้าว","group":"กรุงเทพเหนือ","@type":"bma","@id":75},"geometry":{"type":"Point","coordinates":[100.611363,13.813459]}},{"type":"Feature","id":76,"properties":{"name":"แยกโพธิ์แก้ว - ซอย 36 (นวมินทร์ขาเข้า)","district":"บึงกุ่ม","group":"กรุงเทพตะวันออก","@type":"bma","@id":76},"geometry":{"type":"Point","coordinates":[100.648304,13.801608]}},{"type":"Feature","id":77,"properties":{"name":"ช่วงซอยปรีดีพนมยงค์ 9 - คลองบางมะเขือ","district":"วัฒนา","group":"กรุงเทพใต้","@type":"bma","@id":77},"geometry":{"type":"Point","coordinates":[100.594808,13.718965]}},{"type":"Feature","id":78,"properties":{"name":"ถ.กำแพงเพชร7","district":"สวนหลวง","group":"กรุงเทพใต้","@type":"bma","@id":78},"geometry":{"type":"Point","coordinates":[100.596253,13.743652]}},{"type":"Feature","id":79,"properties":{"name":"แยกสะพานควาย","district":"พญาไท","group":"กรุงเทพกลาง","@type":"bma","@id":79},"geometry":{"type":"Point","coordinates":[100.539028,13.791813]}},{"type":"Feature","id":80,"properties":{"name":"ช่วงมอเตอร์เวย์","district":"ลาดกระบัง","group":"กรุงเทพตะวันออก","@type":"bma","@id":80},"geometry":{"type":"Point","coordinates":[100.753767,13.731273]}},{"type":"Feature","id":81,"properties":{"name":"ซอย28/2","district":"สาทร","group":"กรุงเทพใต้","@type":"bma","@id":81},"geometry":{"type":"Point","coordinates":[100.520995,13.707972]}},{"type":"Feature","id":82,"properties":{"name":"ช่วงแยกถนนจันทน์","district":"สาทร","group":"กรุงเทพใต้","@type":"bma","@id":82},"geometry":{"type":"Point","coordinates":[100.537681,13.707418]}},{"type":"Feature","id":83,"properties":{"name":"ถ.ศาลาแดง ช่วง ซ.ศาลาแดง 1/1","district":"บางรัก","group":"กรุงเทพใต้","@type":"bma","@id":83},"geometry":{"type":"Point","coordinates":[100.537173,13.725999]}},{"type":"Feature","id":84,"properties":{"name":"ตลอดซอยสุขุมวิท 71","district":"วัฒนา","group":"กรุงเทพใต้","@type":"bma","@id":84},"geometry":{"type":"Point","coordinates":[100.595967,13.727372]}},{"type":"Feature","id":85,"properties":{"name":"ช่วงซอยวชิรธรรมสาธิต 34","district":"พระโขนง","group":"กรุงเทพใต้","@type":"bma","@id":85},"geometry":{"type":"Point","coordinates":[100.631753,13.699078]}},{"type":"Feature","id":86,"properties":{"name":"ถ.ศรีนครินทร์ หน้าบริษัทกรีนสปอร์ต","district":"บางกะปิ","group":"กรุงเทพตะวันออก","@type":"bma","@id":86},"geometry":{"type":"Point","coordinates":[100.645817,13.755378]}},{"type":"Feature","id":87,"properties":{"name":"ช่วง ซ.จันทร์ 29","district":"สาทร","group":"กรุงเทพใต้","@type":"bma","@id":87},"geometry":{"type":"Point","coordinates":[100.526119,13.706306]}},{"type":"Feature","id":88,"properties":{"name":"แยกราชวงศ์","district":"สัมพันธวงศ์","group":"กรุงเทพกลาง","@type":"bma","@id":88},"geometry":{"type":"Point","coordinates":[100.506991,13.742643]}},{"type":"Feature","id":89,"properties":{"name":"ถ.จอมทอง ช่วงแยกจอมทอง","district":"จอมทอง","group":"กรุงธนเหนือ","@type":"bma","@id":89},"geometry":{"type":"Point","coordinates":[100.46491,13.70123]}},{"type":"Feature","id":90,"properties":{"name":"ช่วงซอยรามอินทรา 5","district":"บางเขน","group":"กรุงเทพเหนือ","@type":"bma","@id":90},"geometry":{"type":"Point","coordinates":[100.60444,13.870337]}},{"type":"Feature","id":91,"properties":{"name":"ช่วงใต้ทางด่วนสุรวงศ์","district":"บางรัก","group":"กรุงเทพใต้","@type":"bma","@id":91},"geometry":{"type":"Point","coordinates":[100.517295,13.726867]}},{"type":"Feature","id":92,"properties":{"name":"ลาดพร้าววังหินซอย 87 - สีแยกวังหิน","district":"ลาดพร้าว","group":"กรุงเทพเหนือ","@type":"bma","@id":92},"geometry":{"type":"Point","coordinates":[100.590948,13.82737]}},{"type":"Feature","id":93,"properties":{"name":"ช่วงหน้า ซีเจ มินิมาร์ท","district":"ดอนเมือง","group":"กรุงเทพเหนือ","@type":"bma","@id":93},"geometry":{"type":"Point","coordinates":[100.59492,13.91053]}},{"type":"Feature","id":94,"properties":{"name":"ถ.สุทธิสารวินิจฉัยซอย 19 (ซ. อินทามระ 19)","district":"พญาไท","group":"กรุงเทพกลาง","@type":"bma","@id":94},"geometry":{"type":"Point","coordinates":[100.556375,13.792068]}},{"type":"Feature","id":95,"properties":{"name":"หน้าวิทยาลัยเทคโนโลยีดอนบอสโก","district":"ห้วยขวาง","group":"กรุงเทพกลาง","@type":"bma","@id":95},"geometry":{"type":"Point","coordinates":[100.559818,13.750052]}},{"type":"Feature","id":96,"properties":{"name":"หน้าศูนย์แพทย์พัฒนา","district":"ห้วยขวาง","group":"กรุงเทพกลาง","@type":"bma","@id":96},"geometry":{"type":"Point","coordinates":[100.59693,13.763392]}},{"type":"Feature","id":97,"properties":{"name":"แยกศรีนครินทร์","district":"สวนหลวง","group":"กรุงเทพใต้","@type":"bma","@id":97},"geometry":{"type":"Point","coordinates":[100.645972,13.678859]}},{"type":"Feature","id":98,"properties":{"name":"ช่วงลาดพร้าว 110 -112","district":"บางกะปิ","group":"กรุงเทพตะวันออก","@type":"bma","@id":98},"geometry":{"type":"Point","coordinates":[100.617568,13.781356]}},{"type":"Feature","id":99,"properties":{"name":"ช่วงหน้าศูนย์แพทย์พัฒนา","district":"วังทองหลาง","group":"กรุงเทพกลาง","@type":"bma","@id":99},"geometry":{"type":"Point","coordinates":[100.595851,13.762473]}},{"type":"Feature","id":100,"properties":{"name":"หน้าวัดโพธิ์","district":"พระนคร","group":"กรุงเทพกลาง","@type":"bma","@id":100},"geometry":{"type":"Point","coordinates":[100.492655,13.747316]}},{"type":"Feature","id":101,"properties":{"name":"แยกวงแหวนกาญจนาภิเษก","district":"บางแค","group":"กรุงธนใต้","@type":"bma","@id":101},"geometry":{"type":"Point","coordinates":[100.408456,13.713296]}},{"type":"Feature","id":102,"properties":{"name":"แยกท่าดินแดงถึงคลองสมเด็จเจ้าพระยา","district":"คลองสาน","group":"กรุงธนเหนือ","@type":"bma","@id":102},"geometry":{"type":"Point","coordinates":[100.502238,13.732444]}},{"type":"Feature","id":103,"properties":{"name":"ช่วงซอยเศรษฐกิจ 5","district":"บางแค","group":"กรุงธนใต้","@type":"bma","@id":103},"geometry":{"type":"Point","coordinates":[100.376819,13.714039]}},{"type":"Feature","id":104,"properties":{"name":"ช่วง ซ.โชคชัย 40","district":"ลาดพร้าว","group":"กรุงเทพเหนือ","@type":"bma","@id":104},"geometry":{"type":"Point","coordinates":[100.597797,13.811667]}},{"type":"Feature","id":105,"properties":{"name":"แยกพัฒนาการ - สถานีรถไฟหัวหมาก","district":"สวนหลวง","group":"กรุงเทพใต้","@type":"bma","@id":105},"geometry":{"type":"Point","coordinates":[100.64126,13.737261]}},{"type":"Feature","id":106,"properties":{"name":"วงเวียนบางเขน ช่วงหน้า สน. บางเขน","district":"บางเขน","group":"กรุงเทพเหนือ","@type":"bma","@id":106},"geometry":{"type":"Point","coordinates":[100.597819,13.875279]}},{"type":"Feature","id":107,"properties":{"name":"ช่วงแยก คปอ.","district":"สายไหม","group":"กรุงเทพเหนือ","@type":"bma","@id":107},"geometry":{"type":"Point","coordinates":[100.625897,13.925191]}},{"type":"Feature","id":108,"properties":{"name":"แยกถนนจันทน์ - ซอยสาธุประดิษฐ์ 16","district":"สาทร","group":"กรุงเทพใต้","@type":"bma","@id":108},"geometry":{"type":"Point","coordinates":[100.529061,13.701178]}},{"type":"Feature","id":109,"properties":{"name":"ช่วงโรงเรียนสันติราษฏร์วิทยาลัย","district":"ราชเทวี","group":"กรุงเทพกลาง","@type":"bma","@id":109},"geometry":{"type":"Point","coordinates":[100.532135,13.758289]}},{"type":"Feature","id":110,"properties":{"name":"ช่วงกรมปศุสัตว์","district":"ราชเทวี","group":"กรุงเทพกลาง","@type":"bma","@id":110},"geometry":{"type":"Point","coordinates":[100.533666,13.756353]}},{"type":"Feature","id":111,"properties":{"name":"หน้าอาคารสิงห์คอมเพล็กซ์","district":"ห้วยขวาง","group":"กรุงเทพกลาง","@type":"bma","@id":111},"geometry":{"type":"Point","coordinates":[100.564557,13.748294]}},{"type":"Feature","id":112,"properties":{"name":"ช่วงแยกถนนเย็นอากาศ","district":"สาทร","group":"กรุงเทพใต้","@type":"bma","@id":112},"geometry":{"type":"Point","coordinates":[100.54612,13.715315]}},{"type":"Feature","id":113,"properties":{"name":"สาธุประดิษฐ์ ซอย 2","district":"สาทร","group":"กรุงเทพใต้","@type":"bma","@id":113},"geometry":{"type":"Point","coordinates":[100.528522,13.705362]}},{"type":"Feature","id":114,"properties":{"name":"ช่วงซอยเพชรเกษม 62/1","district":"บางแค","group":"กรุงธนใต้","@type":"bma","@id":114},"geometry":{"type":"Point","coordinates":[100.424436,13.715937]}},{"type":"Feature","id":115,"properties":{"name":"ช่วง ซ.วัชรพล 1/9","district":"บางเขน","group":"กรุงเทพเหนือ","@type":"bma","@id":115},"geometry":{"type":"Point","coordinates":[100.646649,13.860795]}},{"type":"Feature","id":116,"properties":{"name":"ช่วงซอยอินทปัจ 13","district":"บางแค","group":"กรุงธนใต้","@type":"bma","@id":116},"geometry":{"type":"Point","coordinates":[100.380793,13.693209]}},{"type":"Feature","id":117,"properties":{"name":"จุดกลับรถรามคำแหง24 หน้าหอพักบ้านเรือทอง","district":"บางกะปิ","group":"กรุงเทพตะวันออก","@type":"bma","@id":117},"geometry":{"type":"Point","coordinates":[100.615079,13.754017]}},{"type":"Feature","id":118,"properties":{"name":"หน้าไปรษณีย์หลักสี่ถึงศาลปกครองกลาง","district":"หลักสี่","group":"กรุงเทพเหนือ","@type":"bma","@id":118},"geometry":{"type":"Point","coordinates":[100.571871,13.888982]}},{"type":"Feature","id":119,"properties":{"name":"ซอยรามคำแหง 65 (ซอยมหาดไทย)","district":"วังทองหลาง","group":"กรุงเทพกลาง","@type":"bma","@id":119},"geometry":{"type":"Point","coordinates":[100.621982,13.771672]}},{"type":"Feature","id":120,"properties":{"name":"หน้าช่อง 3","district":"คลองเตย","group":"กรุงเทพใต้","@type":"bma","@id":120},"geometry":{"type":"Point","coordinates":[100.572815,13.717007]}},{"type":"Feature","id":121,"properties":{"name":"ซอยลาดปลาเค้า 30/2","district":"ลาดพร้าว","group":"กรุงเทพเหนือ","@type":"bma","@id":121},"geometry":{"type":"Point","coordinates":[100.597715,13.843751]}},{"type":"Feature","id":122,"properties":{"name":"ถ.สาทรใต้ ช่วง ซ.สาทร3","district":"สาทร","group":"กรุงเทพใต้","@type":"bma","@id":122},"geometry":{"type":"Point","coordinates":[100.538601,13.719294]}},{"type":"Feature","id":123,"properties":{"name":"ห้าแยกลาดพร้าว","district":"จตุจักร","group":"กรุงเทพเหนือ","@type":"bma","@id":123},"geometry":{"type":"Point","coordinates":[100.559704,13.812883]}},{"type":"Feature","id":124,"properties":{"name":"ถ.แจ้งวัฒนะขาเข้า โลตัส","district":"หลักสี่","group":"กรุงเทพเหนือ","@type":"bma","@id":124},"geometry":{"type":"Point","coordinates":[100.5557,13.895008]}},{"type":"Feature","id":125,"properties":{"name":"หน้าโลตัสหลวงแพ่ง","district":"ลาดกระบัง","group":"กรุงเทพตะวันออก","@type":"bma","@id":125},"geometry":{"type":"Point","coordinates":[100.824012,13.709762]}},{"type":"Feature","id":126,"properties":{"name":"ช่วงซอยอินทามาระ45-53","district":"ดินแดง","group":"กรุงเทพกลาง","@type":"bma","@id":126},"geometry":{"type":"Point","coordinates":[100.567063,13.785838]}},{"type":"Feature","id":127,"properties":{"name":"โรงเรียนสันติราษฎร์วิทยาลัย","district":"ราชเทวี","group":"กรุงเทพกลาง","@type":"bma","@id":127},"geometry":{"type":"Point","coordinates":[100.532145,13.758258]}},{"type":"Feature","id":128,"properties":{"name":"อนุเสาวรรีย์ประชาธิปไตย -สะพานผ่านฟ้า (ทั้ง 2ฝั่ง)","district":"พระนคร","group":"กรุงเทพกลาง","@type":"bma","@id":128},"geometry":{"type":"Point","coordinates":[100.50564,13.756405]}},{"type":"Feature","id":129,"properties":{"name":"ช่วงซอยปรีดีพนมยงค์ 10 -20 (ทั้งสองฝั่ง)","district":"วัฒนา","group":"กรุงเทพใต้","@type":"bma","@id":129},"geometry":{"type":"Point","coordinates":[100.596342,13.718388]}},{"type":"Feature","id":130,"properties":{"name":"ถ.เอกชัย ซอย 60","district":"บางบอน","group":"กรุงธนใต้","@type":"bma","@id":130},"geometry":{"type":"Point","coordinates":[100.432042,13.680114]}},{"type":"Feature","id":131,"properties":{"name":"ช่วงพิพิธภัณฑ์กรมทางหลวง","district":"ราชเทวี","group":"กรุงเทพกลาง","@type":"bma","@id":131},"geometry":{"type":"Point","coordinates":[100.525498,13.760083]}},{"type":"Feature","id":132,"properties":{"name":"หน้าโรงพยาบาลตำรวจ","district":"ปทุมวัน","group":"กรุงเทพใต้","@type":"bma","@id":132},"geometry":{"type":"Point","coordinates":[100.539831,13.742643]}},{"type":"Feature","id":133,"properties":{"name":"ซ. 15","district":"จตุจักร","group":"กรุงเทพเหนือ","@type":"bma","@id":133},"geometry":{"type":"Point","coordinates":[100.572111,13.811402]}},{"type":"Feature","id":134,"properties":{"name":"ซอยพหลโยธิน 55/1","district":"บางเขน","group":"กรุงเทพเหนือ","@type":"bma","@id":134},"geometry":{"type":"Point","coordinates":[100.590889,13.871253]}},{"type":"Feature","id":135,"properties":{"name":"ซอยเพชรเกษม 42 - 46","district":"ภาษีเจริญ","group":"กรุงธนใต้","@type":"bma","@id":135},"geometry":{"type":"Point","coordinates":[100.450046,13.717602]}},{"type":"Feature","id":136,"properties":{"name":"ถ.ประชาสงเคราะห์ ช่วง ซ.ประชาสงเคราะห์ 1 ถึงแยกองค์พระ","district":"ดินแดง","group":"กรุงเทพกลาง","@type":"bma","@id":136},"geometry":{"type":"Point","coordinates":[100.555858,13.763068]}},{"type":"Feature","id":137,"properties":{"name":"หน้าศาลอาญา","district":"จตุจักร","group":"กรุงเทพเหนือ","@type":"bma","@id":137},"geometry":{"type":"Point","coordinates":[100.574969,13.816472]}},{"type":"Feature","id":138,"properties":{"name":"สำนักงานเขตห้วยขวาง","district":"ห้วยขวาง","group":"กรุงเทพกลาง","@type":"bma","@id":138},"geometry":{"type":"Point","coordinates":[100.578942,13.776786]}},{"type":"Feature","id":139,"properties":{"name":"ซอยสุขุมวิท 22","district":"คลองเตย","group":"กรุงเทพใต้","@type":"bma","@id":139},"geometry":{"type":"Point","coordinates":[100.565211,13.727669]}},{"type":"Feature","id":140,"properties":{"name":"ช่วงซอยลาดพร้าว 110","district":"วังทองหลาง","group":"กรุงเทพกลาง","@type":"bma","@id":140},"geometry":{"type":"Point","coordinates":[100.616054,13.781762]}},{"type":"Feature","id":141,"properties":{"name":"ช่วงตลาดประชานิเวศน์","district":"จตุจักร","group":"กรุงเทพเหนือ","@type":"bma","@id":141},"geometry":{"type":"Point","coordinates":[100.544987,13.840189]}},{"type":"Feature","id":142,"properties":{"name":"หน้า Big C  (สถานีรถไฟฟ้าแจ้งวัฒนะ 14)","district":"หลักสี่","group":"กรุงเทพเหนือ","@type":"bma","@id":142},"geometry":{"type":"Point","coordinates":[100.560215,13.893286]}},{"type":"Feature","id":143,"properties":{"name":"ถนนพระราม 2 - ซอยบางกระดี่ 8","district":"บางขุนเทียน","group":"กรุงธนใต้","@type":"bma","@id":143},"geometry":{"type":"Point","coordinates":[100.397103,13.622187]}},{"type":"Feature","id":144,"properties":{"name":"ช่วง ซ.อ่อนนุช59","district":"ประเวศ","group":"กรุงเทพตะวันออก","@type":"bma","@id":144},"geometry":{"type":"Point","coordinates":[100.67394,13.719695]}},{"type":"Feature","id":145,"properties":{"name":"ช่วงโรงเรียนพิบูลประชาสรรค์","district":"ดินแดง","group":"กรุงเทพกลาง","@type":"bma","@id":145},"geometry":{"type":"Point","coordinates":[100.550423,13.762977]}},{"type":"Feature","id":146,"properties":{"name":"แยกประดิษฐ์มนูญธรรม - ตลาดโชคชัย 4","district":"วังทองหลาง","group":"กรุงเทพกลาง","@type":"bma","@id":146},"geometry":{"type":"Point","coordinates":[100.595075,13.794414]}},{"type":"Feature","id":147,"properties":{"name":"ฝั่งขาเข้าแยกศรีนคริทร์ - แยกอนามัย","district":"สวนหลวง","group":"กรุงเทพใต้","@type":"bma","@id":147},"geometry":{"type":"Point","coordinates":[100.639501,13.720122]}},{"type":"Feature","id":148,"properties":{"name":"ถนนพระรามที่ 4 จากแยกสุขุมวิท - แยกเกษมราษฎร์","district":"คลองเตย","group":"กรุงเทพใต้","@type":"bma","@id":148},"geometry":{"type":"Point","coordinates":[100.570962,13.729491]}},{"type":"Feature","id":149,"properties":{"name":"ช่วงซอย นวมินทร์ 105","district":"บึงกุ่ม","group":"กรุงเทพตะวันออก","@type":"bma","@id":149},"geometry":{"type":"Point","coordinates":[100.643781,13.8055]}},{"type":"Feature","id":150,"properties":{"name":"ถ.บางบอน 1 ช่วงตลาดเอกชัยบางบอน","district":"บางบอน","group":"กรุงธนใต้","@type":"bma","@id":150},"geometry":{"type":"Point","coordinates":[100.426345,13.675988]}},{"type":"Feature","id":151,"properties":{"name":"แจ้งวัฒนะ ขาเข้า วงเวียนบางเขน","district":"บางเขน","group":"กรุงเทพเหนือ","@type":"bma","@id":151},"geometry":{"type":"Point","coordinates":[100.596457,13.87589]}},{"type":"Feature","id":152,"properties":{"name":"ช่วงซอยพร้อมมิตร","district":"วัฒนา","group":"กรุงเทพใต้","@type":"bma","@id":152},"geometry":{"type":"Point","coordinates":[100.573211,13.733783]}},{"type":"Feature","id":153,"properties":{"name":"ซอยชินเขต","district":"หลักสี่","group":"กรุงเทพเหนือ","@type":"bma","@id":153},"geometry":{"type":"Point","coordinates":[100.548682,13.857836]}},{"type":"Feature","id":154,"properties":{"name":"ถ.เพชรเกษม ช่วง ซ.เพชรเกษม 31/4","district":"ภาษีเจริญ","group":"กรุงธนใต้","@type":"bma","@id":154},"geometry":{"type":"Point","coordinates":[100.445173,13.71491]}},{"type":"Feature","id":155,"properties":{"name":"ช่วงตรงข้าม ซ.บางขุนเทียน 10","district":"บางบอน","group":"กรุงธนใต้","@type":"bma","@id":155},"geometry":{"type":"Point","coordinates":[100.427824,13.666459]}},{"type":"Feature","id":156,"properties":{"name":"ตลาดห้วยขวาง","district":"ดินแดง","group":"กรุงเทพกลาง","@type":"bma","@id":156},"geometry":{"type":"Point","coordinates":[100.568637,13.77821]}},{"type":"Feature","id":157,"properties":{"name":"ซอยสุขุมวิท 26 ช่วงซอย อรรถกวี 3","district":"คลองเตย","group":"กรุงเทพใต้","@type":"bma","@id":157},"geometry":{"type":"Point","coordinates":[100.56745,13.721165]}},{"type":"Feature","id":158,"properties":{"name":"ช่วงแยกบางกะปิ","district":"บางกะปิ","group":"กรุงเทพตะวันออก","@type":"bma","@id":158},"geometry":{"type":"Point","coordinates":[100.648336,13.766525]}},{"type":"Feature","id":159,"properties":{"name":"ช่วงซอยอุดมศรี","district":"บางกอกใหญ่","group":"กรุงธนเหนือ","@type":"bma","@id":159},"geometry":{"type":"Point","coordinates":[100.482248,13.728755]}},{"type":"Feature","id":160,"properties":{"name":"ลาดพร้าวซอย 64 ตลอดซอย","district":"วังทองหลาง","group":"กรุงเทพกลาง","@type":"bma","@id":160},"geometry":{"type":"Point","coordinates":[100.599777,13.788184]}},{"type":"Feature","id":161,"properties":{"name":"ปากซอยเอกมัย 3 - บ่อสูบเอกมัย","district":"วัฒนา","group":"กรุงเทพใต้","@type":"bma","@id":161},"geometry":{"type":"Point","coordinates":[100.586156,13.730492]}},{"type":"Feature","id":162,"properties":{"name":"คลองบัวลอย - คลองบัวเกราะ","district":"ลาดกระบัง","group":"กรุงเทพตะวันออก","@type":"bma","@id":162},"geometry":{"type":"Point","coordinates":[100.727228,13.722091]}},{"type":"Feature","id":163,"properties":{"name":"คลองปลัดเปรียง - ทางเข้าบึงหนองบอน","district":"ประเวศ","group":"กรุงเทพตะวันออก","@type":"bma","@id":163},"geometry":{"type":"Point","coordinates":[100.670755,13.691633]}},{"type":"Feature","id":164,"properties":{"name":"ช่วงตลาดประแจจีน","district":"ราชเทวี","group":"กรุงเทพกลาง","@type":"bma","@id":164},"geometry":{"type":"Point","coordinates":[100.523554,13.756366]}},{"type":"Feature","id":165,"properties":{"name":"ช่วงทางด่วน","district":"พญาไท","group":"กรุงเทพกลาง","@type":"bma","@id":165},"geometry":{"type":"Point","coordinates":[100.563365,13.793902]}},{"type":"Feature","id":166,"properties":{"name":"ซ.ลาดพร้าว 80 แยก 22","district":"วังทองหลาง","group":"กรุงเทพกลาง","@type":"bma","@id":166},"geometry":{"type":"Point","coordinates":[100.59909,13.782663]}},{"type":"Feature","id":167,"properties":{"name":"หน้าธนาคารกรุงไทย","district":"ป้อมปราบศัตรูพ่าย","group":"กรุงเทพกลาง","@type":"bma","@id":167},"geometry":{"type":"Point","coordinates":[100.508944,13.747632]}},{"type":"Feature","id":168,"properties":{"name":"ช่วงตรงข้ามตึกแกรมมี่","district":"วัฒนา","group":"กรุงเทพใต้","@type":"bma","@id":168},"geometry":{"type":"Point","coordinates":[100.562485,13.743649]}},{"type":"Feature","id":169,"properties":{"name":"วงเวียนใหญ่","district":"คลองสาน","group":"กรุงธนเหนือ","@type":"bma","@id":169},"geometry":{"type":"Point","coordinates":[100.493162,13.726486]}},{"type":"Feature","id":170,"properties":{"name":"หน้าศาลปกครองกลาง","district":"หลักสี่","group":"กรุงเทพเหนือ","@type":"bma","@id":170},"geometry":{"type":"Point","coordinates":[100.568372,13.890214]}},{"type":"Feature","id":171,"properties":{"name":"หน้ากระทรวงยุติธรรม","district":"หลักสี่","group":"กรุงเทพเหนือ","@type":"bma","@id":171},"geometry":{"type":"Point","coordinates":[100.570434,13.889775]}},{"type":"Feature","id":172,"properties":{"name":"ช่วงหน้าโรงแรมแกรนด์ ไชน่า","district":"สัมพันธวงศ์","group":"กรุงเทพกลาง","@type":"bma","@id":172},"geometry":{"type":"Point","coordinates":[100.506993,13.743539]}},{"type":"Feature","id":173,"properties":{"name":"ฝั่งหน้าตลาดคลองเตย","district":"คลองเตย","group":"กรุงเทพใต้","@type":"bma","@id":173},"geometry":{"type":"Point","coordinates":[100.559584,13.719663]}},{"type":"Feature","id":174,"properties":{"name":"ช่วงปากซอยช่างอากาศอุทิศ 7","district":"ดอนเมือง","group":"กรุงเทพเหนือ","@type":"bma","@id":174},"geometry":{"type":"Point","coordinates":[100.586567,13.91336]}},{"type":"Feature","id":175,"properties":{"name":"หน้ากรมทางหลวง","district":"ราชเทวี","group":"กรุงเทพกลาง","@type":"bma","@id":175},"geometry":{"type":"Point","coordinates":[100.524743,13.76225]}},{"type":"Feature","id":176,"properties":{"name":"ช่วงแยกลำสาลี","district":"บางกะปิ","group":"กรุงเทพตะวันออก","@type":"bma","@id":176},"geometry":{"type":"Point","coordinates":[100.642676,13.762264]}},{"type":"Feature","id":177,"properties":{"name":"แยกเจริญกรุง- ถนนตก","district":"บางคอแหลม","group":"กรุงเทพใต้","@type":"bma","@id":177},"geometry":{"type":"Point","coordinates":[100.497138,13.697388]}},{"type":"Feature","id":178,"properties":{"name":"ซอย 75 - แยกโพธิ์แก้ว (นวมินทร์ขาออก)","district":"บึงกุ่ม","group":"กรุงเทพตะวันออก","@type":"bma","@id":178},"geometry":{"type":"Point","coordinates":[100.648282,13.802192]}},{"type":"Feature","id":179,"properties":{"name":"ช่วงซอย 135","district":"บึงกุ่ม","group":"กรุงเทพตะวันออก","@type":"bma","@id":179},"geometry":{"type":"Point","coordinates":[100.651929,13.820896]}},{"type":"Feature","id":180,"properties":{"name":"ซอยสุขุมวิท 31 (หน้าโรงเรียนสวัสดี)","district":"วัฒนา","group":"กรุงเทพใต้","@type":"bma","@id":180},"geometry":{"type":"Point","coordinates":[100.566175,13.740192]}},{"type":"Feature","id":181,"properties":{"name":"ช่วงซอยสุขุมวิท 70","district":"บางนา","group":"กรุงเทพใต้","@type":"bma","@id":181},"geometry":{"type":"Point","coordinates":[100.607946,13.676538]}},{"type":"Feature","id":182,"properties":{"name":"ฝั่งขาออกโลตัส - ศูนย์เบนซ์","district":"สวนหลวง","group":"กรุงเทพใต้","@type":"bma","@id":182},"geometry":{"type":"Point","coordinates":[100.636049,13.736384]}},{"type":"Feature","id":183,"properties":{"name":"หน้าตลาดบางกระดี่","district":"บางขุนเทียน","group":"กรุงธนใต้","@type":"bma","@id":183},"geometry":{"type":"Point","coordinates":[100.401586,13.618856]}},{"type":"Feature","id":184,"properties":{"name":"ถ.บรรทัดทอง ช่วงถนนเพชรบุรี(แยกเพชรพระราม)","district":"ราชเทวี","group":"กรุงเทพกลาง","@type":"bma","@id":184},"geometry":{"type":"Point","coordinates":[100.526875,13.755196]}},{"type":"Feature","id":185,"properties":{"name":"หน้าซีคอน ศรีนครินทร์","district":"ประเวศ","group":"กรุงเทพตะวันออก","@type":"bma","@id":185},"geometry":{"type":"Point","coordinates":[100.647537,13.694559]}},{"type":"Feature","id":186,"properties":{"name":"ช่วงซอยท่าข้าม 3","district":"บางขุนเทียน","group":"กรุงธนใต้","@type":"bma","@id":186},"geometry":{"type":"Point","coordinates":[100.44329,13.657633]}},{"type":"Feature","id":187,"properties":{"name":"สถานฑูตจีน","district":"ดินแดง","group":"กรุงเทพกลาง","@type":"bma","@id":187},"geometry":{"type":"Point","coordinates":[100.567565,13.763086]}},{"type":"Feature","id":188,"properties":{"name":"ช่วงแยกคลองตัน","district":"สวนหลวง","group":"กรุงเทพใต้","@type":"bma","@id":188},"geometry":{"type":"Point","coordinates":[100.60075,13.741223]}},{"type":"Feature","id":189,"properties":{"name":"ช่วงแยกถนนนวมินทร์","district":"บึงกุ่ม","group":"กรุงเทพตะวันออก","@type":"bma","@id":189},"geometry":{"type":"Point","coordinates":[100.64904,13.800571]}},{"type":"Feature","id":190,"properties":{"name":"ถนน รัชดาภิเษก ช่วงหน้ามหาวิทยาลัยราชภัฏจันทรเกษม","district":"จตุจักร","group":"กรุงเทพเหนือ","@type":"bma","@id":190},"geometry":{"type":"Point","coordinates":[100.575488,13.819178]}},{"type":"Feature","id":191,"properties":{"name":"ช่วงหน้าสนามเป้า","district":"พญาไท","group":"กรุงเทพกลาง","@type":"bma","@id":191},"geometry":{"type":"Point","coordinates":[100.542103,13.774851]}},{"type":"Feature","id":192,"properties":{"name":"ช่วงสวนพลูซอย 6","district":"สาทร","group":"กรุงเทพใต้","@type":"bma","@id":192},"geometry":{"type":"Point","coordinates":[100.537084,13.722933]}},{"type":"Feature","id":193,"properties":{"name":"ช่วงหน้ากรมทหารราบที่ 11","district":"บางเขน","group":"กรุงเทพเหนือ","@type":"bma","@id":193},"geometry":{"type":"Point","coordinates":[100.589237,13.863771]}},{"type":"Feature","id":194,"properties":{"name":"ช่วงBTS ม.เกษตร","district":"บางเขน","group":"กรุงเทพเหนือ","@type":"bma","@id":194},"geometry":{"type":"Point","coordinates":[100.577137,13.842546]}},{"type":"Feature","id":195,"properties":{"name":"ซอย18 - ถ.เซนหลุยส์","district":"สาทร","group":"กรุงเทพใต้","@type":"bma","@id":195},"geometry":{"type":"Point","coordinates":[100.527278,13.713257]}},{"type":"Feature","id":196,"properties":{"name":"ช่วงซอยช่างอากาศอุทิศ 12- 16","district":"ดอนเมือง","group":"กรุงเทพเหนือ","@type":"bma","@id":196},"geometry":{"type":"Point","coordinates":[100.581825,13.919489]}},{"type":"Feature","id":197,"properties":{"name":"โชคชัย 4 ซอย 28","district":"ลาดพร้าว","group":"กรุงเทพเหนือ","@type":"bma","@id":197},"geometry":{"type":"Point","coordinates":[100.598158,13.808456]}},{"type":"Feature","id":198,"properties":{"name":"โรงเรียนเตรียมอุดมศึกษาพัฒนาการ ยานนาเวศ","district":"สาทร","group":"กรุงเทพใต้","@type":"bma","@id":198},"geometry":{"type":"Point","coordinates":[100.647707,13.729935]}},{"type":"Feature","id":199,"properties":{"name":"ช่วงกล้วยน้ำไทย","district":"คลองเตย","group":"กรุงเทพใต้","@type":"bma","@id":199},"geometry":{"type":"Point","coordinates":[100.586228,13.709038]}},{"type":"Feature","id":200,"properties":{"name":"หน้ากรมขนส่งทางบก","district":"จตุจักร","group":"กรุงเทพเหนือ","@type":"bma","@id":200},"geometry":{"type":"Point","coordinates":[100.554318,13.797874]}},{"type":"Feature","id":201,"properties":{"name":"แจ้งวัฒนะ10","district":"หลักสี่","group":"กรุงเทพเหนือ","@type":"bma","@id":201},"geometry":{"type":"Point","coordinates":[100.57893,13.88748]}},{"type":"Feature","id":202,"properties":{"name":"ช่วงปากซอยลาดพร้าว 89","district":"วังทองหลาง","group":"กรุงเทพกลาง","@type":"bma","@id":202},"geometry":{"type":"Point","coordinates":[100.619328,13.780705]}},{"type":"Feature","id":203,"properties":{"name":"ถนนสรรพาวุธตลอดแนว","district":"บางนา","group":"กรุงเทพใต้","@type":"bma","@id":203},"geometry":{"type":"Point","coordinates":[100.596699,13.675074]}},{"type":"Feature","id":204,"properties":{"name":"ช่วงสนามกีฬาแห่งชาติ","district":"ปทุมวัน","group":"กรุงเทพใต้","@type":"bma","@id":204},"geometry":{"type":"Point","coordinates":[100.527875,13.746637]}},{"type":"Feature","id":205,"properties":{"name":"ถ.สุขาภิบาล ๕ ช่วงหน้าตลาดสดออเงิน","district":"สายไหม","group":"กรุงเทพเหนือ","@type":"bma","@id":205},"geometry":{"type":"Point","coordinates":[100.660602,13.896805]}},{"type":"Feature","id":206,"properties":{"name":"ถ.เพชรเกษม ช่วงหน้าโรงพยาบาลมิตรประชา","district":"ภาษีเจริญ","group":"กรุงธนใต้","@type":"bma","@id":206},"geometry":{"type":"Point","coordinates":[100.431844,13.712298]}},{"type":"Feature","id":207,"properties":{"name":"สี่แยกห้วยขวาง","district":"ห้วยขวาง","group":"กรุงเทพกลาง","@type":"bma","@id":207},"geometry":{"type":"Point","coordinates":[100.573539,13.778152]}},{"type":"Feature","id":208,"properties":{"name":"ถ.มิตรสัมพันธ์ - แยกอโศก","district":"ห้วยขวาง","group":"กรุงเทพกลาง","@type":"bma","@id":208},"geometry":{"type":"Point","coordinates":[100.561279,13.736547]}},{"type":"Feature","id":209,"properties":{"name":"ช่วงตรงข้าม ซ.สุคนธสวัสดิ์ 25/2","district":"ลาดพร้าว","group":"กรุงเทพเหนือ","@type":"bma","@id":209},"geometry":{"type":"Point","coordinates":[100.610017,13.824409]}},{"type":"Feature","id":210,"properties":{"name":"ช่วงซอยรามคำแหง 19/1","district":"บางกะปิ","group":"กรุงเทพตะวันออก","@type":"bma","@id":210},"geometry":{"type":"Point","coordinates":[100.610915,13.754165]}},{"type":"Feature","id":211,"properties":{"name":"แจ้งวัฒนะ ซอย 2","district":"บางเขน","group":"กรุงเทพเหนือ","@type":"bma","@id":211},"geometry":{"type":"Point","coordinates":[100.59595,13.877775]}},{"type":"Feature","id":212,"properties":{"name":"ช่วงซอยวัดม่วง - ลำรางสาธารณะ","district":"บางแค","group":"กรุงธนใต้","@type":"bma","@id":212},"geometry":{"type":"Point","coordinates":[100.39135,13.688732]}},{"type":"Feature","id":213,"properties":{"name":"ถ.แจ้งวัฒนะ ช่วงตรงข้ามบริษัท โทรคมนาคมแห่งชาติ จำกัด (มหาชน)","district":"หลักสี่","group":"กรุงเทพเหนือ","@type":"bma","@id":213},"geometry":{"type":"Point","coordinates":[100.576065,13.887543]}},{"type":"Feature","id":214,"properties":{"name":"ช่วงซอยนวมินทร์ 155","district":"บึงกุ่ม","group":"กรุงเทพตะวันออก","@type":"bma","@id":214},"geometry":{"type":"Point","coordinates":[100.656154,13.829135]}},{"type":"Feature","id":215,"properties":{"name":"ช่วงถนนอุดมสุข","district":"บางนา","group":"กรุงเทพใต้","@type":"bma","@id":215},"geometry":{"type":"Point","coordinates":[100.609248,13.678837]}},{"type":"Feature","id":216,"properties":{"name":"อุโมงค์พัฒนาการ (ขาเข้า)","district":"สวนหลวง","group":"กรุงเทพใต้","@type":"bma","@id":216},"geometry":{"type":"Point","coordinates":[100.630504,13.736734]}}]}