{"type":"FeatureCollection","features":[{"type":"Feature","id":1,"properties":{"name":"ประตูระบายน้ำปิยวัชร","type":"ประตูระบายน้ำ","district":"เขตคลองเตย","gate level m":"0.7","water control m":"-1","critical m":"0","warning m":"-0.2","@type":"bma","@id":1},"geometry":{"type":"Point","coordinates":[100.5943,13.7096]}},{"type":"Feature","id":2,"properties":{"name":"ประตูระบายน้ำคลองยายสร้อย","type":"ประตูระบายน้ำ","district":"เขตคลองเตย","gate level m":"0.33","water control m":"-1","critical m":"-0.3","warning m":"-0.4","@type":"bma","@id":2},"geometry":{"type":"Point","coordinates":[100.5915,13.7084]}},{"type":"Feature","id":3,"properties":{"name":"ประตูระบายน้ำคลองขันแตก","type":"ประตูระบายน้ำ","district":"เขตประเวศ","gate level m":"-","water control m":"","critical m":"","warning m":"ประตูระบายน้ำ เปิด - ปิด ตามสภาพน้ำและระดับน้ำ","@type":"bma","@id":3},"geometry":{"type":"Point","coordinates":[100.7096,13.6951]}},{"type":"Feature","id":4,"properties":{"name":"ประตูระบายน้ำคลองปากน้ำ","type":"ประตูระบายน้ำ","district":"เขตประเวศ","gate level m":"-","water control m":"","critical m":"","warning m":"ประตูระบายน้ำ เปิด - ปิด ตามสภาพน้ำและระดับน้ำ","@type":"bma","@id":4},"geometry":{"type":"Point","coordinates":[100.7052,13.6788]}},{"type":"Feature","id":5,"properties":{"name":"ประตูระบายน้ำคลองอ้ายสลุด","type":"ประตูระบายน้ำ","district":"เขตประเวศ","gate level m":"-","water control m":"","critical m":"","warning m":"ประตูระบายน้ำ เปิด - ปิด ตามสภาพน้ำและระดับน้ำ","@type":"bma","@id":5},"geometry":{"type":"Point","coordinates":[100.7042,13.6724]}},{"type":"Feature","id":6,"properties":{"name":"ประตูระบายน้ำคลองหนองบอน","type":"ประตูระบายน้ำ","district":"เขตประเวศ","gate level m":"-","water control m":"","critical m":"","warning m":"ประตูระบายน้ำ เปิด - ปิด ตามสภาพน้ำและระดับน้ำ","@type":"bma","@id":6},"geometry":{"type":"Point","coordinates":[100.6632,13.6779]}},{"type":"Feature","id":7,"properties":{"name":"ประตูระบายน้ำคลองปลัดเปรียง","type":"ประตูระบายน้ำ","district":"เขตประเวศ","gate level m":"-","water control m":"","critical m":"","warning m":"ประตูระบายน้ำ เปิด-ปิด ตามสภาพน้ำและระดับน้ำ","@type":"bma","@id":7},"geometry":{"type":"Point","coordinates":[100.6733,13.6812]}},{"type":"Feature","id":9,"properties":{"name":"ประตูระบายน้ำแสนแสบเก่า","type":"ประตูระบายน้ำ","district":"เขตห้วยขวาง","gate level m":"-","water control m":"-0.50 ถึง\n  -0.80","critical m":"0.2","warning m":"0","@type":"bma","@id":9},"geometry":{"type":"Point","coordinates":[100.5963,13.7413]}},{"type":"Feature","id":10,"properties":{"name":"ประตูระบายน้ำคลองบางกะปิ","type":"ประตูระบายน้ำ","district":"เขตห้วยขวาง","gate level m":"6","water control m":"-0.8","critical m":"0","warning m":"-0.2","@type":"bma","@id":10},"geometry":{"type":"Point","coordinates":[100.5692,13.7479]}},{"type":"Feature","id":11,"properties":{"name":"ประตูระบายน้ำคลองบางกะปิ \n (ข้างวัดอุทัย)","type":"ประตูระบายน้ำ","district":"เขตห้วยขวาง","gate level m":"-","water control m":"","critical m":"","warning m":"ประตูระบายน้ำ เปิด-ปิด ตามสภาพน้ำและระดับน้ำ","@type":"bma","@id":11},"geometry":{"type":"Point","coordinates":[100.5696,13.7491]}},{"type":"Feature","id":12,"properties":{"name":"ประตูระบายน้ำคลองพญาเวิก \n (ตอนซอยโชคชัยร่วมมิตร)","type":"ประตูระบายน้ำ","district":"เขตจุตจักร","gate level m":"9","water control m":"-1.20 ถึง \n -0.80","critical m":"0.2","warning m":"0.1","@type":"bma","@id":12},"geometry":{"type":"Point","coordinates":[100.5669,13.7964]}},{"type":"Feature","id":13,"properties":{"name":"ประตูระบายน้ำคลองน้ำแก้ว \n (ตอนซอยลาดพร้าว 41)","type":"ประตูระบายน้ำ","district":"เขตจุตจักร","gate level m":"9","water control m":"-1.20 ถึง \n -0.80","critical m":"0.2","warning m":"0.1","@type":"bma","@id":13},"geometry":{"type":"Point","coordinates":[100.5848,13.8028]}},{"type":"Feature","id":14,"properties":{"name":"ประตูระบายน้ำสรรพาวุธ","type":"ประตูระบายน้ำ","district":"เขตดุสิต","gate level m":"-","water control m":"ปิด","critical m":"0.8","warning m":"0.7","@type":"bma","@id":14},"geometry":{"type":"Point","coordinates":[100.532,13.7976]}},{"type":"Feature","id":15,"properties":{"name":"ประตูระบายน้ำวัดราชาธิวาส","type":"ประตูระบายน้ำ","district":"เขตดุสิต","gate level m":"1","water control m":"-0.80 ถึง \n -0.50","critical m":"0.5","warning m":"0.4","@type":"bma","@id":15},"geometry":{"type":"Point","coordinates":[100.5026,13.7765]}},{"type":"Feature","id":16,"properties":{"name":"ประตูระบายน้ำท่าวาสุกรี","type":"ประตูระบายน้ำ","district":"เขตดุสิต","gate level m":"4","water control m":"-1.00 ถึง \n -0.80","critical m":"0.5","warning m":"0.4","@type":"bma","@id":16},"geometry":{"type":"Point","coordinates":[100.5025,13.775]}},{"type":"Feature","id":17,"properties":{"name":"ประตูระบายน้ำดุสิต","type":"ประตูระบายน้ำ","district":"เขตดุสิต","gate level m":"-","water control m":"ปิด","critical m":"0.5","warning m":"0.4","@type":"bma","@id":17},"geometry":{"type":"Point","coordinates":[100.5212,13.7778]}},{"type":"Feature","id":18,"properties":{"name":"ประตูระบายน้ำคลองตาอูฐ \n (ตอนคลองเปรมประชากร)","type":"ประตูระบายน้ำ","district":"เขตดอนเมือง","gate level m":"8.3","water control m":"-1.10 ถึง \n -0.80","critical m":"0.4","warning m":"0.1","@type":"bma","@id":18},"geometry":{"type":"Point","coordinates":[100.5848,13.8028]}},{"type":"Feature","id":19,"properties":{"name":"ประตูระบายน้ำคูนายกิมสาย 3 \n (ตอนคลองเปรมประชากร)","type":"ประตูระบายน้ำ","district":"เขตดอนเมือง","gate level m":"4.25","water control m":"-1.30 ถึง \n -0.80","critical m":"0.2","warning m":"0.1","@type":"bma","@id":19},"geometry":{"type":"Point","coordinates":[100.5978,13.9239]}},{"type":"Feature","id":20,"properties":{"name":"ประตูระบายน้ำหน้าตลาดบางซื่อ","type":"ประตูระบายน้ำ","district":"เขตบางซื่อ","gate level m":"-","water control m":"ปิด","critical m":"-0.4","warning m":"0.3","@type":"bma","@id":20},"geometry":{"type":"Point","coordinates":[100.5333,13.8]}},{"type":"Feature","id":21,"properties":{"name":"ประตูระบายน้ำบางโพขวาง","type":"ประตูระบายน้ำ","district":"เขตบางซื่อ","gate level m":"1","water control m":"-0.80 ถึง \n -0.50","critical m":"0.5","warning m":"0.4","@type":"bma","@id":21},"geometry":{"type":"Point","coordinates":[100.5187,13.8098]}},{"type":"Feature","id":22,"properties":{"name":"ประตูระบายน้ำบึงลำพังพวย \n (นวมินทร์)","type":"ประตูระบายน้ำ","district":"เขตบางกะปิ","gate level m":"-","water control m":"-1","critical m":"0","warning m":"-0.2","@type":"bma","@id":22},"geometry":{"type":"Point","coordinates":[100.6481,13.7846]}},{"type":"Feature","id":23,"properties":{"name":"ประตูระบายน้ำคลองลำพังพวย \n (ถ.ศรีบูรพา)","type":"ประตูระบายน้ำ","district":"เขตบางกะปิ","gate level m":"-","water control m":"-1.5","critical m":"-0.6","warning m":"-0.7","@type":"bma","@id":23},"geometry":{"type":"Point","coordinates":[100.6524,13.7768]}},{"type":"Feature","id":24,"properties":{"name":"ประตูระบายน้ำลำรางสาธารณะ \n (ตอนบึงลำพังพวย นวมินทร์ 22)","type":"ประตูระบายน้ำ","district":"เขตบางกะปิ","gate level m":"-","water control m":"","critical m":"","warning m":"ประตูระบายน้ำ เปิด - ปิด ตามสภาพน้ำและระดับน้ำ","@type":"bma","@id":24},"geometry":{"type":"Point","coordinates":[100.6501,13.7842]}},{"type":"Feature","id":26,"properties":{"name":"ประตูระบายน้ำคลองออหลาว \n ตอนคลองขี้เสือใหญ่","type":"ประตูระบายน้ำ","district":"เขตลาดพร้าว","gate level m":"4","water control m":"-0.7","critical m":"0","warning m":"-0.2","@type":"bma","@id":26},"geometry":{"type":"Point","coordinates":[100.6286,13.8401]}},{"type":"Feature","id":27,"properties":{"name":"ประตูระบายน้ำคลองพลับ","type":"ประตูระบายน้ำ","district":"เขตวังทองหลาง","gate level m":"-","water control m":"","critical m":"","warning m":"ประตูระบายน้ำ เปิด - ปิด ตามสภาพน้ำและระดับน้ำ","@type":"bma","@id":27},"geometry":{"type":"Point","coordinates":[100.5989,13.7565]}},{"type":"Feature","id":28,"properties":{"name":"ประตูระบายน้ำคลองพลับพลา  \n ตอนคลองแสนแสบ","type":"ประตูระบายน้ำ","district":"เขตวังทองหลาง","gate level m":"-","water control m":"","critical m":"","warning m":"ประตูระบายน้ำ เปิด - ปิด ตามสภาพน้ำและระดับน้ำ","@type":"bma","@id":28},"geometry":{"type":"Point","coordinates":[100.6071,13.7542]}},{"type":"Feature","id":29,"properties":{"name":"ประตูระบายน้ำคลองลาดโตนด \n (ตอนคลองบางเขน)","type":"ประตูระบายน้ำ","district":"เขตหลักสี่","gate level m":"4","water control m":"-1.00 ถึง \n -0.80","critical m":"0.2","warning m":"0.1","@type":"bma","@id":29},"geometry":{"type":"Point","coordinates":[100.5599,13.8547]}},{"type":"Feature","id":30,"properties":{"name":"ประตูระบายน้ำโรงฟอกหนัง","type":"ประตูระบายน้ำ","district":"เขตคลองเตย","gate level m":"0.3","water control m":"-1","critical m":"0","warning m":"-0.4","@type":"bma","@id":30},"geometry":{"type":"Point","coordinates":[100.5906,13.7071]}},{"type":"Feature","id":31,"properties":{"name":"ประตูระบายน้ำคลองพลับ","type":"ประตูระบายน้ำ","district":"เขตคลองเตย","gate level m":"0.2","water control m":"-1","critical m":"0.2","warning m":"0","@type":"bma","@id":31},"geometry":{"type":"Point","coordinates":[100.5989,13.7565]}},{"type":"Feature","id":32,"properties":{"name":"ประตูระบายน้ำคลองเม่งเส็ง (ติดคลองสามเสน)","type":"ประตูระบายน้ำ","district":"เขตดุสิต","gate level m":"1.7","water control m":"","critical m":"","warning m":"ประตูระบายน้ำ เปิด - ปิด ตามสภาพน้ำและระดับน้ำ","@type":"bma","@id":32},"geometry":{"type":"Point","coordinates":[100.5141,13.7795]}},{"type":"Feature","id":33,"properties":{"name":"ประตูระบายน้ำคูคลองข้างทำเนียบ","type":"ประตูระบายน้ำ","district":"เขตดุสิต","gate level m":"0.04","water control m":"0","critical m":"0.7","warning m":"0.6","@type":"bma","@id":33},"geometry":{"type":"Point","coordinates":[100.5116,13.7615]}},{"type":"Feature","id":34,"properties":{"name":"ประตูระบายน้ำคลองรางเงิน (หลังสวนอัมพร)","type":"ประตูระบายน้ำ","district":"เขตดุสิต","gate level m":"-","water control m":"","critical m":"","warning m":"ประตูระบายน้ำ เปิด - ปิด ตามสภาพน้ำและระดับน้ำ","@type":"bma","@id":34},"geometry":{"type":"Point","coordinates":[100.5147,13.7809]}},{"type":"Feature","id":35,"properties":{"name":"ประตูระบายน้ำคลองบ้านใหม่","type":"ประตูระบายน้ำ","district":"เขตบางคอแหลม","gate level m":"3.3","water control m":"-1","critical m":"0.8","warning m":"0.5","@type":"bma","@id":35},"geometry":{"type":"Point","coordinates":[100.5063,13.7083]}},{"type":"Feature","id":36,"properties":{"name":"ประตูระบายน้ำ\n คลองหน้าหมู่บ้านภักดี","type":"ประตูระบายน้ำ","district":"เขตบางคอแหลม","gate level m":"0.65","water control m":"-1","critical m":"0.6","warning m":"0.5","@type":"bma","@id":36},"geometry":{"type":"Point","coordinates":[100.5035,13.6903]}},{"type":"Feature","id":37,"properties":{"name":"ประตูระบายน้ำคลองเสาหิน","type":"ประตูระบายน้ำ","district":"เขตบางคอแหลม","gate level m":"-","water control m":"-1","critical m":"0.6","warning m":"0.5","@type":"bma","@id":37},"geometry":{"type":"Point","coordinates":[100.5213,13.6847]}},{"type":"Feature","id":38,"properties":{"name":"ประตูระบายน้ำคลองลำกระโดง 9\n (คลองตาเหล็ก)","type":"ประตูระบายน้ำ","district":"เขตบางคอแหลม","gate level m":"-","water control m":"-1","critical m":"0.6","warning m":"0.5","@type":"bma","@id":38},"geometry":{"type":"Point","coordinates":[100.5134,13.6869]}},{"type":"Feature","id":39,"properties":{"name":"ประตูระบายน้ำคลองลำกระโดง 8","type":"ประตูระบายน้ำ","district":"เขตบางคอแหลม","gate level m":"-","water control m":"-1","critical m":"0.6","warning m":"0.5","@type":"bma","@id":39},"geometry":{"type":"Point","coordinates":[100.513,13.6869]}},{"type":"Feature","id":40,"properties":{"name":"ประตูระบายน้ำคลองมะนาว \n (ตอนสวนเฉลิมพระเกียรติ)","type":"ประตูระบายน้ำ","district":"เขตบางคอแหลม","gate level m":"-","water control m":"-1","critical m":"0.6","warning m":"0.5","@type":"bma","@id":40},"geometry":{"type":"Point","coordinates":[100.5196,13.686]}},{"type":"Feature","id":41,"properties":{"name":"ประตูระบายน้ำคลองบางโคล่ใหญ่","type":"ประตูระบายน้ำ","district":"เขตบางคอแหลม","gate level m":"-","water control m":"-1","critical m":"0.6","warning m":"0.5","@type":"bma","@id":41},"geometry":{"type":"Point","coordinates":[100.5091,13.6877]}},{"type":"Feature","id":42,"properties":{"name":"ประตูระบายน้ำคลองบางโคล่วัด","type":"ประตูระบายน้ำ","district":"เขตบางคอแหลม","gate level m":"-","water control m":"-1","critical m":"0.6","warning m":"0.5","@type":"bma","@id":42},"geometry":{"type":"Point","coordinates":[100.5111,13.6871]}},{"type":"Feature","id":43,"properties":{"name":"ประตูระบายน้ำคลองบางโคล่สาร","type":"ประตูระบายน้ำ","district":"เขตบางคอแหลม","gate level m":"-","water control m":"-1","critical m":"0.6","warning m":"0.5","@type":"bma","@id":43},"geometry":{"type":"Point","coordinates":[100.508,13.6877]}},{"type":"Feature","id":44,"properties":{"name":"ประตูระบายน้ำคลองบางโคล่น้อย","type":"ประตูระบายน้ำ","district":"เขตบางคอแหลม","gate level m":"-","water control m":"-1","critical m":"0.6","warning m":"0.5","@type":"bma","@id":44},"geometry":{"type":"Point","coordinates":[100.5045,13.6879]}},{"type":"Feature","id":45,"properties":{"name":"ประตูระบายน้ำคลองข้างโรงเหล็ก","type":"ประตูระบายน้ำ","district":"เขตบางคอแหลม","gate level m":"-","water control m":"-1","critical m":"0.6","warning m":"0.5","@type":"bma","@id":45},"geometry":{"type":"Point","coordinates":[100.5035,13.688]}},{"type":"Feature","id":46,"properties":{"name":"ประตูระบายน้ำคลองวัดจันทร์นอก","type":"ประตูระบายน้ำ","district":"เขตบางคอแหลม","gate level m":"-","water control m":"-1","critical m":"0.6","warning m":"0.5","@type":"bma","@id":46},"geometry":{"type":"Point","coordinates":[100.5004,13.6881]}},{"type":"Feature","id":47,"properties":{"name":"ประตูระบายน้ำคลองภาษี","type":"ประตูระบายน้ำ","district":"เขตบางคอแหลม","gate level m":"-","water control m":"-1","critical m":"0.6","warning m":"0.5","@type":"bma","@id":47},"geometry":{"type":"Point","coordinates":[100.4983,13.6891]}},{"type":"Feature","id":48,"properties":{"name":"ประตูระบายน้ำคลองลำกระโดงสาธารณะ 7","type":"ประตูระบายน้ำ","district":"เขตบางคอแหลม","gate level m":"-","water control m":"-1","critical m":"0.6","warning m":"0.5","@type":"bma","@id":48},"geometry":{"type":"Point","coordinates":[100.4971,13.6897]}},{"type":"Feature","id":49,"properties":{"name":"ประตูระบายน้ำคลองบางคอแหลม","type":"ประตูระบายน้ำ","district":"เขตบางคอแหลม","gate level m":"-","water control m":"-1","critical m":"0.6","warning m":"0.5","@type":"bma","@id":49},"geometry":{"type":"Point","coordinates":[100.4959,13.6904]}},{"type":"Feature","id":50,"properties":{"name":"ประตูระบายน้ำคลองสวน","type":"ประตูระบายน้ำ","district":"เขตบางคอแหลม","gate level m":"-","water control m":"-1","critical m":"0.6","warning m":"0.5","@type":"bma","@id":50},"geometry":{"type":"Point","coordinates":[100.4941,13.6913]}},{"type":"Feature","id":51,"properties":{"name":"ประตูระบายน้ำคลองถนนตก","type":"ประตูระบายน้ำ","district":"เขตบางคอแหลม","gate level m":"-","water control m":"-1","critical m":"0.6","warning m":"0.5","@type":"bma","@id":51},"geometry":{"type":"Point","coordinates":[100.4932,13.6921]}},{"type":"Feature","id":52,"properties":{"name":"ประตูระบายน้ำคลองลำกระโดงสาธารณะ 4","type":"ประตูระบายน้ำ","district":"เขตบางคอแหลม","gate level m":"-","water control m":"-1","critical m":"0.6","warning m":"0.5","@type":"bma","@id":52},"geometry":{"type":"Point","coordinates":[100.4918,13.6936]}},{"type":"Feature","id":53,"properties":{"name":"ประตูระบายน้ำคลองลำกระโดงสาธารณะ 3","type":"ประตูระบายน้ำ","district":"เขตบางคอแหลม","gate level m":"-","water control m":"-1","critical m":"0.6","warning m":"0.5","@type":"bma","@id":53},"geometry":{"type":"Point","coordinates":[100.4915,13.6949]}},{"type":"Feature","id":54,"properties":{"name":"ประตูระบายน้ำคลองลำกระโดงสาธารณะ 2","type":"ประตูระบายน้ำ","district":"เขตบางคอแหลม","gate level m":"-","water control m":"-1","critical m":"0.6","warning m":"0.5","@type":"bma","@id":54},"geometry":{"type":"Point","coordinates":[100.4915,13.6968]}},{"type":"Feature","id":55,"properties":{"name":"ประตูระบายน้ำคลองลำกระโดงสาธารณะ 1","type":"ประตูระบายน้ำ","district":"เขตบางคอแหลม","gate level m":"-","water control m":"-1","critical m":"0.6","warning m":"0.5","@type":"bma","@id":55},"geometry":{"type":"Point","coordinates":[100.4929,13.6991]}},{"type":"Feature","id":56,"properties":{"name":"ประตูระบายน้ำคลองบางนา","type":"ประตูระบายน้ำ","district":"เขตบางนา","gate level m":"-","water control m":"","critical m":"","warning m":"ประตูระบายน้ำ เปิด - ปิด ตามสภาพน้ำและระดับน้ำ","@type":"bma","@id":56},"geometry":{"type":"Point","coordinates":[100.6493,13.6593]}},{"type":"Feature","id":57,"properties":{"name":"ประตูระบายน้ำคลองโต๊ะยอ (ตอนคลองหัวหมาก)","type":"ประตูระบายน้ำ","district":"เขตบางกะปิ","gate level m":"4","water control m":"-1.5","critical m":"0","warning m":"-0.4","@type":"bma","@id":57},"geometry":{"type":"Point","coordinates":[100.6489,13.7521]}},{"type":"Feature","id":58,"properties":{"name":"ประตูระบายน้ำคลองสวนหลวง \n (ตอนคลองแสนแสบ)","type":"ประตูระบายน้ำ","district":"เขตปทุมวัน","gate level m":"2","water control m":"-1","critical m":"0.6","warning m":"0.5","@type":"bma","@id":58},"geometry":{"type":"Point","coordinates":[100.524,13.7489]}},{"type":"Feature","id":59,"properties":{"name":"ประตูระบายน้ำคลองตาช้าง (ขาเข้า)","type":"ประตูระบายน้ำ","district":"เขตประเวศ","gate level m":"5.5","water control m":"-1","critical m":"-0.2","warning m":"-0.5","@type":"bma","@id":59},"geometry":{"type":"Point","coordinates":[100.6462,13.6834]}},{"type":"Feature","id":60,"properties":{"name":"ประตูระบายน้ำคลองตาช้าง (ขาออก)","type":"ประตูระบายน้ำ","district":"เขตประเวศ","gate level m":"-","water control m":"","critical m":"","warning m":"ประตูระบายน้ำ เปิด - ปิด ตามสภาพน้ำและระดับน้ำ","@type":"bma","@id":60},"geometry":{"type":"Point","coordinates":[100.6466,13.6835]}},{"type":"Feature","id":61,"properties":{"name":"ประตูระบายน้ำคลองเคล็ด \n (ถ.ศรีนครินทร์)","type":"ประตูระบายน้ำ","district":"เขตประเวศ","gate level m":"-","water control m":"","critical m":"","warning m":"ประตูระบายน้ำ เปิด - ปิด ตามสภาพน้ำและระดับน้ำ","@type":"bma","@id":61},"geometry":{"type":"Point","coordinates":[100.6467,13.669]}},{"type":"Feature","id":62,"properties":{"name":"ประตูระบายน้ำวัดเทพธิดา","type":"ประตูระบายน้ำ","district":"เขตพระนคร","gate level m":"2.7","water control m":"-0.3","critical m":"0.7","warning m":"0.6","@type":"bma","@id":62},"geometry":{"type":"Point","coordinates":[100.5053,13.7538]}},{"type":"Feature","id":63,"properties":{"name":"ประตูระบายน้ำวัดราชบพิธ","type":"ประตูระบายน้ำ","district":"เขตพระนคร","gate level m":"0.7","water control m":"-0.3","critical m":"0.7","warning m":"0.6","@type":"bma","@id":63},"geometry":{"type":"Point","coordinates":[100.5037,13.7478]}},{"type":"Feature","id":64,"properties":{"name":"ประตูระบายน้ำคลองมะนาว \n (ตอนถนนนราธิวาสราชนครินทร์)","type":"ประตูระบายน้ำ","district":"เขตยานนาวา","gate level m":"3.25","water control m":"-1","critical m":"0.6","warning m":"0.5","@type":"bma","@id":64},"geometry":{"type":"Point","coordinates":[100.541,13.7004]}},{"type":"Feature","id":65,"properties":{"name":"ประตูระบายน้ำคลองขุด","type":"ประตูระบายน้ำ","district":"เขตยานนาวา","gate level m":"-","water control m":"-","critical m":"0.6","warning m":"0.5","@type":"bma","@id":65},"geometry":{"type":"Point","coordinates":[100.5493,13.7002]}},{"type":"Feature","id":66,"properties":{"name":"ประตูระบายน้ำคลองวัดช่องนนทรี","type":"ประตูระบายน้ำ","district":"เขตยานนาวา","gate level m":"-","water control m":"-1","critical m":"0.6","warning m":"0.5","@type":"bma","@id":66},"geometry":{"type":"Point","coordinates":[100.5497,13.6925]}},{"type":"Feature","id":67,"properties":{"name":"ประตูระบายน้ำคลองเกาะกลาง\n ถนนพระราม 3","type":"ประตูระบายน้ำ","district":"เขตยานนาวา","gate level m":"-","water control m":"-1","critical m":"0.6","warning m":"0.5","@type":"bma","@id":67},"geometry":{"type":"Point","coordinates":[100.5472,13.6938]}},{"type":"Feature","id":68,"properties":{"name":"ประตูระบายน้ำคลองโรงกลั่นน้ำมัน","type":"ประตูระบายน้ำ","district":"เขตยานนาวา","gate level m":"-","water control m":"-1","critical m":"0.6","warning m":"0.5","@type":"bma","@id":68},"geometry":{"type":"Point","coordinates":[100.5227,13.6816]}},{"type":"Feature","id":69,"properties":{"name":"ประตูระบายน้ำคลองวัดดอกไม้","type":"ประตูระบายน้ำ","district":"เขตยานนาวา","gate level m":"-","water control m":"-1","critical m":"0.6","warning m":"0.5","@type":"bma","@id":69},"geometry":{"type":"Point","coordinates":[100.524,13.6806]}},{"type":"Feature","id":70,"properties":{"name":"ประตูระบายน้ำคลองงลำกระโดงสาธารณะไลอ้อน","type":"ประตูระบายน้ำ","district":"เขตยานนาวา","gate level m":"-","water control m":"-1","critical m":"0.6","warning m":"0.5","@type":"bma","@id":70},"geometry":{"type":"Point","coordinates":[100.5253,13.6795]}},{"type":"Feature","id":71,"properties":{"name":"ประตูระบายน้ำคลองวัดทองบน","type":"ประตูระบายน้ำ","district":"เขตยานนาวา","gate level m":"-","water control m":"-1","critical m":"0.6","warning m":"0.5","@type":"bma","@id":71},"geometry":{"type":"Point","coordinates":[100.5255,13.6791]}},{"type":"Feature","id":72,"properties":{"name":"ประตูระบายน้ำคลองบางโพงพางเหนือ","type":"ประตูระบายน้ำ","district":"เขตยานนาวา","gate level m":"-","water control m":"-1","critical m":"0.6","warning m":"0.5","@type":"bma","@id":72},"geometry":{"type":"Point","coordinates":[100.528,13.6769]}},{"type":"Feature","id":73,"properties":{"name":"ประตูระบายน้ำคลองบางโพงพางใต้","type":"ประตูระบายน้ำ","district":"เขตยานนาวา","gate level m":"-","water control m":"-1","critical m":"0.6","warning m":"0.5","@type":"bma","@id":73},"geometry":{"type":"Point","coordinates":[100.5294,13.6757]}},{"type":"Feature","id":74,"properties":{"name":"ประตูระบายน้ำคลองปริวาส","type":"ประตูระบายน้ำ","district":"เขตยานนาวา","gate level m":"-","water control m":"-1","critical m":"0.6","warning m":"0.5","@type":"bma","@id":74},"geometry":{"type":"Point","coordinates":[100.5323,13.6734]}},{"type":"Feature","id":75,"properties":{"name":"ประตูระบายน้ำคลองวัดด่านเหนือ","type":"ประตูระบายน้ำ","district":"เขตยานนาวา","gate level m":"-","water control m":"-1","critical m":"0.6","warning m":"0.5","@type":"bma","@id":75},"geometry":{"type":"Point","coordinates":[100.5368,13.6708]}},{"type":"Feature","id":76,"properties":{"name":"ประตูระบายน้ำคลองหลัง \n รร.เจ้าพระยาวิทยาคม","type":"ประตูระบายน้ำ","district":"เขตยานนาวา","gate level m":"-","water control m":"-1","critical m":"0.6","warning m":"0.5","@type":"bma","@id":76},"geometry":{"type":"Point","coordinates":[100.5351,13.6712]}},{"type":"Feature","id":77,"properties":{"name":"ประตูระบายน้ำคลองโบสถ์","type":"ประตูระบายน้ำ","district":"เขตยานนาวา","gate level m":"-","water control m":"-1","critical m":"0.6","warning m":"0.5","@type":"bma","@id":77},"geometry":{"type":"Point","coordinates":[100.541,13.6712]}},{"type":"Feature","id":78,"properties":{"name":"ประตูระบายน้ำคลองสาน","type":"ประตูระบายน้ำ","district":"เขตยานนาวา","gate level m":"-","water control m":"-1","critical m":"0.6","warning m":"0.5","@type":"bma","@id":78},"geometry":{"type":"Point","coordinates":[100.5456,13.673]}},{"type":"Feature","id":79,"properties":{"name":"ประตูระบายน้ำคลองหีบ","type":"ประตูระบายน้ำ","district":"เขตยานนาวา","gate level m":"-","water control m":"-1","critical m":"0.6","warning m":"0.5","@type":"bma","@id":79},"geometry":{"type":"Point","coordinates":[100.5506,13.6833]}},{"type":"Feature","id":80,"properties":{"name":"ประตูระบายน้ำคลองตาห่วง","type":"ประตูระบายน้ำ","district":"เขตยานนาวา","gate level m":"-","water control m":"-1","critical m":"0.6","warning m":"0.5","@type":"bma","@id":80},"geometry":{"type":"Point","coordinates":[100.5479,13.6869]}},{"type":"Feature","id":81,"properties":{"name":"ประตูระบายน้ำคลองลำกระโดง ข้างเชียงกง","type":"ประตูระบายน้ำ","district":"เขตยานนาวา","gate level m":"-","water control m":"-1","critical m":"0.6","warning m":"0.5","@type":"bma","@id":81},"geometry":{"type":"Point","coordinates":[100.5505,13.6882]}},{"type":"Feature","id":82,"properties":{"name":"ประตูระบายน้ำคลองยายหรั่ง","type":"ประตูระบายน้ำ","district":"เขตยานนาวา","gate level m":"-","water control m":"-1","critical m":"0.6","warning m":"0.5","@type":"bma","@id":82},"geometry":{"type":"Point","coordinates":[100.5505,13.6888]}},{"type":"Feature","id":83,"properties":{"name":"ประตูระบายน้ำสาทร\n ช่วงสะพานไทย-เบลเยี่ยม","type":"ประตูระบายน้ำ","district":"เขตสาธร","gate level m":"-","water control m":"-","critical m":"0.4","warning m":"0.2","@type":"bma","@id":83},"geometry":{"type":"Point","coordinates":[100.5437,13.726]}},{"type":"Feature","id":84,"properties":{"name":"ประตูระบายน้ำคลองสะแก","type":"ประตูระบายน้ำ","district":"เขตสวนหลวง","gate level m":"-","water control m":"","critical m":"","warning m":"ปิดฤดูฝน","@type":"bma","@id":84},"geometry":{"type":"Point","coordinates":[100.6104,13.7435]}},{"type":"Feature","id":85,"properties":{"name":"ประตูระบายน้ำคลองศาลเจ้า","type":"ประตูระบายน้ำ","district":"เขตสวนหลวง","gate level m":"-","water control m":"","critical m":"","warning m":"ปิดฤดูฝน","@type":"bma","@id":85},"geometry":{"type":"Point","coordinates":[100.6369,13.7111]}},{"type":"Feature","id":86,"properties":{"name":"ประตูระบายน้ำคลองตาสาด","type":"ประตูระบายน้ำ","district":"เขตสวนหลวง","gate level m":"-","water control m":"","critical m":"","warning m":"ประตูระบายน้ำ เปิด - ปิด ตามสภาพน้ำและระดับน้ำ","@type":"bma","@id":86},"geometry":{"type":"Point","coordinates":[100.6463,13.7025]}},{"type":"Feature","id":87,"properties":{"name":"ประตูระบายน้ำคลองกะจะ \n (ตอนถนนศรีนครินทร์)","type":"ประตูระบายน้ำ","district":"เขตสวนหลวง","gate level m":"-","water control m":"","critical m":"","warning m":"ปิดฤดูฝน","@type":"bma","@id":87},"geometry":{"type":"Point","coordinates":[100.6439,13.7465]}},{"type":"Feature","id":89,"properties":{"name":"ประตูระบายน้ำคลองหนองแขม","type":"ประตูระบายน้ำ","district":"เขตบึงกุ่ม","gate level m":"-","water control m":"","critical m":"","warning m":"ประตูระบายน้ำ เปิด - ปิด ตามสภาพน้ำและระดับน้ำ","@type":"bma","@id":89},"geometry":{"type":"Point","coordinates":[100.6664,13.8049]}},{"type":"Feature","id":90,"properties":{"name":"ประตูระบายน้ำคลองลำรางสาธารณะ\n (หมู่บ้านเอื้ออาทร)","type":"ประตูระบายน้ำ","district":"เขตบึงกุ่ม","gate level m":"-","water control m":"","critical m":"","warning m":"ประตูระบายน้ำ เปิด - ปิด ตามสภาพน้ำและระดับน้ำ","@type":"bma","@id":90},"geometry":{"type":"Point","coordinates":[100.6676,13.7945]}},{"type":"Feature","id":91,"properties":{"name":"ประตูระบายน้ำคลองบวบขม \n (ตอนคลองลำชะล่า)","type":"ประตูระบายน้ำ","district":"เขตบึงกุ่ม","gate level m":"-","water control m":"","critical m":"","warning m":"ประตูระบายน้ำ เปิด - ปิด ตามสภาพน้ำและระดับน้ำ","@type":"bma","@id":91},"geometry":{"type":"Point","coordinates":[100.6623,13.814]}},{"type":"Feature","id":92,"properties":{"name":"ประตูระบายน้ำคลองดอนอีกา","type":"ประตูระบายน้ำ","district":"เขตบึงกุ่ม","gate level m":"-","water control m":"","critical m":"","warning m":"ประตูระบายน้ำ เปิด - ปิด ตามสภาพน้ำและระดับน้ำ","@type":"bma","@id":92},"geometry":{"type":"Point","coordinates":[100.6493,13.8226]}},{"type":"Feature","id":93,"properties":{"name":"ประตูระบายน้ำลำรางสาธารณะ\n (ตอนบึงกุ่ม)","type":"ประตูระบายน้ำ","district":"เขตบึงกุ่ม","gate level m":"-","water control m":"","critical m":"","warning m":"ประตูระบายน้ำ เปิด - ปิด ตามสภาพน้ำและระดับน้ำ","@type":"bma","@id":93},"geometry":{"type":"Point","coordinates":[100.6501,13.7842]}},{"type":"Feature","id":94,"properties":{"name":"ประตูระบายน้ำประเวศ \n (กระทุ่มเสือปลา) (ด้านใน)","type":"ประตูระบายน้ำ","district":"เขตประเวศ","gate level m":"-","water control m":"-0.1","critical m":"0.2","warning m":"0.1","@type":"bma","@id":94},"geometry":{"type":"Point","coordinates":[100.6895,13.7239]}},{"type":"Feature","id":95,"properties":{"name":"ประตูระบายน้ำบางชัน\n (ตอนคลองแสนแสบ)","type":"ประตูระบายน้ำ","district":"เขตมีนบุรี","gate level m":"-","water control m":"0.2","critical m":"0.5","warning m":"0.4","@type":"bma","@id":95},"geometry":{"type":"Point","coordinates":[100.7045,13.7973]}},{"type":"Feature","id":96,"properties":{"name":"ประตูระบายน้ำบางชัน \n (ตอนสวนสยาม)","type":"ประตูระบายน้ำ","district":"เขตมีนบุรี","gate level m":"-","water control m":"","critical m":"","warning m":"ประตูเปิดลอย น้ำไหลเข้าให้ปิดประตู","@type":"bma","@id":96},"geometry":{"type":"Point","coordinates":[100.6917,13.8032]}},{"type":"Feature","id":97,"properties":{"name":"ประตูระบายน้ำบึงตาเกตุ","type":"ประตูระบายน้ำ","district":"เขตมีนบุรี","gate level m":"-","water control m":"","critical m":"","warning m":"ประตูเปิดลอย","@type":"bma","@id":97},"geometry":{"type":"Point","coordinates":[100.7018,13.8066]}},{"type":"Feature","id":98,"properties":{"name":"ประตูระบายน้ำคลองหลอแหล 1","type":"ประตูระบายน้ำ","district":"เขตมีนบุรี","gate level m":"-","water control m":"0","critical m":"0.3","warning m":"0.2","@type":"bma","@id":98},"geometry":{"type":"Point","coordinates":[100.7001,13.8044]}},{"type":"Feature","id":100,"properties":{"name":"ประตูระบายน้ำแสนแสบ (มีนบุรี)\n (ด้านใน)","type":"ประตูระบายน้ำ","district":"เขตมีนบุรี","gate level m":"-","water control m":"0.2","critical m":"0.6","warning m":"0.5","@type":"bma","@id":100},"geometry":{"type":"Point","coordinates":[100.7473,13.8209]}},{"type":"Feature","id":101,"properties":{"name":"ประตูระบายน้ำคลองลำบึงขวาง","type":"ประตูระบายน้ำ","district":"ประตูระบายน้ำแสนแสบ (มีนบุรี)\n (ด้านนอก)","gate level m":"-","water control m":"0.1","critical m":"0.6","warning m":"0.5","@type":"bma","@id":101},"geometry":{"type":"Point","coordinates":[100.7447,13.7995]}},{"type":"Feature","id":102,"properties":{"name":"ประตูระบายน้ำลาดกระบัง (ด้านใน)","type":"ประตูระบายน้ำ","district":"เขตลาดกระบัง","gate level m":"-","water control m":"0.1","critical m":"0.4","warning m":"0.3","@type":"bma","@id":102},"geometry":{"type":"Point","coordinates":[100.7498,13.7241]}},{"type":"Feature","id":103,"properties":{"name":"ประตูระบายน้ำพระยาสุเรนทร์(เหนือ)","type":"ประตูระบายน้ำ","district":"เขตสายไหม","gate level m":"-","water control m":"0.9","critical m":"1.2","warning m":"1.1","@type":"bma","@id":103},"geometry":{"type":"Point","coordinates":[100.678,13.8508]}},{"type":"Feature","id":104,"properties":{"name":"ประตูระบายน้ำคลองหม้อแตก","type":"ประตูระบายน้ำ","district":"เขตสายไหม","gate level m":"-","water control m":"0.7","critical m":"1","warning m":"0.9","@type":"bma","@id":104},"geometry":{"type":"Point","coordinates":[100.6622,13.9215]}},{"type":"Feature","id":105,"properties":{"name":"ประตูระบายน้ำคลองสองสายใต้","type":"ประตูระบายน้ำ","district":"เขตสายไหม","gate level m":"-","water control m":"0.7","critical m":"1","warning m":"0.9","@type":"bma","@id":105},"geometry":{"type":"Point","coordinates":[100.6347,13.9231]}},{"type":"Feature","id":106,"properties":{"name":"ประตูระบายน้ำพระยาสุเรนทร์(ใต้)","type":"ประตูระบายน้ำ","district":"เขตสามวา","gate level m":"-","water control m":"0.5","critical m":"0.8","warning m":"0.7","@type":"bma","@id":106},"geometry":{"type":"Point","coordinates":[100.6872,13.9212]}},{"type":"Feature","id":107,"properties":{"name":"ประตูระบายน้ำคลองหนึ่ง \n ฝั่งตะวันออก","type":"ประตูระบายน้ำ","district":"เขตสามวา","gate level m":"-","water control m":"0.8","critical m":"1.2","warning m":"1.1","@type":"bma","@id":107},"geometry":{"type":"Point","coordinates":[100.7331,13.8505]}},{"type":"Feature","id":108,"properties":{"name":"ประตูระบายน้ำคลองสองตะวันตก","type":"ประตูระบายน้ำ","district":"เขตสามวา","gate level m":"-","water control m":"0.8","critical m":"1.2","warning m":"1.1","@type":"bma","@id":108},"geometry":{"type":"Point","coordinates":[100.7231,13.8639]}},{"type":"Feature","id":109,"properties":{"name":"ประตูระบายน้ำคลองสามตะวันตก","type":"ประตูระบายน้ำ","district":"เขตสามวา","gate level m":"-","water control m":"0.8","critical m":"1.2","warning m":"1.1","@type":"bma","@id":109},"geometry":{"type":"Point","coordinates":[100.7227,13.8795]}},{"type":"Feature","id":110,"properties":{"name":"ประตูระบายน้ำคลองสี่ตะวันตก","type":"ประตูระบายน้ำ","district":"เขตสามวา","gate level m":"-","water control m":"0.8","critical m":"1.2","warning m":"1.1","@type":"bma","@id":110},"geometry":{"type":"Point","coordinates":[100.7224,13.8958]}},{"type":"Feature","id":111,"properties":{"name":"ประตูระบายน้ำคลองสามวา","type":"ประตูระบายน้ำ","district":"เขตสามวา","gate level m":"-","water control m":"0.2","critical m":"0.6","warning m":"0.5","@type":"bma","@id":111},"geometry":{"type":"Point","coordinates":[100.7262,13.8625]}},{"type":"Feature","id":112,"properties":{"name":"ประตูระบายน้ำคลองลำแบน","type":"ประตูระบายน้ำ","district":"เขตสามวา","gate level m":"-","water control m":"0.5","critical m":"0.8","warning m":"0.7","@type":"bma","@id":112},"geometry":{"type":"Point","coordinates":[100.7222,13.9067]}},{"type":"Feature","id":113,"properties":{"name":"ประตูระบายน้ำคลองหนึ่ง \n ลำปลาทิว","type":"ประตูระบายน้ำ","district":"เขตหนองจอก","gate level m":"-","water control m":"","critical m":"","warning m":"ประตูเปิดลอย น้ำไหลเข้าให้ปิดประตู","@type":"bma","@id":113},"geometry":{"type":"Point","coordinates":[100.8698,13.8285]}},{"type":"Feature","id":114,"properties":{"name":"ประตูระบายน้ำคลองสองลำปลาทิว","type":"ประตูระบายน้ำ","district":"เขตหนองจอก","gate level m":"-","water control m":"","critical m":"","warning m":"ประตูเปิดลอย น้ำไหลเข้าให้ปิดประตู","@type":"bma","@id":114},"geometry":{"type":"Point","coordinates":[100.8719,13.8158]}},{"type":"Feature","id":115,"properties":{"name":"ทำนบและประตูระบายน้ำ\n คลองหนึ่ง","type":"ประตูระบายน้ำ","district":"เขตหนองจอก","gate level m":"-","water control m":"น้ำไหลเข้าให้ปิดประตู","critical m":"0.9","warning m":"0.8","@type":"bma","@id":115},"geometry":{"type":"Point","coordinates":[100.9222,13.798]}},{"type":"Feature","id":116,"properties":{"name":"ทำนบและประตูระบายน้ำ\n คลองสอง","type":"ประตูระบายน้ำ","district":"เขตหนองจอก","gate level m":"-","water control m":"น้ำไหลเข้าให้ปิดประตู","critical m":"0.9","warning m":"0.8","@type":"bma","@id":116},"geometry":{"type":"Point","coordinates":[100.9072,13.7865]}},{"type":"Feature","id":117,"properties":{"name":"ทำนบและประตูระบายน้ำ\n คลองปากคลองลำต้อยติ่ง","type":"ประตูระบายน้ำ","district":"เขตหนองจอก","gate level m":"-","water control m":"น้ำไหลเข้าให้ปิดประตู","critical m":"0.9","warning m":"0.8","@type":"bma","@id":117},"geometry":{"type":"Point","coordinates":[100.8981,13.77]}},{"type":"Feature","id":118,"properties":{"name":"ทำนบและประตูระบายน้ำ\n คลองลำตาแฝง","type":"ประตูระบายน้ำ","district":"เขตหนองจอก","gate level m":"-","water control m":"น้ำไหลเข้าให้ปิดประตู","critical m":"0.9","warning m":"0.8","@type":"bma","@id":118},"geometry":{"type":"Point","coordinates":[100.8786,13.7378]}},{"type":"Feature","id":119,"properties":{"name":"ทำนบและประตูระบายน้ำ\n คลองลำตาอิน","type":"ประตูระบายน้ำ","district":"เขตหนองจอก","gate level m":"-","water control m":"น้ำไหลเข้าให้ปิดประตู","critical m":"0.9","warning m":"0.8","@type":"bma","@id":119},"geometry":{"type":"Point","coordinates":[100.8798,13.7403]}},{"type":"Feature","id":120,"properties":{"name":"ทำนบและประตูระบายน้ำ\n คลองลำรางสาธารณะ","type":"ประตูระบายน้ำ","district":"เขตหนองจอก","gate level m":"-","water control m":"น้ำไหลเข้าให้ปิดประตู","critical m":"1","warning m":"0.9","@type":"bma","@id":120},"geometry":{"type":"Point","coordinates":[100.894,13.8486]}},{"type":"Feature","id":121,"properties":{"name":"ทำนบและประตูระบายน้ำ\n คลองหลวงณรงค์","type":"ประตูระบายน้ำ","district":"เขตหนองจอก","gate level m":"-","water control m":"น้ำไหลเข้าให้ปิดประตู","critical m":"1","warning m":"0.9","@type":"bma","@id":121},"geometry":{"type":"Point","coordinates":[100.8982,13.8453]}},{"type":"Feature","id":122,"properties":{"name":"ทำนบและประตูระบายน้ำ\n คลองบึงนายรุ่ง","type":"ประตูระบายน้ำ","district":"เขตหนองจอก","gate level m":"-","water control m":"น้ำไหลเข้าให้ปิดประตู","critical m":"1","warning m":"0.9","@type":"bma","@id":122},"geometry":{"type":"Point","coordinates":[100.9081,13.8374]}},{"type":"Feature","id":123,"properties":{"name":"ทำนบและประตูระบายน้ำ\n คลองโต๊ะนิล","type":"ประตูระบายน้ำ","district":"เขตหนองจอก","gate level m":"-","water control m":"น้ำไหลเข้าให้ปิดประตู","critical m":"1","warning m":"0.9","@type":"bma","@id":123},"geometry":{"type":"Point","coordinates":[100.91,13.8361]}},{"type":"Feature","id":124,"properties":{"name":"ทำนบและประตูระบายน้ำ\n คลองตาพ่วง","type":"ประตูระบายน้ำ","district":"เขตหนองจอก","gate level m":"-","water control m":"น้ำไหลเข้าให้ปิดประตู","critical m":"1","warning m":"0.9","@type":"bma","@id":124},"geometry":{"type":"Point","coordinates":[100.9249,13.8246]}},{"type":"Feature","id":125,"properties":{"name":"ทำนบและประตูระบายน้ำ\n คลองตาวง","type":"ประตูระบายน้ำ","district":"เขตหนองจอก","gate level m":"-","water control m":"น้ำไหลเข้าให้ปิดประตู","critical m":"1","warning m":"0.9","@type":"bma","@id":125},"geometry":{"type":"Point","coordinates":[100.9283,13.8219]}},{"type":"Feature","id":126,"properties":{"name":"ประตูระบายน้ำประตูเรือสัญจร\n คลองลูกวัวเก่า","type":"ประตูระบายน้ำ","district":"เขตบางขุนเทียน","gate level m":"-","water control m":"-0.50 ถึง +0.50","critical m":"1.3","warning m":"1.2","@type":"bma","@id":126},"geometry":{"type":"Point","coordinates":[100.4419,13.5706]}},{"type":"Feature","id":127,"properties":{"name":"ประตูระบายน้ำคลองแยก\n คลองเชิงตาแพ","type":"ประตูระบายน้ำ","district":"เขตบางขุนเทียน","gate level m":"-","water control m":"-0.50 ถึง +0.50","critical m":"1.3","warning m":"1.2","@type":"bma","@id":127},"geometry":{"type":"Point","coordinates":[100.4365,13.5681]}},{"type":"Feature","id":128,"properties":{"name":"ประตูระบายน้ำคลองรางยายเพียร","type":"ประตูระบายน้ำ","district":"เขตบางขุนเทียน","gate level m":"-","water control m":"-0.50 ถึง +0.50","critical m":"1.3","warning m":"1.2","@type":"bma","@id":128},"geometry":{"type":"Point","coordinates":[100.4354,13.567]}},{"type":"Feature","id":129,"properties":{"name":"ประตูระบายน้ำคลองรางยายคง","type":"ประตูระบายน้ำ","district":"เขตบางขุนเทียน","gate level m":"-","water control m":"-0.50 ถึง +0.50","critical m":"1.3","warning m":"1.2","@type":"bma","@id":129},"geometry":{"type":"Point","coordinates":[100.4186,13.5687]}},{"type":"Feature","id":130,"properties":{"name":"ประตูระบายน้ำคลองหัวกระบือ","type":"ประตูระบายน้ำ","district":"เขตบางขุนเทียน","gate level m":"-","water control m":"-0.50 ถึง +0.50","critical m":"1.3","warning m":"1.2","@type":"bma","@id":130},"geometry":{"type":"Point","coordinates":[100.3989,13.5704]}},{"type":"Feature","id":131,"properties":{"name":"ประตูระบายน้ำคลองรางโพธิ์","type":"ประตูระบายน้ำ","district":"เขตบางขุนเทียน","gate level m":"2","water control m":"","critical m":"0.8","warning m":"0.7","@type":"bma","@id":131},"geometry":{"type":"Point","coordinates":[100.4494,13.6317]}},{"type":"Feature","id":132,"properties":{"name":"ประตูระบายน้ำคลองบุญสุข","type":"ประตูระบายน้ำ","district":"เขตบางขุนเทียน","gate level m":"2","water control m":"","critical m":"0.8","warning m":"0.7","@type":"bma","@id":132},"geometry":{"type":"Point","coordinates":[100.4522,13.6193]}},{"type":"Feature","id":133,"properties":{"name":"ประตูระบายน้ำคลองรางสะแก","type":"ประตูระบายน้ำ","district":"เขตบางขุนเทียน","gate level m":"2","water control m":"","critical m":"0.8","warning m":"0.7","@type":"bma","@id":133},"geometry":{"type":"Point","coordinates":[100.453,13.6143]}},{"type":"Feature","id":134,"properties":{"name":"ประตูระบายน้ำคลองนา","type":"ประตูระบายน้ำ","district":"เขตบางขุนเทียน","gate level m":"2","water control m":"","critical m":"0.8","warning m":"0.7","@type":"bma","@id":134},"geometry":{"type":"Point","coordinates":[100.4548,13.605]}},{"type":"Feature","id":135,"properties":{"name":"ประตูระบายน้ำคลองม่วง","type":"ประตูระบายน้ำ","district":"เขตบางขุนเทียน","gate level m":"3","water control m":"0.00 ถึง +0.30","critical m":"0.7","warning m":"0.6","@type":"bma","@id":135},"geometry":{"type":"Point","coordinates":[100.4019,13.6053]}},{"type":"Feature","id":136,"properties":{"name":"ประตูระบายน้ำคลองบางขนุน","type":"ประตูระบายน้ำ","district":"เขตบางขุนเทียน","gate level m":"0.5","water control m":"0.00 ถึง +0.30","critical m":"0.7","warning m":"0.6","@type":"bma","@id":136},"geometry":{"type":"Point","coordinates":[100.3904,13.5972]}},{"type":"Feature","id":137,"properties":{"name":"ประตูระบายน้ำคลองตรง","type":"ประตูระบายน้ำ","district":"เขตบางขุนเทียน","gate level m":"0.5","water control m":"0.00 ถึง +0.30","critical m":"0.7","warning m":"0.6","@type":"bma","@id":137},"geometry":{"type":"Point","coordinates":[100.4201,13.62]}},{"type":"Feature","id":138,"properties":{"name":"ประตูระบายน้ำคลองมหาศร","type":"ประตูระบายน้ำ","district":"เขตหนองแขม","gate level m":"-","water control m":"","critical m":"0.7","warning m":"0.6","@type":"bma","@id":138},"geometry":{"type":"Point","coordinates":[100.3504,13.6815]}},{"type":"Feature","id":139,"properties":{"name":"ประตูระบายน้ำคลองกำนันประทีป","type":"ประตูระบายน้ำ","district":"เขตหนองแขม","gate level m":"-","water control m":"","critical m":"0.7","warning m":"0.6","@type":"bma","@id":139},"geometry":{"type":"Point","coordinates":[100.3482,13.7356]}},{"type":"Feature","id":140,"properties":{"name":"ประตูระบายน้ำคลองแสงศิริ","type":"ประตูระบายน้ำ","district":"เขตหนองแขม","gate level m":"-","water control m":"","critical m":"0.7","warning m":"0.6","@type":"bma","@id":140},"geometry":{"type":"Point","coordinates":[100.331,13.7136]}},{"type":"Feature","id":141,"properties":{"name":"ประตูระบายน้ำคลองราษฎร์เจริญสุข \n (โรงบำบัดน้ำเสียหนองแขม)","type":"ประตูระบายน้ำ","district":"เขตหนองแขม","gate level m":"-","water control m":"","critical m":"0.7","warning m":"0.6","@type":"bma","@id":141},"geometry":{"type":"Point","coordinates":[100.3613,13.7172]}},{"type":"Feature","id":142,"properties":{"name":"ประตูระบายน้ำคลองราษฎร์เจริญสุข\n (คลองทวีวัฒนา)","type":"ประตูระบายน้ำ","district":"เขตหนองแขม","gate level m":"1.5","water control m":"","critical m":"0.7","warning m":"0.6","@type":"bma","@id":142},"geometry":{"type":"Point","coordinates":[100.3677,13.7186]}},{"type":"Feature","id":143,"properties":{"name":"ประตูระบายน้ำคลองบางจาก","type":"ประตูระบายน้ำ","district":"เขตหนองแขม","gate level m":"-","water control m":"","critical m":"0.7","warning m":"0.6","@type":"bma","@id":143},"geometry":{"type":"Point","coordinates":[100.3714,13.7109]}},{"type":"Feature","id":144,"properties":{"name":"ประตูระบายน้ำคลองบ้านหลวงวารี","type":"ประตูระบายน้ำ","district":"เขตคลองสาน","gate level m":"-","water control m":"0.00 ถึง +0.40","critical m":"0.7","warning m":"0.6","@type":"bma","@id":144},"geometry":{"type":"Point","coordinates":[100.5093,13.7007]}},{"type":"Feature","id":145,"properties":{"name":"ประตูระบายน้ำคลองวัดทองนพคุณ","type":"ประตูระบายน้ำ","district":"เขตคลองสาน","gate level m":"0.15","water control m":"0.00 ถึง\n +0.20","critical m":"0.8","warning m":"0.7","@type":"bma","@id":145},"geometry":{"type":"Point","coordinates":[100.5086,13.7325]}},{"type":"Feature","id":146,"properties":{"name":"ประตูระบายน้ำ\n คลองข้างวัดทองนพคุณ","type":"ประตูระบายน้ำ","district":"เขตคลองสาน","gate level m":"0.25","water control m":"0.00 ถึง +0.20","critical m":"0.8","warning m":"0.7","@type":"bma","@id":146},"geometry":{"type":"Point","coordinates":[100.5078,13.7349]}},{"type":"Feature","id":147,"properties":{"name":"ประตูระบายน้ำ\n คลองวัดทองธรรมชาติ","type":"ประตูระบายน้ำ","district":"เขตคลองสาน","gate level m":"0.2","water control m":"0.00 ถึง +0.20","critical m":"0.8","warning m":"0.7","@type":"bma","@id":147},"geometry":{"type":"Point","coordinates":[100.5101,13.7321]}},{"type":"Feature","id":148,"properties":{"name":"ประตูระบายน้ำ\n ซอยสมเด็จเจ้าพระยา 17","type":"ประตูระบายน้ำ","district":"เขตคลองสาน","gate level m":"0.2","water control m":"-0.10 ถึง\n +0.30","critical m":"0.5","warning m":"0.4","@type":"bma","@id":148},"geometry":{"type":"Point","coordinates":[100.5132,13.729]}},{"type":"Feature","id":149,"properties":{"name":"ประตูระบายน้ำข้างโซฟิเทล","type":"ประตูระบายน้ำ","district":"เขตคลองสาน","gate level m":"-","water control m":"0.00 ถึง +0.30","critical m":"0.7","warning m":"0.6","@type":"bma","@id":149},"geometry":{"type":"Point","coordinates":[100.5114,13.7282]}},{"type":"Feature","id":150,"properties":{"name":"ประตูระบายน้ำคลองเทพา","type":"ประตูระบายน้ำ","district":"เขตคลองสาน","gate level m":"0.2","water control m":"0.00 ถึง\n +0.20","critical m":"0.8","warning m":"0.7","@type":"bma","@id":150},"geometry":{"type":"Point","coordinates":[100.5114,13.7257]}},{"type":"Feature","id":151,"properties":{"name":"ประตูระบายน้ำ\n ปากคลองวัดทองเพลง","type":"ประตูระบายน้ำ","district":"เขตคลองสาน","gate level m":"1","water control m":"0.0 ถึง +0.20","critical m":"0.8","warning m":"0.7","@type":"bma","@id":151},"geometry":{"type":"Point","coordinates":[100.509,13.7235]}},{"type":"Feature","id":152,"properties":{"name":"ประตูระบายน้ำวัดสุวรรณ\n (เจริญนคร 2 1/2)","type":"ประตูระบายน้ำ","district":"เขตคลองสาน","gate level m":"0.15","water control m":"0.00 ถึง +0.30","critical m":"0.7","warning m":"0.5","@type":"bma","@id":152},"geometry":{"type":"Point","coordinates":[100.4889,13.7372]}},{"type":"Feature","id":153,"properties":{"name":"ประตูระบายน้ำปากคลองต้นไทร","type":"ประตูระบายน้ำ","district":"เขตคลองสาน","gate level m":"1","water control m":"0.00 ถึง +0.30","critical m":"0.6","warning m":"0.5","@type":"bma","@id":153},"geometry":{"type":"Point","coordinates":[100.51,13.7178]}},{"type":"Feature","id":154,"properties":{"name":"ประตูระบายน้ำ\n คลองข้างสายชลแมนชั่น","type":"ประตูระบายน้ำ","district":"เขตคลองสาน","gate level m":"-","water control m":"0.00 ถึง +0.30","critical m":"0.6","warning m":"0.5","@type":"bma","@id":154},"geometry":{"type":"Point","coordinates":[100.5086,13.7153]}},{"type":"Feature","id":155,"properties":{"name":"ประตูระบายน้ำ\n ปากคลองบางลำภูล่าง","type":"ประตูระบายน้ำ","district":"เขตคลองสาน","gate level m":"4","water control m":"0.00 ถึง +0.30","critical m":"0.6","warning m":"0.5","@type":"bma","@id":155},"geometry":{"type":"Point","coordinates":[100.5073,13.7133]}},{"type":"Feature","id":156,"properties":{"name":"ประตูระบายน้ำคลองหลังซอยจำเริญ\n (เจริญนคร 39)","type":"ประตูระบายน้ำ","district":"เขตคลองสาน","gate level m":"0.8","water control m":"0.00 ถึง +0.30","critical m":"0.6","warning m":"0.5","@type":"bma","@id":156},"geometry":{"type":"Point","coordinates":[100.5028,13.7091]}},{"type":"Feature","id":157,"properties":{"name":"ประตูระบายน้ำคลองโรงน้ำแข็ง \n (เจริญนคร 41)","type":"ประตูระบายน้ำ","district":"เขตคลองสาน","gate level m":"-","water control m":"0.00 ถึง +0.30","critical m":"0.6","warning m":"0.5","@type":"bma","@id":157},"geometry":{"type":"Point","coordinates":[100.5016,13.7084]}},{"type":"Feature","id":158,"properties":{"name":"ประตูระบายน้ำคลองโรงปลา \n (เจริญนคร 49)","type":"ประตูระบายน้ำ","district":"เขตคลองสาน","gate level m":"0.13","water control m":"0.00 ถึง +0.30","critical m":"0.6","warning m":"0.5","@type":"bma","@id":158},"geometry":{"type":"Point","coordinates":[100.5006,13.7081]}},{"type":"Feature","id":159,"properties":{"name":"ประตูระบายน้ำคลองโรงภาษี \n (เจริญนคร 53)","type":"ประตูระบายน้ำ","district":"เขตคลองสาน","gate level m":"1","water control m":"0.00 ถึง +0.30","critical m":"0.6","warning m":"0.5","@type":"bma","@id":159},"geometry":{"type":"Point","coordinates":[100.4993,13.7088]}},{"type":"Feature","id":160,"properties":{"name":"ประตูระบายน้ำคลองบางค้อ\n (ตอนถนนวุฒากาศ)\n (*อยู่ระหว่างปรับปรุงปี 2566)","type":"ประตูระบายน้ำ","district":"เขตจอมทอง","gate level m":"1","water control m":"-0.20 ถึง +0.20","critical m":"0.4","warning m":"0.3","@type":"bma","@id":160},"geometry":{"type":"Point","coordinates":[100.4682,13.7016]}},{"type":"Feature","id":161,"properties":{"name":"ประตูระบายน้ำคลองต้นไทร\n (ตอนถนนวุฒากาศ)","type":"ประตูระบายน้ำ","district":"เขตจอมทอง","gate level m":"0.4","water control m":"-0.10 ถึง +0.20","critical m":"0.5","warning m":"0.4","@type":"bma","@id":161},"geometry":{"type":"Point","coordinates":[100.4667,13.7092]}},{"type":"Feature","id":162,"properties":{"name":"ประตูระบายน้ำคลองจีน\n (ตอนถนนวุฒากาศ)","type":"ประตูระบายน้ำ","district":"เขตจอมทอง","gate level m":"0.45","water control m":"-0.10 ถึง +0.20","critical m":"0.5","warning m":"0.4","@type":"bma","@id":162},"geometry":{"type":"Point","coordinates":[100.4671,13.7106]}},{"type":"Feature","id":163,"properties":{"name":"ประตูระบายน้ำวัดนางชี","type":"ประตูระบายน้ำ","district":"เขตจอมทอง","gate level m":"-","water control m":"0.00 ถึง +0.20","critical m":"0.8","warning m":"0.7","@type":"bma","@id":163},"geometry":{"type":"Point","coordinates":[100.4685,13.716]}},{"type":"Feature","id":164,"properties":{"name":"ประตูระบายน้ำคลองซอยด่านแปด","type":"ประตูระบายน้ำ","district":"เขตจอมทอง","gate level m":"-","water control m":"","critical m":"0.5","warning m":"0.4","@type":"bma","@id":164},"geometry":{"type":"Point","coordinates":[100.4687,13.7151]}},{"type":"Feature","id":165,"properties":{"name":"ประตูระบายน้ำคลองตาม่วง","type":"ประตูระบายน้ำ","district":"เขตจอมทอง","gate level m":"-","water control m":"","critical m":"0.5","warning m":"0.4","@type":"bma","@id":165},"geometry":{"type":"Point","coordinates":[100.4686,13.7133]}},{"type":"Feature","id":166,"properties":{"name":"ประตูระบายน้ำคลองตาแผลง","type":"ประตูระบายน้ำ","district":"เขตจอมทอง","gate level m":"-","water control m":"","critical m":"0.8","warning m":"0.7","@type":"bma","@id":166},"geometry":{"type":"Point","coordinates":[100.4661,13.7109]}},{"type":"Feature","id":167,"properties":{"name":"ประตูระบายน้ำคลองวัดราชโอรส","type":"ประตูระบายน้ำ","district":"เขตจอมทอง","gate level m":"-","water control m":"-0.10 ถึง +0.20","critical m":"0.5","warning m":"0.4","@type":"bma","@id":167},"geometry":{"type":"Point","coordinates":[100.4649,13.7017]}},{"type":"Feature","id":168,"properties":{"name":"ประตูระบายน้ำคลองด่าน 8 \n (ปากคลองนาคปรก)","type":"ประตูระบายน้ำ","district":"เขตจอมทอง","gate level m":"-","water control m":"","critical m":"0.8","warning m":"0.7","@type":"bma","@id":168},"geometry":{"type":"Point","coordinates":[100.4665,13.7166]}},{"type":"Feature","id":169,"properties":{"name":"ประตูระบายน้ำศาลเจ้าแม่ทับทิม","type":"ประตูระบายน้ำ","district":"เขตตลิ่งชัน","gate level m":"0.5","water control m":"","critical m":"1.1","warning m":"1","@type":"bma","@id":169},"geometry":{"type":"Point","coordinates":[100.4669,13.7806]}},{"type":"Feature","id":170,"properties":{"name":"ประตูระบายน้ำคลองยายวาด","type":"ประตูระบายน้ำ","district":"เขตตลิ่งชัน","gate level m":"0.5","water control m":"","critical m":"1.1","warning m":"0.9","@type":"bma","@id":170},"geometry":{"type":"Point","coordinates":[100.4683,13.7935]}},{"type":"Feature","id":171,"properties":{"name":"ประตูระบายน้ำคลองผู้ใหญ่น่วม","type":"ประตูระบายน้ำ","district":"เขตตลิ่งชัน","gate level m":"0.35","water control m":"","critical m":"1","warning m":"0.9","@type":"bma","@id":171},"geometry":{"type":"Point","coordinates":[100.4624,13.7966]}},{"type":"Feature","id":172,"properties":{"name":"ประตูระบายน้ำคลองบัว","type":"ประตูระบายน้ำ","district":"เขตตลิ่งชัน","gate level m":"4","water control m":"","critical m":"0.8","warning m":"0.7","@type":"bma","@id":172},"geometry":{"type":"Point","coordinates":[100.4162,13.7992]}},{"type":"Feature","id":173,"properties":{"name":"ประตูระบายน้ำสวนแดน","type":"ประตูระบายน้ำ","district":"เขตตลิ่งชัน","gate level m":"0.25","water control m":"","critical m":"1.2","warning m":"1.1","@type":"bma","@id":173},"geometry":{"type":"Point","coordinates":[100.5159,13.8068]}},{"type":"Feature","id":174,"properties":{"name":"ประตูระบายน้ำคลองตาเพชร","type":"ประตูระบายน้ำ","district":"เขตตลิ่งชัน","gate level m":"0.2","water control m":"","critical m":"1.1","warning m":"1","@type":"bma","@id":174},"geometry":{"type":"Point","coordinates":[100.5158,13.8081]}},{"type":"Feature","id":178,"properties":{"name":"ประตูระบายน้ำคลองโพ \n (ริมคลองมหาสวัสดิ์)","type":"ประตูระบายน้ำ","district":"เขตทวีวัฒนา","gate level m":"-","water control m":"0.6","critical m":"0.8","warning m":"0.7","@type":"bma","@id":178},"geometry":{"type":"Point","coordinates":[100.4041,13.8012]}},{"type":"Feature","id":179,"properties":{"name":"ประตูระบายน้ำคลองควาย \n (ริมคลองมหาสวัสดิ์)","type":"ประตูระบายน้ำ","district":"เขตทวีวัฒนา","gate level m":"-","water control m":"-0.7","critical m":"1","warning m":"0.9","@type":"bma","@id":179},"geometry":{"type":"Point","coordinates":[100.3802,13.8021]}},{"type":"Feature","id":180,"properties":{"name":"ประตูระบายน้ำคลองขุนศรีบุรีรักษ์ \n (ริมคลองมหาสวัสดิ์)","type":"ประตูระบายน้ำ","district":"เขตทวีวัฒนา","gate level m":"-","water control m":"-0.7","critical m":"1","warning m":"0.9","@type":"bma","@id":180},"geometry":{"type":"Point","coordinates":[100.3708,13.8024]}},{"type":"Feature","id":181,"properties":{"name":"ประตูระบายน้ำคลองซอย \n (ริมคลองมหาสวัสดิ์)","type":"ประตูระบายน้ำ","district":"เขตทวีวัฒนา","gate level m":"-","water control m":"-0.7","critical m":"1","warning m":"0.9","@type":"bma","@id":181},"geometry":{"type":"Point","coordinates":[100.3485,13.8026]}},{"type":"Feature","id":182,"properties":{"name":"ประตูระบายน้ำคลองทวีวัฒนา","type":"ประตูระบายน้ำ","district":"เขตทวีวัฒนา","gate level m":"-","water control m":"","critical m":"1","warning m":"0.9","@type":"bma","@id":182},"geometry":{"type":"Point","coordinates":[100.3296,13.8004]}},{"type":"Feature","id":183,"properties":{"name":"ประตูระบายน้ำคลองสวัสดิ์","type":"ประตูระบายน้ำ","district":"เขตทวีวัฒนา","gate level m":"-","water control m":"","critical m":"0.8","warning m":"0.7","@type":"bma","@id":183},"geometry":{"type":"Point","coordinates":[100.3438,13.7788]}},{"type":"Feature","id":184,"properties":{"name":"ประตูระบายน้ำวังทวีวัฒนา","type":"ประตูระบายน้ำ","district":"เขตทวีวัฒนา","gate level m":"-","water control m":"-","critical m":"-","warning m":"-","@type":"bma","@id":184},"geometry":{"type":"Point","coordinates":[100.34,13.7807]}},{"type":"Feature","id":185,"properties":{"name":"ประตูระบายน้ำคลองบุบผาราม","type":"ประตูระบายน้ำ","district":"เขตธนบุรี","gate level m":"0.58","water control m":"","critical m":"0.8","warning m":"0.7","@type":"bma","@id":185},"geometry":{"type":"Point","coordinates":[100.4929,13.7399]}},{"type":"Feature","id":186,"properties":{"name":"ประตูระบายน้ำคลองกุฎีจีน","type":"ประตูระบายน้ำ","district":"เขตธนบุรี","gate level m":"-","water control m":"","critical m":"1","warning m":"0.9","@type":"bma","@id":186},"geometry":{"type":"Point","coordinates":[100.4947,13.7057]}},{"type":"Feature","id":187,"properties":{"name":"ประตูระบายน้ำคลองสะพานพลอย","type":"ประตูระบายน้ำ","district":"เขตธนบุรี","gate level m":"0.2","water control m":"0.00 ถึง +0.30","critical m":"0.8","warning m":"0.7","@type":"bma","@id":187},"geometry":{"type":"Point","coordinates":[100.5058,13.7356]}},{"type":"Feature","id":188,"properties":{"name":"ประตูระบายน้ำคลองข้างโกดังหวั่งหลี","type":"ประตูระบายน้ำ","district":"เขตธนบุรี","gate level m":"2","water control m":"0.00 ถึง +0.30","critical m":"0.7","warning m":"0.5","@type":"bma","@id":188},"geometry":{"type":"Point","coordinates":[100.4899,13.7005]}},{"type":"Feature","id":189,"properties":{"name":"ประตูระบายน้ำคลองบุคคโล","type":"ประตูระบายน้ำ","district":"เขตธนบุรี","gate level m":"1","water control m":"0.00 ถึง +0.30","critical m":"0.7","warning m":"0.6","@type":"bma","@id":189},"geometry":{"type":"Point","coordinates":[100.4891,13.6992]}},{"type":"Feature","id":190,"properties":{"name":"ประตูระบายน้ำ\n คลองวัดใหม่ยายนุ้ย 1 (คลองด่าน)\n (*อยู่ระหว่างปรับปรุงปี 2566)","type":"ประตูระบายน้ำ","district":"เขตธนบุรี","gate level m":"0.15","water control m":"-0.10 ถึง +0.30","critical m":"0.5","warning m":"0.4","@type":"bma","@id":190},"geometry":{"type":"Point","coordinates":[100.4677,13.7107]}},{"type":"Feature","id":191,"properties":{"name":"ประตูระบายน้ำ\n คลองวัดใหม่ยายนุ้ย 2 (คลองด่าน)\n (*อยู่ระหว่างปรับปรุงปี 2566)","type":"ประตูระบายน้ำ","district":"เขตธนบุรี","gate level m":"0.25","water control m":"-0.10 ถึง +0.30","critical m":"0.5","warning m":"0.4","@type":"bma","@id":191},"geometry":{"type":"Point","coordinates":[100.4692,13.712]}},{"type":"Feature","id":192,"properties":{"name":"ประตูระบายน้ำคลองห้าเจดีย์\n (*อยู่ระหว่างปรับปรุงปี 2566)","type":"ประตูระบายน้ำ","district":"เขตธนบุรี","gate level m":"0.5","water control m":"-0.10 ถึง +0.30","critical m":"0.5","warning m":"0.4","@type":"bma","@id":192},"geometry":{"type":"Point","coordinates":[100.4695,13.7125]}},{"type":"Feature","id":193,"properties":{"name":"ประตูระบายน้ำคลองข้างธนาคารนครหลวงไทย","type":"ประตูระบายน้ำ","district":"เขตธนบุรี","gate level m":"0.3","water control m":"-0.10 ถึง +0.20","critical m":"0.5","warning m":"0.4","@type":"bma","@id":193},"geometry":{"type":"Point","coordinates":[100.4708,13.7157]}},{"type":"Feature","id":194,"properties":{"name":"ประตูระบายน้ำคลองสำเหร่\n (ถนนเทอดไท)","type":"ประตูระบายน้ำ","district":"เขตธนบุรี","gate level m":"0.75","water control m":"0.00 ถึง +0.40","critical m":"0.6","warning m":"0.5","@type":"bma","@id":194},"geometry":{"type":"Point","coordinates":[100.4821,13.7223]}},{"type":"Feature","id":195,"properties":{"name":"ประตูระบายน้ำสุเหร่าสวนพลู","type":"ประตูระบายน้ำ","district":"เขตธนบุรี","gate level m":"-","water control m":"0.00ถึง +0.30","critical m":"0.6","warning m":"0.5","@type":"bma","@id":195},"geometry":{"type":"Point","coordinates":[100.4856,13.7246]}},{"type":"Feature","id":196,"properties":{"name":"ประตูระบายน้ำวัดระฆัง","type":"ประตูระบายน้ำ","district":"เขตบางกอกใหญ่","gate level m":"-","water control m":"","critical m":"1","warning m":"0.9","@type":"bma","@id":196},"geometry":{"type":"Point","coordinates":[100.4849,13.7469]}},{"type":"Feature","id":197,"properties":{"name":"ประตูระบายน้ำวัดอรุณ","type":"ประตูระบายน้ำ","district":"เขตบางกอกใหญ่","gate level m":"-","water control m":"","critical m":"1","warning m":"0.9","@type":"bma","@id":197},"geometry":{"type":"Point","coordinates":[100.4889,13.7372]}},{"type":"Feature","id":198,"properties":{"name":"ประตูระบายน้ำคลองวัดใหม่ยายแป้น","type":"ประตูระบายน้ำ","district":"เขตบางกอกน้อย","gate level m":"-","water control m":"","critical m":"1","warning m":"0.9","@type":"bma","@id":198},"geometry":{"type":"Point","coordinates":[100.4747,13.7655]}},{"type":"Feature","id":199,"properties":{"name":"ประตูระบายน้ำคูข้างวัดศรีสุดาราม","type":"ประตูระบายน้ำ","district":"เขตบางกอกน้อย","gate level m":"-","water control m":"","critical m":"1","warning m":"0.9","@type":"bma","@id":199},"geometry":{"type":"Point","coordinates":[100.4684,13.7812]}},{"type":"Feature","id":200,"properties":{"name":"ประตูระบายน้ำ\n ปากคลองบางขุนนนท์","type":"ประตูระบายน้ำ","district":"เขตบางกอกน้อย","gate level m":"0.25","water control m":"","critical m":"0.8","warning m":"0.7","@type":"bma","@id":200},"geometry":{"type":"Point","coordinates":[100.4697,13.7688]}},{"type":"Feature","id":201,"properties":{"name":"ประตูระบายน้ำ\n คลองวัดใหม่ภาวนา (ปากคลอง)","type":"ประตูระบายน้ำ","district":"เขตบางกอกน้อย","gate level m":"0.25","water control m":"","critical m":"0.8","warning m":"0.7","@type":"bma","@id":201},"geometry":{"type":"Point","coordinates":[100.4697,13.7766]}},{"type":"Feature","id":202,"properties":{"name":"ประตูระบายน้ำคลองสวนมะม่วง","type":"ประตูระบายน้ำ","district":"เขตบางกอกน้อย","gate level m":"0.1","water control m":"","critical m":"0.8","warning m":"0.7","@type":"bma","@id":202},"geometry":{"type":"Point","coordinates":[100.4701,13.7746]}},{"type":"Feature","id":203,"properties":{"name":"ประตูระบายน้ำคลองวัดเจ้าอาม","type":"ประตูระบายน้ำ","district":"เขตบางกอกน้อย","gate level m":"0.2","water control m":"","critical m":"1","warning m":"0.9","@type":"bma","@id":203},"geometry":{"type":"Point","coordinates":[100.4663,13.7786]}},{"type":"Feature","id":204,"properties":{"name":"ประตูระบายน้ำข้างเพลสซิเด้นท์\n คอนโดทาวน์","type":"ประตูระบายน้ำ","district":"เขตบางกอกน้อย","gate level m":"0.5","water control m":"-0.20 ถึง +0.20","critical m":"1","warning m":"0.9","@type":"bma","@id":204},"geometry":{"type":"Point","coordinates":[100.4669,13.7833]}},{"type":"Feature","id":205,"properties":{"name":"ประตูระบายน้ำคลองวัดสุวรรณคีรี","type":"ประตูระบายน้ำ","district":"เขตบางกอกน้อย","gate level m":"0.5","water control m":"-0.20 ถึง +0.20","critical m":"1.1","warning m":"1","@type":"bma","@id":205},"geometry":{"type":"Point","coordinates":[100.4674,13.7811]}},{"type":"Feature","id":206,"properties":{"name":"ประตูระบายน้ำบริเวณข้างคลองพิกุล","type":"ประตูระบายน้ำ","district":"เขตบางกอกน้อย","gate level m":"-","water control m":"-","critical m":"-","warning m":"-","@type":"bma","@id":206},"geometry":{"type":"Point","coordinates":[100.4704,13.7785]}},{"type":"Feature","id":207,"properties":{"name":"ประตูระบายน้ำ\n บริเวณข้างหมู่บ้านพันธุ์ศักดิ์","type":"ประตูระบายน้ำ","district":"เขตบางกอกน้อย","gate level m":"0.2","water control m":"-","critical m":"-","warning m":"-","@type":"bma","@id":207},"geometry":{"type":"Point","coordinates":[100.4709,13.7763]}},{"type":"Feature","id":208,"properties":{"name":"ประตูระบายน้ำคูน้ำข้างวัดนายโรง","type":"ประตูระบายน้ำ","district":"เขตบางกอกน้อย","gate level m":"-","water control m":"-","critical m":"-","warning m":"-","@type":"bma","@id":208},"geometry":{"type":"Point","coordinates":[100.4711,13.7747]}},{"type":"Feature","id":209,"properties":{"name":"ประตูระบายน้ำคลองตราชู","type":"ประตูระบายน้ำ","district":"เขตบางกอกน้อย","gate level m":"-","water control m":"-","critical m":"-","warning m":"-","@type":"bma","@id":209},"geometry":{"type":"Point","coordinates":[100.4694,13.7791]}},{"type":"Feature","id":210,"properties":{"name":"ประตูระบายน้ำคลองพริกป่น","type":"ประตูระบายน้ำ","district":"เขตบางกอกน้อย","gate level m":"-","water control m":"-","critical m":"-","warning m":"-","@type":"bma","@id":210},"geometry":{"type":"Point","coordinates":[100.4724,13.7719]}},{"type":"Feature","id":211,"properties":{"name":"ประตูระบายน้ำคลองข้างพาณิชย์จรัล","type":"ประตูระบายน้ำ","district":"เขตบางกอกน้อย","gate level m":"-","water control m":"","critical m":"1","warning m":"0.9","@type":"bma","@id":211},"geometry":{"type":"Point","coordinates":[100.473,13.7691]}},{"type":"Feature","id":212,"properties":{"name":"ประตูระบายน้ำน้ำดอกไม้","type":"ประตูระบายน้ำ","district":"เขตบางกอกน้อย","gate level m":"0.25","water control m":"","critical m":"0.9","warning m":"0.8","@type":"bma","@id":212},"geometry":{"type":"Point","coordinates":[100.4738,13.7686]}},{"type":"Feature","id":213,"properties":{"name":"ประตูระบายน้ำคลองมะนาว","type":"ประตูระบายน้ำ","district":"เขตบางกอกน้อย","gate level m":"0.25","water control m":"","critical m":"0.9","warning m":"0.8","@type":"bma","@id":213},"geometry":{"type":"Point","coordinates":[100.4741,13.7675]}},{"type":"Feature","id":214,"properties":{"name":"ประตูระบายน้ำคลองต้นไทร","type":"ประตูระบายน้ำ","district":"เขตบางกอกน้อย","gate level m":"0.25","water control m":"0.6","critical m":"0.8","warning m":"0.7","@type":"bma","@id":214},"geometry":{"type":"Point","coordinates":[100.4758,13.7666]}},{"type":"Feature","id":215,"properties":{"name":"ประตูระบายน้ำคลองข้าง ส.คลอง พิณพาทย์ (ชุมชนสันติสงเคราะห์)","type":"ประตูระบายน้ำ","district":"เขตบางกอกน้อย","gate level m":"0.2","water control m":"-","critical m":"-","warning m":"-","@type":"bma","@id":215},"geometry":{"type":"Point","coordinates":[100.4763,13.7656]}},{"type":"Feature","id":216,"properties":{"name":"ประตูระบายน้ำคลองข้าง ส.คลองน้ำตาล (ชุมชนสันติสงเคราะห์)","type":"ประตูระบายน้ำ","district":"เขตบางกอกน้อย","gate level m":"0.2","water control m":"-","critical m":"-","warning m":"-","@type":"bma","@id":216},"geometry":{"type":"Point","coordinates":[100.4783,13.764]}},{"type":"Feature","id":217,"properties":{"name":"ประตูระบายน้ำคลองคราม","type":"ประตูระบายน้ำ","district":"เขตบางกอกน้อย","gate level m":"-","water control m":"","critical m":"1","warning m":"0.9","@type":"bma","@id":217},"geometry":{"type":"Point","coordinates":[100.4808,13.7625]}},{"type":"Feature","id":218,"properties":{"name":"ประตูระบายน้ำแผนกเรือราชพิธี","type":"ประตูระบายน้ำ","district":"เขตบางกอกน้อย","gate level m":"-","water control m":"-","critical m":"-","warning m":"-","@type":"bma","@id":218},"geometry":{"type":"Point","coordinates":[100.4824,13.7621]}},{"type":"Feature","id":219,"properties":{"name":"ประตูระบายน้ำคลองขนมจีน","type":"ประตูระบายน้ำ","district":"เขตบางกอกน้อย","gate level m":"-","water control m":"","critical m":"0.9","warning m":"0.8","@type":"bma","@id":219},"geometry":{"type":"Point","coordinates":[100.4841,13.7619]}},{"type":"Feature","id":220,"properties":{"name":"ประตูระบายน้ำคลองข้าง รร.วัดดุสิต","type":"ประตูระบายน้ำ","district":"เขตบางกอกน้อย","gate level m":"-","water control m":"","critical m":"0.9","warning m":"0.8","@type":"bma","@id":220},"geometry":{"type":"Point","coordinates":[100.488,13.7619]}},{"type":"Feature","id":221,"properties":{"name":"ประตูระบายน้ำคลองเจ้าครุฑ","type":"ประตูระบายน้ำ","district":"เขตบางกอกน้อย","gate level m":"0.2","water control m":"","critical m":"0.9","warning m":"0.8","@type":"bma","@id":221},"geometry":{"type":"Point","coordinates":[100.4905,13.7638]}},{"type":"Feature","id":222,"properties":{"name":"ประตูระบายน้ำคลองวัดดาวดึง","type":"ประตูระบายน้ำ","district":"เขตบางพลัด","gate level m":"0.25","water control m":"","critical m":"0.9","warning m":"0.8","@type":"bma","@id":222},"geometry":{"type":"Point","coordinates":[100.4886,13.7698]}},{"type":"Feature","id":223,"properties":{"name":"ประตูระบายน้ำคลองวัดคฤหบดี","type":"ประตูระบายน้ำ","district":"เขตบางพลัด","gate level m":"0.25","water control m":"","critical m":"0.9","warning m":"0.8","@type":"bma","@id":223},"geometry":{"type":"Point","coordinates":[100.493,13.7658]}},{"type":"Feature","id":224,"properties":{"name":"ประตูระบายน้ำคลองข้างวัดคฤหบดี","type":"ประตูระบายน้ำ","district":"เขตบางพลัด","gate level m":"0.2","water control m":"","critical m":"0.9","warning m":"0.8","@type":"bma","@id":224},"geometry":{"type":"Point","coordinates":[100.4963,13.7727]}},{"type":"Feature","id":225,"properties":{"name":"ประตูระบายน้ำคลองวัดบวรมงคล","type":"ประตูระบายน้ำ","district":"เขตบางพลัด","gate level m":"0.25","water control m":"","critical m":"0.9","warning m":"0.8","@type":"bma","@id":225},"geometry":{"type":"Point","coordinates":[100.4983,13.7756]}},{"type":"Feature","id":226,"properties":{"name":"ประตูระบายน้ำคลองข้างวัดภคคิณี","type":"ประตูระบายน้ำ","district":"เขตบางพลัด","gate level m":"-","water control m":"-","critical m":"-","warning m":"-","@type":"bma","@id":226},"geometry":{"type":"Point","coordinates":[100.4993,13.7785]}},{"type":"Feature","id":227,"properties":{"name":"ประตูระบายน้ำคลองข้าง\n โรงแรมริเวอร์ไซด์ (K6/2)","type":"ประตูระบายน้ำ","district":"เขตบางพลัด","gate level m":"0.2","water control m":"","critical m":"0.9","warning m":"0.8","@type":"bma","@id":227},"geometry":{"type":"Point","coordinates":[100.5005,13.7811]}},{"type":"Feature","id":228,"properties":{"name":"ประตูระบายน้ำคลองข้าง\n โรงแรมรอยัลริเวอร์ (K6/1)","type":"ประตูระบายน้ำ","district":"เขตบางพลัด","gate level m":"0.5","water control m":"","critical m":"0.9","warning m":"0.8","@type":"bma","@id":228},"geometry":{"type":"Point","coordinates":[100.5005,13.783]}},{"type":"Feature","id":229,"properties":{"name":"ประตูระบายน้ำคลอง K5/1","type":"ประตูระบายน้ำ","district":"เขตบางพลัด","gate level m":"-","water control m":"-","critical m":"-","warning m":"-","@type":"bma","@id":229},"geometry":{"type":"Point","coordinates":[100.5058,13.7886]}},{"type":"Feature","id":230,"properties":{"name":"ประตูระบายน้ำคลองวัดเทพนารี","type":"ประตูระบายน้ำ","district":"เขตบางพลัด","gate level m":"0.34","water control m":"","critical m":"1.1","warning m":"1","@type":"bma","@id":230},"geometry":{"type":"Point","coordinates":[100.5016,13.7842]}},{"type":"Feature","id":231,"properties":{"name":"ประตูระบายน้ำบริเวณบางกอกมารีน่าคอนโดและชุมชนข้างวัดเทพากร","type":"ประตูระบายน้ำ","district":"เขตบางพลัด","gate level m":"-","water control m":"-","critical m":"-","warning m":"-","@type":"bma","@id":231},"geometry":{"type":"Point","coordinates":[100.5036,13.7862]}},{"type":"Feature","id":232,"properties":{"name":"ประตูระบายน้ำคลองมอญ","type":"ประตูระบายน้ำ","district":"เขตบางพลัด","gate level m":"-","water control m":"","critical m":"1.1","warning m":"1","@type":"bma","@id":232},"geometry":{"type":"Point","coordinates":[100.5123,13.7969]}},{"type":"Feature","id":233,"properties":{"name":"ประตูระบายน้ำคลอง K 3","type":"ประตูระบายน้ำ","district":"เขตบางพลัด","gate level m":"-","water control m":"","critical m":"1.1","warning m":"1","@type":"bma","@id":233},"geometry":{"type":"Point","coordinates":[100.5157,13.8038]}},{"type":"Feature","id":234,"properties":{"name":"ประตูระบายน้ำคลองเตย","type":"ประตูระบายน้ำ","district":"เขตบางพลัด","gate level m":"-","water control m":"","critical m":"1.1","warning m":"1","@type":"bma","@id":234},"geometry":{"type":"Point","coordinates":[100.5164,13.8049]}},{"type":"Feature","id":235,"properties":{"name":"ประตูระบายน้ำคลองวัดนาคปรก","type":"ประตูระบายน้ำ","district":"เขตภาษีเจริญ","gate level m":"-","water control m":"","critical m":"0.8","warning m":"0.7","@type":"bma","@id":235},"geometry":{"type":"Point","coordinates":[100.4662,13.7166]}},{"type":"Feature","id":236,"properties":{"name":"ประตูระบายน้ำคลองข้างโรงแก้ว","type":"ประตูระบายน้ำ","district":"เขตราษฏร์บูรณะ","gate level m":"0.5","water control m":"0.00 ถึง +0.30","critical m":"0.6","warning m":"0.5","@type":"bma","@id":236},"geometry":{"type":"Point","coordinates":[100.5121,13.682]}},{"type":"Feature","id":237,"properties":{"name":"ประตูระบายน้ำคลองบางบูน","type":"ประตูระบายน้ำ","district":"เขตราษฏร์บูรณะ","gate level m":"1","water control m":"0.00 ถึง +0.30","critical m":"0.6","warning m":"0.5","@type":"bma","@id":237},"geometry":{"type":"Point","coordinates":[100.5139,13.6815]}}]}