{"type":"FeatureCollection","features":[{"type":"Feature","id":18,"properties":{"name":"95.75 MHz Phetchaburi-1","frequency (MHz)":"95.75","callsign":"HSA56A-FM","province":"เพชรบุรี","transmitter":"กรมประชาสัมพันธ์ 95.75 (Phetchaburi-1)","max ERP (kW)":"3.40","antenna height (m)":"80","polarization":"M","remark":"","@type":"nbtc","@id":18},"geometry":{"type":"Point","coordinates":[99.929016,13.104389]}},{"type":"Feature","id":34,"properties":{"name":"87.50 MHz Bangkok -1","frequency (MHz)":"87.50","callsign":"HSA40A-FM","province":"กรุงเทพมหานคร","transmitter":"สนง. เลขาธิการสภาผู้แทนราษฎร 87.5 (Bangkok -1)","max ERP (kW)":"15.20","antenna height (m)":"150","polarization":"M","remark":"","@type":"nbtc","@id":34},"geometry":{"type":"Point","coordinates":[100.539398,13.782814]}},{"type":"Feature","id":35,"properties":{"name":"88.00 MHz Bangkok -2","frequency (MHz)":"88.00","callsign":"HSA40B-FM","province":"กรุงเทพมหานคร","transmitter":"กรมประชาสัมพันธ์ 88 (Bangkok -2)","max ERP (kW)":"20.00","antenna height (m)":"150","polarization":"M","remark":"","@type":"nbtc","@id":35},"geometry":{"type":"Point","coordinates":[100.560234,13.781956]}},{"type":"Feature","id":36,"properties":{"name":"88.50 MHz Bangkok -3","frequency (MHz)":"88.50","callsign":"HSA40C-FM","province":"กรุงเทพมหานคร","transmitter":"กองทัพเรือ 88.5 (Bangkok -3)","max ERP (kW)":"40.00","antenna height (m)":"100","polarization":"M","remark":"","@type":"nbtc","@id":36},"geometry":{"type":"Point","coordinates":[100.480431,13.747107]}},{"type":"Feature","id":37,"properties":{"name":"89.00 MHz Bangkok -4","frequency (MHz)":"89.00","callsign":"HSA40D-FM","province":"กรุงเทพมหานคร","transmitter":"กองทัพบก 89 (Bangkok -4)","max ERP (kW)":"19.10","antenna height (m)":"120","polarization":"V","remark":"","@type":"nbtc","@id":37},"geometry":{"type":"Point","coordinates":[100.480431,13.747107]}},{"type":"Feature","id":38,"properties":{"name":"89.50 MHz Bangkok -5","frequency (MHz)":"89.50","callsign":"HSA40E-FM","province":"กรุงเทพมหานคร","transmitter":"กระทรวงศึกษาธิการ 89.5 (Bangkok -5)","max ERP (kW)":"20.00","antenna height (m)":"120","polarization":"V","remark":"","@type":"nbtc","@id":38},"geometry":{"type":"Point","coordinates":[100.480431,13.747107]}},{"type":"Feature","id":39,"properties":{"name":"90.00 MHz Bangkok -6","frequency (MHz)":"90.00","callsign":"HSA40F-FM","province":"กรุงเทพมหานคร","transmitter":"กองทัพบก 90 (Bangkok -6)","max ERP (kW)":"32.60","antenna height (m)":"120","polarization":"M","remark":"","@type":"nbtc","@id":39},"geometry":{"type":"Point","coordinates":[100.508705,13.768141]}},{"type":"Feature","id":40,"properties":{"name":"90.50 MHz Bangkok -7","frequency (MHz)":"90.50","callsign":"HSA40G-FM","province":"กรุงเทพมหานคร","transmitter":"สำนักงานปลัดกระทรวงกลาโหม 90.5 (Bangkok -7)","max ERP (kW)":"14.00","antenna height (m)":"124","polarization":"M","remark":"","@type":"nbtc","@id":40},"geometry":{"type":"Point","coordinates":[100.601028,13.689333]}},{"type":"Feature","id":41,"properties":{"name":"91.00 MHz Bangkok -8","frequency (MHz)":"91.00","callsign":"HSA40H-FM","province":"กรุงเทพมหานคร","transmitter":"สำนักงานตำรวจแห่งชาติ 91 (Bangkok -8)","max ERP (kW)":"18.20","antenna height (m)":"120","polarization":"M","remark":"","@type":"nbtc","@id":41},"geometry":{"type":"Point","coordinates":[100.572029,13.83816]}},{"type":"Feature","id":42,"properties":{"name":"91.50 MHz Bangkok -9","frequency (MHz)":"91.50","callsign":"HSA40I-FM","province":"กรุงเทพมหานคร","transmitter":"กองทัพบก 91.5 (Bangkok -9)","max ERP (kW)":"32.60","antenna height (m)":"120","polarization":"M","remark":"","@type":"nbtc","@id":42},"geometry":{"type":"Point","coordinates":[100.526634,13.790226]}},{"type":"Feature","id":43,"properties":{"name":"92.00 MHz Bangkok -10","frequency (MHz)":"92.00","callsign":"HSA40J-FM","province":"กรุงเทพมหานคร","transmitter":"กระทรวงศึกษาธิการ 92 (Bangkok -10)","max ERP (kW)":"18.80","antenna height (m)":"120","polarization":"V","remark":"","@type":"nbtc","@id":43},"geometry":{"type":"Point","coordinates":[100.531105,13.758782]}},{"type":"Feature","id":44,"properties":{"name":"92.50 MHz Bangkok -11","frequency (MHz)":"92.50","callsign":"HSA40K-FM","province":"กรุงเทพมหานคร","transmitter":"กรมประชาสัมพันธ์ 92.5 (Bangkok -11)","max ERP (kW)":"40.00","antenna height (m)":"150","polarization":"M","remark":"","@type":"nbtc","@id":44},"geometry":{"type":"Point","coordinates":[100.560234,13.781956]}},{"type":"Feature","id":45,"properties":{"name":"93.00 MHz Bangkok -12","frequency (MHz)":"93.00","callsign":"HSA40L-FM","province":"กรุงเทพมหานคร","transmitter":"กองทัพเรือ 93 (Bangkok -12)","max ERP (kW)":"40.00","antenna height (m)":"100","polarization":"M","remark":"","@type":"nbtc","@id":45},"geometry":{"type":"Point","coordinates":[100.480431,13.747107]}},{"type":"Feature","id":46,"properties":{"name":"93.50 MHz Bangkok -13","frequency (MHz)":"93.50","callsign":"HSA40M-FM","province":"กรุงเทพมหานคร","transmitter":"กรมประชาสัมพันธ์ 93.5 (Bangkok -13)","max ERP (kW)":"20.00","antenna height (m)":"150","polarization":"M","remark":"","@type":"nbtc","@id":46},"geometry":{"type":"Point","coordinates":[100.560234,13.781956]}},{"type":"Feature","id":47,"properties":{"name":"94.00 MHz Bangkok -14","frequency (MHz)":"94.00","callsign":"HSA40N-FM","province":"กรุงเทพมหานคร","transmitter":"กองทัพบก 94 (Bangkok -14)","max ERP (kW)":"40.00","antenna height (m)":"125","polarization":"M","remark":"","@type":"nbtc","@id":47},"geometry":{"type":"Point","coordinates":[100.56221,13.788541]}},{"type":"Feature","id":48,"properties":{"name":"94.50 MHz Bangkok -15","frequency (MHz)":"94.50","callsign":"HSA40O-FM","province":"กรุงเทพมหานคร","transmitter":"กองทัพบก 94.5 (Bangkok -15)","max ERP (kW)":"9.20","antenna height (m)":"120","polarization":"V","remark":"","@type":"nbtc","@id":48},"geometry":{"type":"Point","coordinates":[100.526688,13.790185]}},{"type":"Feature","id":49,"properties":{"name":"95.00 MHz Bangkok -16","frequency (MHz)":"95.00","callsign":"HSA40P-FM","province":"กรุงเทพมหานคร","transmitter":"บมจ. อสมท 95 (Bangkok -16)","max ERP (kW)":"20.00","antenna height (m)":"126","polarization":"M","remark":"","@type":"nbtc","@id":49},"geometry":{"type":"Point","coordinates":[100.635666,13.780812]}},{"type":"Feature","id":50,"properties":{"name":"95.50 MHz Bangkok -17","frequency (MHz)":"95.50","callsign":"HSA40Q-FM","province":"กรุงเทพมหานคร","transmitter":"กรมประชาสัมพันธ์ 95.5 (Bangkok -17)","max ERP (kW)":"20.00","antenna height (m)":"150","polarization":"M","remark":"","@type":"nbtc","@id":50},"geometry":{"type":"Point","coordinates":[100.560234,13.781956]}},{"type":"Feature","id":51,"properties":{"name":"96.00 MHz Bangkok -18","frequency (MHz)":"96.00","callsign":"HSA40R-FM","province":"กรุงเทพมหานคร","transmitter":"กองทัพบก 96 (Bangkok -18)","max ERP (kW)":"19.10","antenna height (m)":"105","polarization":"V","remark":"","@type":"nbtc","@id":51},"geometry":{"type":"Point","coordinates":[100.494881,13.745797]}},{"type":"Feature","id":52,"properties":{"name":"96.50 MHz Bangkok -19","frequency (MHz)":"96.50","callsign":"HSA40S-FM","province":"กรุงเทพมหานคร","transmitter":"บมจ. อสมท 96.5 (Bangkok -19)","max ERP (kW)":"20.00","antenna height (m)":"126","polarization":"M","remark":"","@type":"nbtc","@id":52},"geometry":{"type":"Point","coordinates":[100.635666,13.780812]}},{"type":"Feature","id":53,"properties":{"name":"97.00 MHz Bangkok -20","frequency (MHz)":"97.00","callsign":"HSA40T-FM","province":"กรุงเทพมหานคร","transmitter":"กรมประชาสัมพันธ์ 97 (Bangkok -20)","max ERP (kW)":"20.00","antenna height (m)":"150","polarization":"M","remark":"","@type":"nbtc","@id":53},"geometry":{"type":"Point","coordinates":[100.560234,13.781956]}},{"type":"Feature","id":54,"properties":{"name":"97.50 MHz Bangkok -21","frequency (MHz)":"97.50","callsign":"HSA40U-FM","province":"กรุงเทพมหานคร","transmitter":"บมจ. อสมท 97.5 (Bangkok -21)","max ERP (kW)":"20.00","antenna height (m)":"126","polarization":"M","remark":"","@type":"nbtc","@id":54},"geometry":{"type":"Point","coordinates":[100.635666,13.780812]}},{"type":"Feature","id":55,"properties":{"name":"98.00 MHz Bangkok -22","frequency (MHz)":"98.00","callsign":"HSA40V-FM","province":"กรุงเทพมหานคร","transmitter":"กองทัพบก 98 (Bangkok -22)","max ERP (kW)":"21.60","antenna height (m)":"120","polarization":"M","remark":"","@type":"nbtc","@id":55},"geometry":{"type":"Point","coordinates":[100.542114,13.712779]}},{"type":"Feature","id":56,"properties":{"name":"98.50 MHz Bangkok -23","frequency (MHz)":"98.50","callsign":"HSA40W-FM","province":"กรุงเทพมหานคร","transmitter":"บริษัท ลูกทุ่งเน็ตเวิร์ค 24 ชั่วโมง จำกัด  98.5 (Bangkok -23)","max ERP (kW)":"7.20","antenna height (m)":"110","polarization":"M","remark":"","@type":"nbtc","@id":56},"geometry":{"type":"Point","coordinates":[100.56221,13.78857]}},{"type":"Feature","id":57,"properties":{"name":"99.00 MHz Bangkok -24","frequency (MHz)":"99.00","callsign":"HSA40X-FM","province":"กรุงเทพมหานคร","transmitter":"บมจ. อสมท 99 (Bangkok -24)","max ERP (kW)":"19.80","antenna height (m)":"126","polarization":"M","remark":"","@type":"nbtc","@id":57},"geometry":{"type":"Point","coordinates":[100.635666,13.780812]}},{"type":"Feature","id":58,"properties":{"name":"99.50 MHz Bangkok -25","frequency (MHz)":"99.50","callsign":"HSA40Y-FM","province":"กรุงเทพมหานคร","transmitter":"กองบัญชาการกองทัพไทย 99.5 (Bangkok -25)","max ERP (kW)":"18.20","antenna height (m)":"103","polarization":"M","remark":"","@type":"nbtc","@id":58},"geometry":{"type":"Point","coordinates":[100.600052,13.84885]}},{"type":"Feature","id":59,"properties":{"name":"100.00 MHz Bangkok -26","frequency (MHz)":"100.00","callsign":"HSA40Z-FM","province":"กรุงเทพมหานคร","transmitter":"กองทัพบก 100 (Bangkok -26)","max ERP (kW)":"9.00","antenna height (m)":"120","polarization":"V","remark":"","@type":"nbtc","@id":59},"geometry":{"type":"Point","coordinates":[100.526688,13.790185]}},{"type":"Feature","id":60,"properties":{"name":"100.50 MHz Bangkok -27","frequency (MHz)":"100.50","callsign":"HSB40A-FM","province":"กรุงเทพมหานคร","transmitter":"บมจ. อสมท 100.5 (Bangkok -27)","max ERP (kW)":"20.00","antenna height (m)":"126","polarization":"M","remark":"","@type":"nbtc","@id":60},"geometry":{"type":"Point","coordinates":[100.635666,13.780812]}},{"type":"Feature","id":61,"properties":{"name":"101.00 MHz Bangkok -28","frequency (MHz)":"101.00","callsign":"HSB40B-FM","province":"กรุงเทพมหานคร","transmitter":"กองบัญชาการกองทัพไทย 101 (Bangkok -28)","max ERP (kW)":"9.20","antenna height (m)":"103","polarization":"M","remark":"","@type":"nbtc","@id":61},"geometry":{"type":"Point","coordinates":[100.600052,13.84885]}},{"type":"Feature","id":62,"properties":{"name":"101.50 MHz Bangkok -29","frequency (MHz)":"101.50","callsign":"HSB40C-FM","province":"กรุงเทพมหานคร","transmitter":"สำนักงานคณะกรรมการการอุดมศึกษา (ทบวงมหาวิทยาลัย) 101.5 (Bangkok -29)","max ERP (kW)":"14.10","antenna height (m)":"150","polarization":"V","remark":"","@type":"nbtc","@id":62},"geometry":{"type":"Point","coordinates":[100.526443,13.74205]}},{"type":"Feature","id":63,"properties":{"name":"102.00 MHz Bangkok -30","frequency (MHz)":"102.00","callsign":"HSB40D-FM","province":"กรุงเทพมหานคร","transmitter":"กองทัพบก 102 (Bangkok -30)","max ERP (kW)":"9.40","antenna height (m)":"100","polarization":"V","remark":"","@type":"nbtc","@id":63},"geometry":{"type":"Point","coordinates":[100.52916,13.79019]}},{"type":"Feature","id":64,"properties":{"name":"102.50 MHz Bangkok -31","frequency (MHz)":"102.50","callsign":"HSB40E-FM","province":"กรุงเทพมหานคร","transmitter":"กองทัพอากาศ 102.5 (Bangkok -31)","max ERP (kW)":"5.00","antenna height (m)":"90","polarization":"M","remark":"","@type":"nbtc","@id":64},"geometry":{"type":"Point","coordinates":[100.546761,13.753113]}},{"type":"Feature","id":65,"properties":{"name":"103.00 MHz Bangkok -32","frequency (MHz)":"103.00","callsign":"HSB40F-FM","province":"กรุงเทพมหานคร","transmitter":"กองทัพบก 103 (Bangkok -32)","max ERP (kW)":"15.10","antenna height (m)":"120","polarization":"V","remark":"","@type":"nbtc","@id":65},"geometry":{"type":"Point","coordinates":[100.526688,13.790185]}},{"type":"Feature","id":66,"properties":{"name":"103.50 MHz Bangkok -33","frequency (MHz)":"103.50","callsign":"HSB40G-FM","province":"กรุงเทพมหานคร","transmitter":"กองทัพบก 103.5 (Bangkok -33)","max ERP (kW)":"16.40","antenna height (m)":"120","polarization":"M","remark":"","@type":"nbtc","@id":66},"geometry":{"type":"Point","coordinates":[100.56221,13.788541]}},{"type":"Feature","id":67,"properties":{"name":"104.00 MHz Bangkok -34","frequency (MHz)":"104.00","callsign":"HSB40H-FM","province":"กรุงเทพมหานคร","transmitter":"กรมประชาสัมพันธ์ (สำนักพระราชวัง) 104 (Bangkok -34)","max ERP (kW)":"40.00","antenna height (m)":"75","polarization":"M","remark":"","@type":"nbtc","@id":67},"geometry":{"type":"Point","coordinates":[100.533371,13.7337]}},{"type":"Feature","id":68,"properties":{"name":"104.50 MHz Bangkok -35","frequency (MHz)":"104.50","callsign":"HSB40I-FM","province":"กรุงเทพมหานคร","transmitter":"กองทัพบก 104.5 (Bangkok -35)","max ERP (kW)":"16.90","antenna height (m)":"100","polarization":"V","remark":"","@type":"nbtc","@id":68},"geometry":{"type":"Point","coordinates":[100.521835,13.798151]}},{"type":"Feature","id":69,"properties":{"name":"105.00 MHz Bangkok -36","frequency (MHz)":"105.00","callsign":"HSB40J-FM","province":"กรุงเทพมหานคร","transmitter":"กรมประชาสัมพันธ์ 105 (Bangkok -36)","max ERP (kW)":"19.80","antenna height (m)":"150","polarization":"M","remark":"","@type":"nbtc","@id":69},"geometry":{"type":"Point","coordinates":[100.560234,13.781956]}},{"type":"Feature","id":70,"properties":{"name":"105.50 MHz Bangkok -37","frequency (MHz)":"105.50","callsign":"HSB40K-FM","province":"กรุงเทพมหานคร","transmitter":"บมจ. อสมท 105.5 (Bangkok -37)","max ERP (kW)":"20.00","antenna height (m)":"126","polarization":"M","remark":"","@type":"nbtc","@id":70},"geometry":{"type":"Point","coordinates":[100.635666,13.780812]}},{"type":"Feature","id":71,"properties":{"name":"106.00 MHz Bangkok -38","frequency (MHz)":"106.00","callsign":"HSB40L-FM","province":"กรุงเทพมหานคร","transmitter":"กองทัพเรือ 106 (Bangkok -38)","max ERP (kW)":"40.00","antenna height (m)":"100","polarization":"M","remark":"","@type":"nbtc","@id":71},"geometry":{"type":"Point","coordinates":[100.480431,13.747107]}},{"type":"Feature","id":72,"properties":{"name":"106.50 MHz Bangkok -39","frequency (MHz)":"106.50","callsign":"HSB40M-FM","province":"กรุงเทพมหานคร","transmitter":"บริษัท จีเอ็มเอ็ม มีเดีย จำกัด (มหาชน) 106.5 (Bangkok -39)","max ERP (kW)":"31.00","antenna height (m)":"110","polarization":"M","remark":"","@type":"nbtc","@id":72},"geometry":{"type":"Point","coordinates":[100.56221,13.788541]}},{"type":"Feature","id":73,"properties":{"name":"107.00 MHz Bangkok -40","frequency (MHz)":"107.00","callsign":"HSB40N-FM","province":"กรุงเทพมหานคร","transmitter":"บมจ. อสมท 107 (Bangkok -40)","max ERP (kW)":"20.00","antenna height (m)":"126","polarization":"M","remark":"","@type":"nbtc","@id":73},"geometry":{"type":"Point","coordinates":[100.635666,13.780812]}},{"type":"Feature","id":76,"properties":{"name":"92.75 MHz Kanchanaburi-1","frequency (MHz)":"92.75","callsign":"HSA50A-FM","province":"กาญจนบุรี","transmitter":"กองทัพบก 92.75 (Kanchanaburi-1)","max ERP (kW)":"0.70","antenna height (m)":"120","polarization":"V","remark":"","@type":"nbtc","@id":76},"geometry":{"type":"Point","coordinates":[99.585167,14.043193]}},{"type":"Feature","id":78,"properties":{"name":"97.75 MHz Kanchanaburi-3","frequency (MHz)":"97.75","callsign":"HSA50C-FM","province":"กาญจนบุรี","transmitter":"สำนักงานตำรวจแห่งชาติ 97.75 (Kanchanaburi-3)","max ERP (kW)":"1.80","antenna height (m)":"100","polarization":"M","remark":"","@type":"nbtc","@id":78},"geometry":{"type":"Point","coordinates":[99.412643,14.068111]}},{"type":"Feature","id":79,"properties":{"name":"106.25 MHz Kanchanaburi-4","frequency (MHz)":"106.25","callsign":"HSA50D-FM","province":"กาญจนบุรี","transmitter":"สนง. เลขาธิการสภาผู้แทนราษฎร 106.25 (Kanchanaburi-4)","max ERP (kW)":"2.80","antenna height (m)":"80","polarization":"M","remark":"","@type":"nbtc","@id":79},"geometry":{"type":"Point","coordinates":[99.486923,14.063353]}},{"type":"Feature","id":80,"properties":{"name":"107.25 MHz Kanchanaburi-5","frequency (MHz)":"107.25","callsign":"HSA50E-FM","province":"กาญจนบุรี","transmitter":"บมจ. อสมท 107.25 (Kanchanaburi-5)","max ERP (kW)":"3.00","antenna height (m)":"120","polarization":"M","remark":"","@type":"nbtc","@id":80},"geometry":{"type":"Point","coordinates":[99.794373,13.90504]}},{"type":"Feature","id":95,"properties":{"name":"88.75 MHz Chanthaburi-1","frequency (MHz)":"88.75","callsign":"HSA48A-FM","province":"จันทบุรี","transmitter":"กองทัพเรือ 88.75 (Chanthaburi-1)","max ERP (kW)":"8.00","antenna height (m)":"100","polarization":"M","remark":"","@type":"nbtc","@id":95},"geometry":{"type":"Point","coordinates":[102.098152,12.607603]}},{"type":"Feature","id":96,"properties":{"name":"90.25 MHz Chanthaburi-2","frequency (MHz)":"90.25","callsign":"HSA48B-FM","province":"จันทบุรี","transmitter":"กรมประชาสัมพันธ์ 90.25 (Chanthaburi-2)","max ERP (kW)":"3.80","antenna height (m)":"80","polarization":"M","remark":"","@type":"nbtc","@id":96},"geometry":{"type":"Point","coordinates":[102.10244,12.608329]}},{"type":"Feature","id":97,"properties":{"name":"93.25 MHz Chanthaburi-3","frequency (MHz)":"93.25","callsign":"HSA48C-FM","province":"จันทบุรี","transmitter":"กองทัพอากาศ 93.25 (Chanthaburi-3)","max ERP (kW)":"2.20","antenna height (m)":"62","polarization":"M","remark":"","@type":"nbtc","@id":97},"geometry":{"type":"Point","coordinates":[102.090469,12.59196]}},{"type":"Feature","id":98,"properties":{"name":"95.25 MHz Chanthaburi-4","frequency (MHz)":"95.25","callsign":"HSA48D-FM","province":"จันทบุรี","transmitter":"บมจ. อสมท 95.25 (Chanthaburi-4)","max ERP (kW)":"4.00","antenna height (m)":"120","polarization":"M","remark":"","@type":"nbtc","@id":98},"geometry":{"type":"Point","coordinates":[102.090828,12.6589]}},{"type":"Feature","id":99,"properties":{"name":"98.25 MHz Chon Buri-1","frequency (MHz)":"98.25","callsign":"HSA46A-FM","province":"ชลบุรี","transmitter":"กองทัพบก 98.25 (Chon Buri-1)","max ERP (kW)":"2.80","antenna height (m)":"55","polarization":"M","remark":"","@type":"nbtc","@id":99},"geometry":{"type":"Point","coordinates":[100.995773,13.39375]}},{"type":"Feature","id":100,"properties":{"name":"99.75 MHz Chon Buri-2","frequency (MHz)":"99.75","callsign":"HSA46B-FM","province":"ชลบุรี","transmitter":"กรมประชาสัมพันธ์ 99.75 (Chon Buri-2)","max ERP (kW)":"3.20","antenna height (m)":"60","polarization":"M","remark":"","@type":"nbtc","@id":100},"geometry":{"type":"Point","coordinates":[100.950554,13.189833]}},{"type":"Feature","id":101,"properties":{"name":"104.75 MHz Chon Buri-3","frequency (MHz)":"104.75","callsign":"HSA46C-FM","province":"ชลบุรี","transmitter":"กองทัพเรือ 104.75 (Chon Buri-3)","max ERP (kW)":"7.40","antenna height (m)":"34","polarization":"M","remark":"","@type":"nbtc","@id":101},"geometry":{"type":"Point","coordinates":[100.866272,12.921483]}},{"type":"Feature","id":102,"properties":{"name":"107.75 MHz Chon Buri-4","frequency (MHz)":"107.75","callsign":"HSA46D-FM","province":"ชลบุรี","transmitter":"บมจ. อสมท 107.75 (Chon Buri-4)","max ERP (kW)":"4.00","antenna height (m)":"120","polarization":"M","remark":"","@type":"nbtc","@id":102},"geometry":{"type":"Point","coordinates":[100.949577,13.190732]}},{"type":"Feature","id":103,"properties":{"name":"91.75 MHz Chai Nat-1","frequency (MHz)":"91.75","callsign":"HSA32A-FM","province":"ชัยนาท","transmitter":"กรมประชาสัมพันธ์ 91.75 (Chai Nat-1)","max ERP (kW)":"2.60","antenna height (m)":"45","polarization":"M","remark":"","@type":"nbtc","@id":103},"geometry":{"type":"Point","coordinates":[100.140434,15.206798]}},{"type":"Feature","id":104,"properties":{"name":"96.25 MHz Chai Nat-2","frequency (MHz)":"96.25","callsign":"HSA32B-FM","province":"ชัยนาท","transmitter":"สนง. เลขาธิการสภาผู้แทนราษฎร 96.25 (Chai Nat-2)","max ERP (kW)":"3.20","antenna height (m)":"39","polarization":"M","remark":"","@type":"nbtc","@id":104},"geometry":{"type":"Point","coordinates":[100.140434,15.206798]}},{"type":"Feature","id":118,"properties":{"name":"92.75 MHz Trat-1","frequency (MHz)":"92.75","callsign":"HSA49A-FM","province":"ตราด","transmitter":"กรมประชาสัมพันธ์ 92.75 (Trat-1)","max ERP (kW)":"4.00","antenna height (m)":"100","polarization":"M","remark":"","@type":"nbtc","@id":118},"geometry":{"type":"Point","coordinates":[102.511276,12.22933]}},{"type":"Feature","id":119,"properties":{"name":"93.75 MHz Trat-2","frequency (MHz)":"93.75","callsign":"HSA49B-FM","province":"ตราด","transmitter":"กองทัพเรือ 93.75 (Trat-2)","max ERP (kW)":"8.00","antenna height (m)":"100","polarization":"M","remark":"","@type":"nbtc","@id":119},"geometry":{"type":"Point","coordinates":[102.443893,12.364105]}},{"type":"Feature","id":120,"properties":{"name":"107.25 MHz Trat-3","frequency (MHz)":"107.25","callsign":"HSA49C-FM","province":"ตราด","transmitter":"บมจ. อสมท 107.25 (Trat-3)","max ERP (kW)":"3.60","antenna height (m)":"120","polarization":"M","remark":"","@type":"nbtc","@id":120},"geometry":{"type":"Point","coordinates":[102.445923,12.37055]}},{"type":"Feature","id":125,"properties":{"name":"89.75 MHz Nakhon Nayok-1","frequency (MHz)":"89.75","callsign":"HSA43A-FM","province":"นครนายก","transmitter":"กองทัพบก 89.75 (Nakhon Nayok-1)","max ERP (kW)":"3.60","antenna height (m)":"116","polarization":"M","remark":"","@type":"nbtc","@id":125},"geometry":{"type":"Point","coordinates":[101.163658,14.279112]}},{"type":"Feature","id":130,"properties":{"name":"87.50 MHz Nakhon Ratchasima-1","frequency (MHz)":"87.50","callsign":"HSA27A-FM","province":"นครราชสีมา","transmitter":"สนง. เลขาธิการสภาผู้แทนราษฎร 87.5 (Nakhon Ratchasima-1)","max ERP (kW)":"0.80","antenna height (m)":"86","polarization":"M","remark":"","@type":"nbtc","@id":130},"geometry":{"type":"Point","coordinates":[101.997002,14.93725]}},{"type":"Feature","id":131,"properties":{"name":"89.25 MHz Nakhon Ratchasima-2","frequency (MHz)":"89.25","callsign":"HSA27B-FM","province":"นครราชสีมา","transmitter":"สำนักงานตำรวจแห่งชาติ 89.25 (Nakhon Ratchasima-2)","max ERP (kW)":"1.60","antenna height (m)":"110","polarization":"M","remark":"","@type":"nbtc","@id":131},"geometry":{"type":"Point","coordinates":[102.135391,14.951201]}},{"type":"Feature","id":132,"properties":{"name":"94.25 MHz Nakhon Ratchasima-3","frequency (MHz)":"94.25","callsign":"HSA27D-FM","province":"นครราชสีมา","transmitter":"กรมอุตุนิยมวิทยา 94.25 (Nakhon Ratchasima-3)","max ERP (kW)":"3.60","antenna height (m)":"110","polarization":"M","remark":"","@type":"nbtc","@id":132},"geometry":{"type":"Point","coordinates":[102.082306,14.969908]}},{"type":"Feature","id":133,"properties":{"name":"95.75 MHz Nakhon Ratchasima-4","frequency (MHz)":"95.75","callsign":"HSA27E-FM","province":"นครราชสีมา","transmitter":"บมจ. อสมท 95.75 (Nakhon Ratchasima-4)","max ERP (kW)":"3.20","antenna height (m)":"120","polarization":"M","remark":"","@type":"nbtc","@id":133},"geometry":{"type":"Point","coordinates":[102.202568,15.0662]}},{"type":"Feature","id":134,"properties":{"name":"90.50 MHz Nakhon Ratchasima-5","frequency (MHz)":"90.50","callsign":"HSA27C-FM","province":"นครราชสีมา","transmitter":"กองทัพอากาศ 90.5 (Nakhon Ratchasima-5)","max ERP (kW)":"1.00","antenna height (m)":"100","polarization":"M","remark":"","@type":"nbtc","@id":134},"geometry":{"type":"Point","coordinates":[102.075638,14.98175]}},{"type":"Feature","id":135,"properties":{"name":"105.25 MHz Nakhon Ratchasima-6","frequency (MHz)":"105.25","callsign":"HSA27F-FM","province":"นครราชสีมา","transmitter":"กรมประชาสัมพันธ์ 105.25 (Nakhon Ratchasima-6)","max ERP (kW)":"2.60","antenna height (m)":"110","polarization":"M","remark":"","@type":"nbtc","@id":135},"geometry":{"type":"Point","coordinates":[101.997002,14.93725]}},{"type":"Feature","id":136,"properties":{"name":"106.25 MHz Nakhon Ratchasima-7","frequency (MHz)":"106.25","callsign":"HSA27G-FM","province":"นครราชสีมา","transmitter":"บริษัท ลูกทุ่งเน็ตเวิร์ค 24 ชั่วโมง จำกัด  106.25 (Nakhon Ratchasima-7)","max ERP (kW)":"5.00","antenna height (m)":"40","polarization":"M","remark":"","@type":"nbtc","@id":136},"geometry":{"type":"Point","coordinates":[101.547729,14.787428]}},{"type":"Feature","id":137,"properties":{"name":"107.25 MHz Nakhon Ratchasima-8","frequency (MHz)":"107.25","callsign":"HSA27H-FM","province":"นครราชสีมา","transmitter":"กองทัพบก 107.25 (Nakhon Ratchasima-8)","max ERP (kW)":"3.40","antenna height (m)":"110","polarization":"M","remark":"","@type":"nbtc","@id":137},"geometry":{"type":"Point","coordinates":[102.095726,14.965025]}},{"type":"Feature","id":144,"properties":{"name":"95.25 MHz Nakhon Sawan-2","frequency (MHz)":"95.25","callsign":"HSA16B-FM","province":"นครสวรรค์","transmitter":"กองทัพอากาศ 95.25 (Nakhon Sawan-2)","max ERP (kW)":"3.00","antenna height (m)":"30","polarization":"M","remark":"","@type":"nbtc","@id":144},"geometry":{"type":"Point","coordinates":[100.309937,15.25714]}},{"type":"Feature","id":163,"properties":{"name":"91.25 MHz Prachuap Khiri Khan-2","frequency (MHz)":"91.25","callsign":"HSA57B-FM","province":"ประจวบคีรีขันธ์","transmitter":"กองทัพอากาศ 91.25 (Prachuap Khiri Khan-2)","max ERP (kW)":"1.60","antenna height (m)":"21","polarization":"M","remark":"","@type":"nbtc","@id":163},"geometry":{"type":"Point","coordinates":[99.946114,12.564714]}},{"type":"Feature","id":164,"properties":{"name":"96.25 MHz Prachuap Khiri Khan-3","frequency (MHz)":"96.25","callsign":"HSA57C-FM","province":"ประจวบคีรีขันธ์","transmitter":"กองทัพบก 96.25 (Prachuap Khiri Khan-3)","max ERP (kW)":"3.00","antenna height (m)":"120","polarization":"M","remark":"","@type":"nbtc","@id":164},"geometry":{"type":"Point","coordinates":[99.922951,12.407978]}},{"type":"Feature","id":165,"properties":{"name":"98.75 MHz Prachuap Khiri Khan-4","frequency (MHz)":"98.75","callsign":"HSA57D-FM","province":"ประจวบคีรีขันธ์","transmitter":"บริษัท ลูกทุ่งเน็ตเวิร์ค 24 ชั่วโมง จำกัด  98.75 (Prachuap Khiri Khan-4)","max ERP (kW)":"4.00","antenna height (m)":"30","polarization":"M","remark":"","@type":"nbtc","@id":165},"geometry":{"type":"Point","coordinates":[99.935471,12.564443]}},{"type":"Feature","id":169,"properties":{"name":"88.25 MHz Prachin Buri-1","frequency (MHz)":"88.25","callsign":"HSA74A-FM","province":"ปราจีนบุรี","transmitter":"กองทัพบก 88.25 (Prachin Buri-1)","max ERP (kW)":"3.20","antenna height (m)":"73","polarization":"M","remark":"","@type":"nbtc","@id":169},"geometry":{"type":"Point","coordinates":[101.373741,14.141167]}},{"type":"Feature","id":229,"properties":{"name":"87.75 MHz Rayong-1","frequency (MHz)":"87.75","callsign":"HSA47A-FM","province":"ระยอง","transmitter":"สนง. เลขาธิการสภาผู้แทนราษฎร 87.75 (Rayong-1)","max ERP (kW)":"3.60","antenna height (m)":"54","polarization":"M","remark":"","@type":"nbtc","@id":229},"geometry":{"type":"Point","coordinates":[101.412743,12.67653]}},{"type":"Feature","id":230,"properties":{"name":"91.75 MHz Rayong-2","frequency (MHz)":"91.75","callsign":"HSA47B-FM","province":"ระยอง","transmitter":"กรมประชาสัมพันธ์ 91.75 (Rayong-2)","max ERP (kW)":"20.00","antenna height (m)":"50","polarization":"M","remark":"","@type":"nbtc","@id":230},"geometry":{"type":"Point","coordinates":[101.412743,12.67653]}},{"type":"Feature","id":231,"properties":{"name":"96.75 MHz Rayong-3","frequency (MHz)":"96.75","callsign":"HSA47C-FM","province":"ระยอง","transmitter":"บมจ. อสมท 96.75 (Rayong-3)","max ERP (kW)":"3.40","antenna height (m)":"120","polarization":"M","remark":"","@type":"nbtc","@id":231},"geometry":{"type":"Point","coordinates":[101.411888,12.67428]}},{"type":"Feature","id":232,"properties":{"name":"100.75 MHz Rayong-4","frequency (MHz)":"100.75","callsign":"HSA47D-FM","province":"ระยอง","transmitter":"กรมประมง 100.75 (Rayong-4)","max ERP (kW)":"3.20","antenna height (m)":"96","polarization":"M","remark":"","@type":"nbtc","@id":232},"geometry":{"type":"Point","coordinates":[101.421303,12.60697]}},{"type":"Feature","id":233,"properties":{"name":"102.75 MHz Rayong-5","frequency (MHz)":"102.75","callsign":"HSA47E-FM","province":"ระยอง","transmitter":"สำนักงานตำรวจแห่งชาติ 102.75 (Rayong-5)","max ERP (kW)":"1.60","antenna height (m)":"90","polarization":"M","remark":"","@type":"nbtc","@id":233},"geometry":{"type":"Point","coordinates":[101.212036,12.689561]}},{"type":"Feature","id":234,"properties":{"name":"105.25 MHz Rayong-6","frequency (MHz)":"105.25","callsign":"HSA47F-FM","province":"ระยอง","transmitter":"กรมอุตุนิยมวิทยา 105.25 (Rayong-6)","max ERP (kW)":"3.20","antenna height (m)":"90","polarization":"M","remark":"","@type":"nbtc","@id":234},"geometry":{"type":"Point","coordinates":[101.340508,12.63357]}},{"type":"Feature","id":235,"properties":{"name":"99.25 MHz Ratchaburi-1","frequency (MHz)":"99.25","callsign":"HSA52A-FM","province":"ราชบุรี","transmitter":"กองทัพบก 99.25 (Ratchaburi-1)","max ERP (kW)":"4.40","antenna height (m)":"115","polarization":"M","remark":"","@type":"nbtc","@id":235},"geometry":{"type":"Point","coordinates":[99.787827,13.47313]}},{"type":"Feature","id":236,"properties":{"name":"98.75 MHz Lop Buri-1","frequency (MHz)":"98.75","callsign":"HSA34A-FM","province":"ลพบุรี","transmitter":"กองทัพบก 98.75 (Lop Buri-1)","max ERP (kW)":"3.00","antenna height (m)":"100","polarization":"V","remark":"","@type":"nbtc","@id":236},"geometry":{"type":"Point","coordinates":[100.642677,14.800597]}},{"type":"Feature","id":267,"properties":{"name":"107.50 MHz Samut Songkhram-1","frequency (MHz)":"107.50","callsign":"HSA54A-FM","province":"สมุทรสงคราม","transmitter":"กรมเจ้าท่า 107.5 (Samut Songkhram-1)","max ERP (kW)":"3.20","antenna height (m)":"100","polarization":"M","remark":"","@type":"nbtc","@id":267},"geometry":{"type":"Point","coordinates":[100.001236,13.414196]}},{"type":"Feature","id":268,"properties":{"name":"103.25 MHz Sa Kaeo-1","frequency (MHz)":"103.25","callsign":"HSA80A-FM","province":"สระแก้ว","transmitter":"กรมประชาสัมพันธ์ 103.25 (Sa Kaeo-1)","max ERP (kW)":"4.00","antenna height (m)":"100","polarization":"M","remark":"","@type":"nbtc","@id":268},"geometry":{"type":"Point","coordinates":[102.071518,13.824293]}},{"type":"Feature","id":269,"properties":{"name":"91.25 MHz Sing Buri-1","frequency (MHz)":"91.25","callsign":"HSA33A-FM","province":"สิงห์บุรี","transmitter":"บมจ. อสมท 91.25 (Sing Buri-1)","max ERP (kW)":"2.20","antenna height (m)":"150","polarization":"M","remark":"","@type":"nbtc","@id":269},"geometry":{"type":"Point","coordinates":[100.427994,14.962697]}},{"type":"Feature","id":273,"properties":{"name":"102.25 MHz Suphan Buri-1","frequency (MHz)":"102.25","callsign":"HSA51A-FM","province":"สุพรรณบุรี","transmitter":"กรมประชาสัมพันธ์ 102.25 (Suphan Buri-1)","max ERP (kW)":"3.00","antenna height (m)":"75","polarization":"M","remark":"","@type":"nbtc","@id":273},"geometry":{"type":"Point","coordinates":[100.180237,14.463391]}},{"type":"Feature","id":304,"properties":{"name":"88.75 MHz Uthai Thani-1","frequency (MHz)":"88.75","callsign":"HSA15A-FM","province":"อุทัยธานี","transmitter":"กองบัญชาการกองทัพไทย 88.75 (Uthai Thani-1)","max ERP (kW)":"3.00","antenna height (m)":"90","polarization":"M","remark":"","@type":"nbtc","@id":304},"geometry":{"type":"Point","coordinates":[100.018188,15.406755]}},{"type":"Feature","id":305,"properties":{"name":"101.75 MHz Chai Nat-3","frequency (MHz)":"101.75","callsign":"HSA15B-FM","province":"ชัยนาท","transmitter":"บริษัท ลูกทุ่งเน็ตเวิร์ค 24 ชั่วโมง จำกัด  101.75 (Chai Nat-3)","max ERP (kW)":"4.00","antenna height (m)":"110","polarization":"M","remark":"","@type":"nbtc","@id":305},"geometry":{"type":"Point","coordinates":[100.145958,15.20757]}}]}