{"type":"FeatureCollection","features":[{"type":"Feature","id":1037739788,"properties":{"military":"naval_base","name":"หน่วยบัญชาการต่อสู้อากาศยานและรักษาฝั่ง","@type":"node","@id":1037739788,"branch":"navy"},"geometry":{"type":"Point","coordinates":[100.9426885,12.6660378]}},{"type":"Feature","id":5319496523,"properties":{"military":"checkpoint","name:en":"NAVY","name:ru":"Шлагбаум части ВМФ Королевства Тайланд","@type":"node","@id":5319496523,"branch":"navy"},"geometry":{"type":"Point","coordinates":[99.3064229,6.4834938]}},{"type":"Feature","id":11778514942,"properties":{"landuse":"military","military":"base","military_service":"navy","name":"Naval Sea Power Center","@type":"node","@id":11778514942,"branch":"navy"},"geometry":{"type":"Point","coordinates":[100.9339253,13.2316614]}},{"type":"Feature","id":174248084,"properties":{"landuse":"military","name":"กรมยุทธศึกษาทหารเรือ","name:en":"Naval Education Department","@type":"way","@id":174248084,"branch":"navy"},"geometry":{"type":"Point","coordinates":[100.3085713,13.7969978]}},{"type":"Feature","id":210246292,"properties":{"building":"yes","landuse":"military","military":"office","military_service":"navy","name":"กรมสารบรรณทหารเรือ","@type":"way","@id":210246292,"branch":"navy"},"geometry":{"type":"Point","coordinates":[100.489632,13.7430443]}},{"type":"Feature","id":243246096,"properties":{"landuse":"military","name":"ฐานทัพเรือสงขลา","name:en":"Songkhla Naval Base","name:th":"ฐานทัพเรือสงขลา","wikidata":"Q128672300","@type":"way","@id":243246096,"branch":"navy"},"geometry":{"type":"Point","coordinates":[100.5820523,7.2154948]}},{"type":"Feature","id":295593141,"properties":{"landuse":"military","name":"Navy Agriculture Project","source":"survey","@type":"way","@id":295593141,"branch":"navy"},"geometry":{"type":"Point","coordinates":[101.0608716,13.1662856]}},{"type":"Feature","id":309603082,"properties":{"addr:district":"เมืองสมุทรปราการ","addr:housenumber":"204","addr:postcode":"10270","addr:province":"สมุทรปราการ","addr:street":"ถนนสุขุมวิท","addr:subdistrict":"ปากน้ำ","amenity":"university","education":"university","landuse":"military","military":"academy","military_service":"air_force","name":"โรงเรียนนายเรือ","name:de":"Thailändische Marineakademie","name:en":"Royal Thai Naval Academy","name:ja":"タイ海軍兵学校","name:ru":"Королевская тайская морская академия","name:th":"โรงเรียนนายเรือ","operator":"กองทัพเรือไทย","operator:type":"military","website":"https://www.rtna.ac.th/index.html","wikidata":"Q1796042","wikimedia_commons":"Category:Royal Thai Naval Academy","wikipedia":"th:โรงเรียนนายเรือ","@type":"way","@id":309603082,"branch":"navy"},"geometry":{"type":"Point","coordinates":[100.5922963,13.6093786]}},{"type":"Feature","id":333227722,"properties":{"building":"yes","military":"office","name":"กองบัญชาการกองทัพเรือ","@type":"way","@id":333227722,"branch":"navy"},"geometry":{"type":"Point","coordinates":[100.481103,13.7498446]}},{"type":"Feature","id":660649771,"properties":{"access":"permissive","landuse":"military","name":"หน่วยบัญชาการนาวิกโยธิน","name:en":"Royal Thai Marine","name:th":"หน่วยบัญชาการนาวิกโยธิน","@type":"way","@id":660649771,"branch":"navy"},"geometry":{"type":"Point","coordinates":[97.8668553,9.4302145]}},{"type":"Feature","id":985482801,"properties":{"landuse":"military","name":"ทัพเรือภาคที่ 3","name:en":"Naval Area Command HQ.3","@type":"way","@id":985482801,"branch":"navy"},"geometry":{"type":"Point","coordinates":[98.4026152,7.8075215]}},{"type":"Feature","id":1000481574,"properties":{"landuse":"military","name":"กรมสารวัตรทหารเรือ","name:en":"Naval Military Police Regiment","name:th":"กรมสารวัตรทหารเรือ","wikimedia_commons":"Category:Naval Military Police Regiment","@type":"way","@id":1000481574,"branch":"navy"},"geometry":{"type":"Point","coordinates":[100.4871371,13.7462047]}},{"type":"Feature","id":1060083227,"properties":{"landuse":"military","name":"ค่ายมหาเจษฎาเจ้า กองพลนาวิกโยธิน","@type":"way","@id":1060083227,"branch":"navy"},"geometry":{"type":"Point","coordinates":[100.9656885,12.648693]}},{"type":"Feature","id":1060083228,"properties":{"landuse":"military","name":"กองเรือยุทธการและท่าเรือจุกเสม็ด","@type":"way","@id":1060083228,"branch":"navy"},"geometry":{"type":"Point","coordinates":[100.9320062,12.635332]}},{"type":"Feature","id":1242456168,"properties":{"landuse":"military","military_service":"navy","name":"กรมอุทกศาสตร์","name:en":"Hydrographic Department","name:th":"กรมอุทกศาสตร์","operator":"กองทัพเรือไทย","type":"multipolygon","@type":"way","@id":1242456168,"branch":"navy"},"geometry":{"type":"Point","coordinates":[100.5870113,13.6699876]}},{"type":"Feature","id":1273249660,"properties":{"landuse":"military","name":"กรมวิทยาศาสตร์ทหารเรือ","name:th":"กรมวิทยาศาสตร์ทหารเรือ","@type":"way","@id":1273249660,"branch":"navy"},"geometry":{"type":"Point","coordinates":[100.3620978,13.7723959]}},{"type":"Feature","id":1306217037,"properties":{"landuse":"military","military":"base","military_service":"navy","name":"Trat Logistics Naval Base","name:en":"Trat Logistics Naval Base","name:th":"ฐานส่งกำลังบำรุงทหารเรือตราด","wikidata":"Q128771340","@type":"way","@id":1306217037,"branch":"navy"},"geometry":{"type":"Point","coordinates":[102.3170054,12.1893208]}},{"type":"Feature","id":1349177260,"properties":{"landuse":"military","name":"กิจการวิทยุเสียงทหารเรือทุ่งมหาเมฆ","name:th":"กิจการวิทยุเสียงทหารเรือทุ่งมหาเมฆ","@type":"way","@id":1349177260,"branch":"navy"},"geometry":{"type":"Point","coordinates":[100.551725,13.7177589]}},{"type":"Feature","id":1418599385,"properties":{"landuse":"military","military_service":"navy","name":"กรมพลาธิการทหารเรือ","name:en":"Naval Supply Department","name:th":"กรมพลาธิการทหารเรือ","@type":"way","@id":1418599385,"branch":"navy"},"geometry":{"type":"Point","coordinates":[100.5879598,13.6723548]}},{"type":"Feature","id":1418599389,"properties":{"landuse":"military","military_service":"navy","name":"กองเรือลำน้ำ","name:th":"กองเรือลำน้ำ","@type":"way","@id":1418599389,"branch":"navy"},"geometry":{"type":"Point","coordinates":[100.5823735,13.668484]}},{"type":"Feature","id":1463493727,"properties":{"landuse":"military","military_service":"navy","name":"แผนกเรือพระราชพิธ๊ กองเรือเล็ก กรมการขนส่งทหารเรือ","waterway":"boatyard","@type":"way","@id":1463493727,"branch":"navy"},"geometry":{"type":"Point","coordinates":[100.4815888,13.7624947]}},{"type":"Feature","id":1487603197,"properties":{"landuse":"military","military":"base","military_service":"navy","name":"กองเรือเล็ก กรมการขนส่งทหารเรือ","name:en":"Small Vessel Division, Department of Transport, Royal Thai Navy","name:th":"กองเรือเล็ก กรมการขนส่งทหารเรือ","@type":"way","@id":1487603197,"branch":"navy"},"geometry":{"type":"Point","coordinates":[100.4835169,13.762082]}},{"type":"Feature","id":1550119265,"properties":{"landuse":"military","military":"bunker","military_service":"navy","name":"กรมพลาธิการทหารเรือ","name:en":"Naval Supply Department","name:th":"กรมพลาธิการทหารเรือ","@type":"way","@id":1550119265,"branch":"navy"},"geometry":{"type":"Point","coordinates":[100.4850157,13.747784]}},{"type":"Feature","id":1550119273,"properties":{"landuse":"military","military":"base","military_service":"navy","name":"ฐานทัพเรือกรุงเทพ","name:en":"Bangkok Naval Base","name:th":"ฐานทัพเรือกรุงเทพ","@type":"way","@id":1550119273,"branch":"navy"},"geometry":{"type":"Point","coordinates":[100.485438,13.7498013]}},{"type":"Feature","id":1550119275,"properties":{"building":"yes","military":"office","name":"ราชนาวิกสภา","name:en":"Royal Thai Navy Club","name:th":"ราชนาวิกสภา","wikidata":"Q16307958","wikipedia":"th:ราชนาวิกสภา","@type":"way","@id":1550119275,"branch":"navy"},"geometry":{"type":"Point","coordinates":[100.48685,13.7489897]}},{"type":"Feature","id":1550119313,"properties":{"landuse":"military","name":"กรมอู่ทหารเรือ","name:en":"Royal Thai Naval Dockyard","name:th":"กรมอู่ทหารเรือ","@type":"way","@id":1550119313,"branch":"navy"},"geometry":{"type":"Point","coordinates":[100.4853079,13.7507761]}}]}