{"type":"FeatureCollection","features":[{"type":"Feature","id":88122604,"properties":{"amenity":"ferry_terminal","ferry":"yes","name":"ท่าช้าง","name:en":"Tha Chang N9","name:fr":"Tha Chang","name:th":"ท่าช้าง","operator":"CPX-G,CPX-OCPX-T","public_transport":"stop_position","ref":"N9","@type":"node","@id":88122604},"geometry":{"type":"Point","coordinates":[100.4882707,13.7525602]}},{"type":"Feature","id":247799583,"properties":{"addr:country":"ไทย","addr:district":"เมืองสมุทรปราการ","addr:province":"สมุทรปราการ","addr:province:en":"Samutprakan","addr:subdistrict":"ปากน้ำ","amenity":"ferry_terminal","country":"Thailand","ferry":"yes","name":"ท่าเรือวิบูลย์ศรี","name:en":"Wibun Si Pier","name:th":"ท่าเรือวิบูลย์ศรี","province":"Samutprakan","public_transport":"stop_position","@type":"node","@id":247799583},"geometry":{"type":"Point","coordinates":[100.595749,13.5950876]}},{"type":"Feature","id":249403520,"properties":{"amenity":"ferry_terminal","description":"왓 아룬 가는 나루; cross rhe river","ferry":"yes","image":"https://images.mapillary.com/cRJJWo0oy6N2sKqgA7nWRA/thumb-2048.jpg","mapillary":"325115346413718","name":"ท่าเตียน","name:en":"Tha Tien","name:he":"טאן טיאן","name:ko":"타 띠엔","name:ru":"Тиан","name:th":"ท่าเตียน","operator":"CPX-B, CPX-O, CPX-T","province":"กรุงเทพมหานคร","public_transport":"stop_position","ref":"N8","@type":"node","@id":249403520},"geometry":{"type":"Point","coordinates":[100.4900083,13.7459776]}},{"type":"Feature","id":269347981,"properties":{"amenity":"ferry_terminal","ferry":"yes","name":"พระปิ่นเกล้า","name:en":"Phra Pinklao Bridge N12","name:th":"พระปิ่นเกล้า","public_transport":"stop_position","ref":"N12","@type":"node","@id":269347981},"geometry":{"type":"Point","coordinates":[100.4906911,13.762992]}},{"type":"Feature","id":269747367,"properties":{"amenity":"ferry_terminal","ferry":"yes","foot":"yes","name":"ยอดพิมาน","name:en":"Yodpiman","public_transport":"stop_position","ref":"N6/1","@type":"node","@id":269747367},"geometry":{"type":"Point","coordinates":[100.494693,13.740983]}},{"type":"Feature","id":487075253,"properties":{"amenity":"ferry_terminal","ferry":"yes","image":"https://commons.wikimedia.org/wiki/File:2025-01-26_pier_Wat_Bang_Nam_Phueng_Nok.JPG","name":"ท่าเรือวัดบางน้ำผึ้งนอก","name:en":"Wat Bang Namphueng Nok Pier","public_transport":"stop_position","@type":"node","@id":487075253},"geometry":{"type":"Point","coordinates":[100.5872296,13.6824752]}},{"type":"Feature","id":487075255,"properties":{"amenity":"ferry_terminal","ferry":"yes","floating":"yes","image":"https://commons.wikimedia.org/wiki/File:2025-01-26_ferry_pier_Wat_Bang_Na_Nok.JPG","name":"ท่าเรือวัดบางนานอก","name:en":"Wat Bang Na Nok Pier","public_transport":"stop_position","@type":"node","@id":487075255},"geometry":{"type":"Point","coordinates":[100.5873694,13.6766314]}},{"type":"Feature","id":487075704,"properties":{"amenity":"ferry_terminal","ferry":"yes","name":"ท่าเรือบางกะเจ้า","name:en":"Bang Kachao Pier","public_transport":"stop_position","@type":"node","@id":487075704},"geometry":{"type":"Point","coordinates":[100.5628107,13.704289]}},{"type":"Feature","id":566622414,"properties":{"amenity":"ferry_terminal","ferry":"yes","name":"ประตูน้ำ","name:en":"Pratunam","name:ru":"Pratunam","name:th":"ประตูน้ำ","public_transport":"stop_position","ref":"CEN","route":"NIDA line","@type":"node","@id":566622414},"geometry":{"type":"Point","coordinates":[100.5414931,13.7493577]}},{"type":"Feature","id":566622607,"properties":{"amenity":"ferry_terminal","ferry":"yes","name":"ชิดลม","name:en":"Chidlom","name:ru":"Chidlom","name:th":"ชิดลม","network":"NIDA Line","public_transport":"stop_position","ref":"E1","@type":"node","@id":566622607},"geometry":{"type":"Point","coordinates":[100.5445742,13.7487051]}},{"type":"Feature","id":566622771,"properties":{"amenity":"ferry_terminal","ferry":"yes","name":"สะพานวิทยุ","name:en":"Wireless","name:ru":"Wireless","name:th":"สะพานวิทยุ","network":"NIDA Line","public_transport":"stop_position","ref":"E2","@type":"node","@id":566622771},"geometry":{"type":"Point","coordinates":[100.5481846,13.7482674]}},{"type":"Feature","id":566622818,"properties":{"amenity":"ferry_terminal","ferry":"yes","name":"นานาเหนือ","name:en":"Nana Nua","name:ru":"Nana Nua","name:th":"นานาเหนือ","network":"NIDA Line","public_transport":"stop_position","ref":"E3","@type":"node","@id":566622818},"geometry":{"type":"Point","coordinates":[100.5540323,13.7482468]}},{"type":"Feature","id":566623226,"properties":{"addr:street":"ถนนสุขุมวิท ซอย 15","amenity":"ferry_terminal","ferry":"yes","name":"นานาชาติ","name:en":"Nana Chard","name:ru":"Nana Chard","name:th":"นานาชาติ","network":"NIDA Line","opening_hours":"Mo-Su 06:00-20:00","public_transport":"stop_position","ref":"E4","@type":"node","@id":566623226},"geometry":{"type":"Point","coordinates":[100.5591191,13.7483267]}},{"type":"Feature","id":566623721,"properties":{"amenity":"ferry_terminal","ferry":"yes","name":"อโศก","name:en":"Asok Pier","name:ru":"Asoke","name:th":"อโศก","network":"NIDA Line","public_transport":"station","ref":"E5","@type":"node","@id":566623721},"geometry":{"type":"Point","coordinates":[100.5629489,13.747855]}},{"type":"Feature","id":566624462,"properties":{"amenity":"ferry_terminal","ferry":"yes","name":"มศว ประสานมิตร","name:en":"Prasanmit","name:th":"มศว ประสานมิตร","network":"NIDA Line","public_transport":"stop_position","ref":"E6","@type":"node","@id":566624462},"geometry":{"type":"Point","coordinates":[100.5657418,13.74739]}},{"type":"Feature","id":566629748,"properties":{"amenity":"ferry_terminal","ferry":"yes","name":"อิตัลไทย","name:en":"Italthai","name:th":"อิตัลไทย","network":"NIDA Line","public_transport":"stop_position","ref":"E7","@type":"node","@id":566629748},"geometry":{"type":"Point","coordinates":[100.5734809,13.7459225]}},{"type":"Feature","id":566629891,"properties":{"amenity":"ferry_terminal","ferry":"yes","name":"วัดใหม่ช่องลม","name:en":"Wat Mai Chonglom","name:th":"วัดใหม่ช่องลม","network":"NIDA Line","public_transport":"stop_position","ref":"E8","@type":"node","@id":566629891},"geometry":{"type":"Point","coordinates":[100.5743712,13.7457066]}},{"type":"Feature","id":566630005,"properties":{"amenity":"ferry_terminal","ferry":"yes","name":"สุเหร่าบ้านดอน","name:en":"Baan Don Mosque","name:th":"สุเหร่าบ้านดอน","network":"NIDA Line","public_transport":"stop_position","ref":"E9","@type":"node","@id":566630005},"geometry":{"type":"Point","coordinates":[100.581455,13.7441488]}},{"type":"Feature","id":566630007,"properties":{"amenity":"ferry_terminal","ferry":"yes","name":"ซอยทองหล่อ","name:en":"Soi Thonglor","name:th":"ซอยทองหล่อ","network":"NIDA Line","public_transport":"stop_position","ref":"E10","@type":"node","@id":566630007},"geometry":{"type":"Point","coordinates":[100.5858879,13.743191]}},{"type":"Feature","id":566630278,"properties":{"amenity":"ferry_terminal","ferry":"yes","name":"สะพานคลองตัน","name:en":"Sapan Klongtun","name:th":"สะพานคลองตัน","network":"NIDA Line","public_transport":"stop_position","ref":"E13","@type":"node","@id":566630278},"geometry":{"type":"Point","coordinates":[100.5982639,13.741912]}},{"type":"Feature","id":566630389,"properties":{"amenity":"ferry_terminal","ferry":"yes","name":"เดอะมอลล์ราม","name:en":"The Mall Ram","name:th":"เดอะมอลล์ราม","network":"NIDA Line","public_transport":"stop_position","ref":"E14","@type":"node","@id":566630389},"geometry":{"type":"Point","coordinates":[100.6081306,13.754653]}},{"type":"Feature","id":566630861,"properties":{"amenity":"ferry_terminal","ferry":"yes","name":"รามคำแหง 29","name:en":"Ramkhamhaeng 29","name:th":"รามคำแหง 29","network":"NIDA Line","public_transport":"stop_position","ref":"E15","@type":"node","@id":566630861},"geometry":{"type":"Point","coordinates":[100.6115814,13.7578217]}},{"type":"Feature","id":566631063,"properties":{"amenity":"ferry_terminal","ferry":"yes","name":"วัดเทพลีลา","name:en":"Wat Thepleela","name:th":"วัดเทพลีลา","network":"NIDA Line","public_transport":"stop_position","ref":"E16","@type":"node","@id":566631063},"geometry":{"type":"Point","coordinates":[100.613781,13.7599539]}},{"type":"Feature","id":566631207,"properties":{"alt_name:en":"Ramkhamhaeng University","amenity":"ferry_terminal","ferry":"yes","name":"ม.รามคำแหง","name:en":"Ramkhamhaeng","name:th":"ม.รามคำแหง","network":"NIDA Line","public_transport":"stop_position","ref":"E17","@type":"node","@id":566631207},"geometry":{"type":"Point","coordinates":[100.6183156,13.761527]}},{"type":"Feature","id":566631808,"properties":{"amenity":"ferry_terminal","ferry":"yes","name":"เดอะมอลล์บางกะปิ","name:en":"The Mall Bangkapi","name:th":"เดอะมอลล์บางกะปิ","network":"NIDA Line","public_transport":"stop_position","ref":"E20","@type":"node","@id":566631808},"geometry":{"type":"Point","coordinates":[100.6434461,13.764643]}},{"type":"Feature","id":566631929,"properties":{"amenity":"ferry_terminal","cargo":"passengers","ferry":"yes","name":"วัดศรีบุญเรือง","name:en":"Wat Sriboonrueng","name:th":"วัดศรีบุญเรือง","public_transport":"station","ref":"E22","@type":"node","@id":566631929},"geometry":{"type":"Point","coordinates":[100.6521088,13.7677237]}},{"type":"Feature","id":567013469,"properties":{"amenity":"ferry_terminal","ferry":"yes","name":"สะพานเจริญผล","name:en":"Sapan Charoenpol","name:ru":"Sapan Charoenpol","name:th":"สะพานเจริญผล","network":"Golden Mount Line","public_transport":"stop_position","ref":"W3","wheelchair":"no","@type":"node","@id":567013469},"geometry":{"type":"Point","coordinates":[100.5243125,13.7498204]}},{"type":"Feature","id":567014146,"properties":{"amenity":"ferry_terminal","ferry":"yes","name":"ตลาดโบ๊เบ๊","name:en":"Talad Bobae","name:ru":"Talad Bobae","name:th":"ตลาดโบ๊เบ๊","network":"Golden Mount Line","public_transport":"stop_position","ref":"W4","@type":"node","@id":567014146},"geometry":{"type":"Point","coordinates":[100.515961,13.7534236]}},{"type":"Feature","id":567014290,"properties":{"amenity":"ferry_terminal","ferry":"yes","name":"ผ่านฟ้าลีลาศ","name:en":"Phanfa Leelard","name:fr":"Phanfa Leelard","name:ru":"Phanfa Leelard","name:th":"ผ่านฟ้าลีลาศ","network":"Golden Mount Line","opening_hours":"Mo-Fr 08:00-20:00; Sa-Su 08:00-19:30","public_transport":"stop_position","ref":"W5","tourism":"attraction","@type":"node","@id":567014290},"geometry":{"type":"Point","coordinates":[100.506445,13.7555116]}},{"type":"Feature","id":567014528,"properties":{"amenity":"ferry_terminal","ferry":"yes","name":"ประตูน้ำ","name:en":"Pratunam","name:ru":"Pratunam","name:th":"ประตูน้ำ","public_transport":"stop_position","ref":"CEN","route":"Golden Mount Line","wheelchair":"no","@type":"node","@id":567014528},"geometry":{"type":"Point","coordinates":[100.541208,13.7493879]}},{"type":"Feature","id":974438572,"properties":{"amenity":"ferry_terminal","ferry":"yes","name":"ท่าดินแดง","name:en":"Tha Din Daeng","name:th":"ท่าดินแดง","opening_hours":"Mo-Su 05:45-21:00","public_transport":"stop_position","@type":"node","@id":974438572},"geometry":{"type":"Point","coordinates":[100.5038479,13.736982]}},{"type":"Feature","id":974438658,"properties":{"addr:postcode":"10100","amenity":"ferry_terminal","country":"Thailand","ferry":"yes","name":"ราชวงศ์","name:en":"Ratchawong N 5","name:fr":"Ratchawong N 5","name:th":"ราชวงศ์","opening_hours":"Mo-Su 05:45-21:00","province":"Bangkok","public_transport":"stop_position","@type":"node","@id":974438658},"geometry":{"type":"Point","coordinates":[100.5043646,13.7384651]}},{"type":"Feature","id":1183545590,"properties":{"addr:city":"ท่าฉลอม","addr:country":"TH","addr:district":"เมืองสมุทรสาคร","addr:postcode":"74000","addr:province":"สมุทรสาคร","addr:subdistrict":"ท่าฉลอม","amenity":"ferry_terminal","cargo":"passengers;bicycle","country":"ไทย","description":"ท่าเรือท่าฉลอม-มหาชัย จุดชมวิว แหล่งท่องเที่ยว","ferry":"yes","name":"ท่าฉลอม","name:en":"Thachalom","name:th":"ท่าฉลอม","province":"สมุทรสาคร","public_transport":"station","reg_name":"ท่าเรือท่าฉลอม","@type":"node","@id":1183545590},"geometry":{"type":"Point","coordinates":[100.2745241,13.5418371]}},{"type":"Feature","id":1183546146,"properties":{"addr:city":"มหาชัย","addr:country":"TH","addr:district":"เมืองสมุทรสาคร","addr:postcode":"74000","addr:province":"สมุุทรสาคร","addr:subdistrict":"มหาชัย","amenity":"ferry_terminal","cargo":"passengers;bicycle","country":"ไทย","ferry":"yes","loc_name":"ท่าเรือมหาชัย","name":"มหาชัย","name:en":"Mahachai","name:th":"มหาชัย","opening_hours":"24/7","province":"สมุทรสาคร","public_transport":"station","wheelchair":"unknown","@type":"node","@id":1183546146},"geometry":{"type":"Point","coordinates":[100.2750367,13.544287]}},{"type":"Feature","id":1183546472,"properties":{"amenity":"ferry_terminal","cargo":"passengers","ferry":"yes","public_transport":"station","@type":"node","@id":1183546472},"geometry":{"type":"Point","coordinates":[100.269666,13.5429115]}},{"type":"Feature","id":1189125946,"properties":{"amenity":"ferry_terminal","fee":"yes","ferry":"yes","name":"ท่าเรือเภตรา","name:en":"Phetra Pier","name:th":"ท่าเรือเภตรา","operator":"ห้างหุ้นส่วนจำกัดเภตรา","public_transport":"stop_position","@type":"node","@id":1189125946},"geometry":{"type":"Point","coordinates":[100.5374681,13.6570694]}},{"type":"Feature","id":1199581265,"properties":{"amenity":"ferry_terminal","ferry":"yes","name":"ท่าเรือเทศบาลเมืองพระประแดง","name:en":"Phra Pradaeng Town Municipality Pier","name:th":"ท่าเรือเทศบาลเมืองพระประแดง","public_transport":"stop_position","@type":"node","@id":1199581265},"geometry":{"type":"Point","coordinates":[100.5350871,13.6584538]}},{"type":"Feature","id":1342348755,"properties":{"alt_name":"ท่าเรือซังฮี้","amenity":"ferry_terminal","ferry":"yes","name":"สะพานกรุงธน","name:en":"Krung Thon Bridge","name:th":"สะพานกรุงธน","public_transport":"stop_position","ref":"N16","@type":"node","@id":1342348755},"geometry":{"type":"Point","coordinates":[100.501088,13.7815481]}},{"type":"Feature","id":1371997436,"properties":{"disused":"yes","man_made":"pier","name":"สุเหร่าอัลกุ๊บรอ","name:en":"Surao Al-Kubra","name:th":"สุเหร่าอัลกุ๊บรอ","public_transport":"stop_position","was:amenity":"ferry_terminal","was:ferry":"yes","@type":"node","@id":1371997436},"geometry":{"type":"Point","coordinates":[100.6284652,13.7152237]}},{"type":"Feature","id":1387912487,"properties":{"amenity":"ferry_terminal","ferry":"yes","name":"ปากเกร็ด","name:en":"Pakkret","name:ru":"Паккрет","public_transport":"stop_position","ref":"N33","@type":"node","@id":1387912487},"geometry":{"type":"Point","coordinates":[100.4946496,13.91533]}},{"type":"Feature","id":1388321881,"properties":{"amenity":"ferry_terminal","description":"ท่าเรือข้ามฟากไปเกาะเกร็ด\nFerry Pier From: Wat Sanam Nuea (Buddhist Temple) To: Koh Kret","ferry":"yes","name":"ท่าวัดสนามเหนือ","name:en":"Wat Sanam Nuea Ferry Pier","name:th":"ท่าวัดสนามเหนือ","public_transport":"station","@type":"node","@id":1388321881},"geometry":{"type":"Point","coordinates":[100.4916797,13.9128265]}},{"type":"Feature","id":1388321883,"properties":{"amenity":"ferry_terminal","name":"ท่าวัดปรมัยยิกาวาส","name:en":"Wat Pora Mai Yi Ka Wat Ferry Pier","name:th":"ท่าวัดปรมัยยิกาวาส","@type":"node","@id":1388321883},"geometry":{"type":"Point","coordinates":[100.4906939,13.9126861]}},{"type":"Feature","id":1408337589,"properties":{"amenity":"ferry_terminal","ferry":"yes","name":"เกียกกาย","name:en":"Kiak Kai","name:th":"เกียกกาย","public_transport":"stop_position","ref":"N21","@type":"node","@id":1408337589},"geometry":{"type":"Point","coordinates":[100.5168511,13.7986913]}},{"type":"Feature","id":1408337592,"properties":{"amenity":"ferry_terminal","ferry":"yes","name":"สะพานพระราม 5","name:en":"Rama 5 Bridge","name:th":"สะพานพระราม 5","public_transport":"stop_position","ref":"N29/1","@type":"node","@id":1408337592},"geometry":{"type":"Point","coordinates":[100.4938913,13.8322091]}},{"type":"Feature","id":1408337602,"properties":{"amenity":"ferry_terminal","ferry":"yes","name":"วัดเขียน","name:en":"Wat Kien","name:th":"วัดเขียน","public_transport":"stop_position","ref":"N28","@type":"node","@id":1408337602},"geometry":{"type":"Point","coordinates":[100.496902,13.8282189]}},{"type":"Feature","id":1408337604,"properties":{"alt_name":"พิบูลสงคราม 3","alt_name:en":"Pibul 3","amenity":"ferry_terminal","ferry":"yes","name":"นนทบุรี","name:en":"Nonthaburi","name:th":"นนทบุรี","public_transport":"stop_position","ref":"N30","@type":"node","@id":1408337604},"geometry":{"type":"Point","coordinates":[100.4911555,13.8418616]}},{"type":"Feature","id":1408337608,"properties":{"amenity":"ferry_terminal","ferry":"yes","name":"พระราม 7","name:en":"Rama 7 Bridge","name:th":"พระราม 7","public_transport":"stop_position","ref":"N24","@type":"node","@id":1408337608},"geometry":{"type":"Point","coordinates":[100.5137448,13.8128399]}},{"type":"Feature","id":1408346288,"properties":{"amenity":"ferry_terminal","ferry":"yes","name":"พายัพ","name:de":"Payap","name:en":"Payap","name:ru":"Пхаяп","name:th":"พายัพ","public_transport":"stop_position","ref":"N18","@type":"node","@id":1408346288},"geometry":{"type":"Point","coordinates":[100.508141,13.7875432]}},{"type":"Feature","id":1408390195,"properties":{"amenity":"ferry_terminal","ferry":"yes","name":"พระราม 8","name:en":"Rama 8 Bridge","name:ru":"Рамы VIII","name:th":"พระราม 8","public_transport":"stop_position","ref":"N14","@type":"node","@id":1408390195},"geometry":{"type":"Point","coordinates":[100.4977304,13.7675324]}},{"type":"Feature","id":1408394726,"properties":{"amenity":"ferry_terminal","ferry":"yes","name":"บางโพ","name:en":"Bang Po","name:ru":"Бангпхо","name:th":"บางโพ","public_transport":"stop_position","ref":"N22","@type":"node","@id":1408394726},"geometry":{"type":"Point","coordinates":[100.5187853,13.8063588]}},{"type":"Feature","id":1408469372,"properties":{"alt_name":"พรานนก","amenity":"ferry_terminal","ferry":"yes","name":"ท่าวังหลัง","name:en":"Tha Wang Lang","name:ja":"ワンラン","name:th":"ท่าวังหลัง","public_transport":"stop_position","ref":"N10","@type":"node","@id":1408469372},"geometry":{"type":"Point","coordinates":[100.4868281,13.7556928]}},{"type":"Feature","id":1408494533,"properties":{"amenity":"ferry_terminal","country":"Thailand","ferry":"yes","name":"ราชวงศ์","name:en":"Rachawong","name:th":"ราชวงศ์","opening_hours":"Mo-Su 05:45-21:00","province":"Bangkok","public_transport":"stop_position","ref":"N5","@type":"node","@id":1408494533},"geometry":{"type":"Point","coordinates":[100.5047432,13.738356]}},{"type":"Feature","id":1408498124,"properties":{"addr:postcode":"10100","alt_name:th":"กรมการขนส่งทางน้ำและพาณิชยนาวี","amenity":"ferry_terminal","ferry":"yes","name":"กรมเจ้าท่า","name:en":"Marine Department","name:fr":"Marine Departement","name:th":"กรมเจ้าท่า","official_name:en":"Marine Department","old_name:th":"กรมการขนส่งทางน้ำ","public_transport":"stop_position","ref":"N4","@type":"node","@id":1408498124},"geometry":{"type":"Point","coordinates":[100.5118793,13.7324943]}},{"type":"Feature","id":1408509168,"properties":{"addr:postcode":"10500","amenity":"ferry_terminal","ferry":"yes","name":"สี่พระยา","name:en":"Si Phraya","name:fr":"Si Phraya","name:th":"สี่พระยา","public_transport":"stop_position","ref":"N3","@type":"node","@id":1408509168},"geometry":{"type":"Point","coordinates":[100.5131062,13.728416]}},{"type":"Feature","id":1408521453,"properties":{"amenity":"ferry_terminal","ferry":"yes","name":"ท่าเรือโอเรียนเต็ล","name:en":"Oriental Pier","name:th":"ท่าเรือโอเรียนเต็ล","public_transport":"stop_position","ref":"N1","@type":"node","@id":1408521453},"geometry":{"type":"Point","coordinates":[100.5135187,13.7233146]}},{"type":"Feature","id":1408524159,"properties":{"amenity":"ferry_terminal","ferry":"yes","name":"วัดราชสิงขร","name:en":"Wat Rajsingkorn","name:ko":"왓 랏싱콘","name:th":"วัดราชสิงขร","public_transport":"stop_position","ref":"S3","@type":"node","@id":1408524159},"geometry":{"type":"Point","coordinates":[100.503845,13.7065388]}},{"type":"Feature","id":1408524161,"properties":{"amenity":"ferry_terminal","ferry":"yes","name":"วัดวรจรรยาวาส","name:en":"Wat Worachanyawas","name:ko":"왓 워라짠야왓","name:th":"วัดวรจรรยาวาส","public_transport":"stop_position","ref":"S2","@type":"node","@id":1408524161},"geometry":{"type":"Point","coordinates":[100.5068599,13.7095433]}},{"type":"Feature","id":1623682066,"properties":{"amenity":"ferry_terminal","ferry":"yes","name":"ท่าเรือพระประแดง","name:en":"Phra Pradaeng Pier","operator":"ห้างหุ้นส่วนจำกัดเภตรา","public_transport":"stop_position","@type":"node","@id":1623682066},"geometry":{"type":"Point","coordinates":[100.5341593,13.6570342]}},{"type":"Feature","id":1632812009,"properties":{"addr:postcode":"10700","amenity":"ferry_terminal","ferry":"yes","name":"ท่าเรือพระปิ่นเกล้า (ฝั่งธนบุรี) 12","name:en":"Phra Pin Klao Pier (Thon Buri) 12","public_transport":"stop_position","@type":"node","@id":1632812009},"geometry":{"type":"Point","coordinates":[100.4899834,13.7624275]}},{"type":"Feature","id":1632824440,"properties":{"amenity":"ferry_terminal","ferry":"yes","name":"วัดดาวดึงษาราม","name:en":"Wat Daowaduengsaram","name:th":"วัดดาวดึงษาราม","public_transport":"stop_position","@type":"node","@id":1632824440},"geometry":{"type":"Point","coordinates":[100.4934036,13.765395]}},{"type":"Feature","id":1645239685,"properties":{"amenity":"ferry_terminal","ferry":"yes","name":"วัดกลางเกร็ด","name:en":"Wat Klangkret","name:ru":"ват Клангкрет","public_transport":"stop_position","ref":"N32","@type":"node","@id":1645239685},"geometry":{"type":"Point","coordinates":[100.4913828,13.9051733]}},{"type":"Feature","id":1645239724,"properties":{"amenity":"ferry_terminal","ferry":"yes","name":"กระทรวงพาณิชย์","name:en":"Ministry of Commerce","name:ru":"Министерство торговли","public_transport":"stop_position","ref":"N31","@type":"node","@id":1645239724},"geometry":{"type":"Point","coordinates":[100.4851632,13.8832667]}},{"type":"Feature","id":1656349633,"properties":{"amenity":"ferry_terminal","@type":"node","@id":1656349633},"geometry":{"type":"Point","coordinates":[100.5021883,13.932424]}},{"type":"Feature","id":1730560919,"properties":{"amenity":"ferry_terminal","ferry":"yes","name":"ท่าเรือพระปิ่นเกล้า (ฝั่งพระนคร)","name:en":"Phra Pin Klao Pier (Phra Nakhon)","name:ru":"Пхра Пинклау","public_transport":"stop_position","@type":"node","@id":1730560919},"geometry":{"type":"Point","coordinates":[100.4916887,13.7614233]}},{"type":"Feature","id":1795297733,"properties":{"amenity":"ferry_terminal","ferry":"yes","name":"ท่าเรือตาเลื่อน","name:en":"Ta Luean Pier","public_transport":"stop_position","@type":"node","@id":1795297733},"geometry":{"type":"Point","coordinates":[100.5800076,13.6731731]}},{"type":"Feature","id":1799590892,"properties":{"amenity":"ferry_terminal","ferry":"yes","name":"ท่าเรือวัดบางกะเจ้านอก","name:en":"Wat Bang Kachao Nok Pier","@type":"node","@id":1799590892},"geometry":{"type":"Point","coordinates":[100.5542208,13.6890041]}},{"type":"Feature","id":1886961381,"properties":{"amenity":"ferry_terminal","ferry":"yes","foot":"yes","name":"อัษฎางค์","name:en":"Atsadang","name:th":"อัษฎางค์","public_transport":"stop_position","@type":"node","@id":1886961381},"geometry":{"type":"Point","coordinates":[100.4941859,13.74134]}},{"type":"Feature","id":1886961629,"properties":{"addr:postcode":"10200","amenity":"ferry_terminal","check_date":"2025-01-07","ferry":"yes","foot":"yes","name":"ราชินี","name:en":"Rajinee N7","name:fr":"Rajinee","name:ru":"Рачини","name:th":"ราชินี","operator":"CPX-T","public_transport":"stop_position","ref":"N7","@type":"node","@id":1886961629},"geometry":{"type":"Point","coordinates":[100.4938532,13.7416128]}},{"type":"Feature","id":1905838341,"properties":{"amenity":"ferry_terminal","ferry":"yes","name":"มหาราช","name:en":"Maharaj","name:th":"มหาราช","public_transport":"stop_position","@type":"node","@id":1905838341},"geometry":{"type":"Point","coordinates":[100.4884271,13.7544784]}},{"type":"Feature","id":1905838342,"properties":{"amenity":"ferry_terminal","ferry":"yes","name":"พระอาทิตย์","name:de":"Phra Arthit","name:en":"Phra Arthit","name:ru":"Пирс на Као сан роуд","name:th":"พระอาทิตย์","public_transport":"stop_position","ref":"N13","@type":"node","@id":1905838342},"geometry":{"type":"Point","coordinates":[100.4940371,13.7635578]}},{"type":"Feature","id":1905838343,"properties":{"amenity":"ferry_terminal","ferry":"yes","name":"พิบูลสงคราม 2","name:en":"Pibul 2","name:th":"พิบูลสงคราม 2","public_transport":"stop_position","ref":"N29","@type":"node","@id":1905838343},"geometry":{"type":"Point","coordinates":[100.49627,13.8329058]}},{"type":"Feature","id":1905838344,"properties":{"amenity":"ferry_terminal","designation":"CEN Sathon","ferry":"yes","name":"สาทร (ตากสิน)","name:en":"Sathorn (Taksin)","name:th":"สาทร (ตากสิน)","note":"Snel en voordelig zonder file","public_transport":"stop_position","ref":"CEN","wheelchair":"limited","@type":"node","@id":1905838344},"geometry":{"type":"Point","coordinates":[100.5127108,13.7188644]}},{"type":"Feature","id":2074694261,"properties":{"amenity":"ferry_terminal","ferry":"yes","image":"http://image.ohozaa.com/i/gb4/MgCEd3.jpg","name":"เอเชียทีค","name:en":"Asiatique","name:ko":"아시아틱","name:th":"เอเชียทีค","opening_hours":"Mo-Su 17:00-00:00","public_transport":"stop_position","@type":"node","@id":2074694261},"geometry":{"type":"Point","coordinates":[100.5016875,13.7049496]}},{"type":"Feature","id":2321695929,"properties":{"amenity":"ferry_terminal","ferry":"yes","name":"ประตูน้ำ","name:en":"Pratunam","name:ru":"Pratunam","name:th":"ประตูน้ำ","public_transport":"stop_position","ref":"CEN","route":"NIDA line","@type":"node","@id":2321695929},"geometry":{"type":"Point","coordinates":[100.5414896,13.7492229]}},{"type":"Feature","id":2321695930,"properties":{"amenity":"ferry_terminal","ferry":"yes","name":"ประตูน้ำ","name:en":"Pratunam","name:ko":"빠투남","name:ru":"Pratunam","name:th":"ประตูน้ำ","public_transport":"stop_position","ref":"CEN","route":"Golden Mount Line","wheelchair":"no","@type":"node","@id":2321695930},"geometry":{"type":"Point","coordinates":[100.5412037,13.7492624]}},{"type":"Feature","id":2330683327,"properties":{"amenity":"ferry_terminal","ferry":"yes","name":"ร.ร.วิจิตร","name:en":"Vijit School","name:th":"ร.ร.วิจิตร","network":"NIDA Line","public_transport":"stop_position","ref":"E12","@type":"node","@id":2330683327},"geometry":{"type":"Point","coordinates":[100.5940718,13.741483]}},{"type":"Feature","id":2331436115,"properties":{"amenity":"ferry_terminal","ferry":"yes","name":"ท่าเรือช่องนนทรี","name:en":"Chong Nonsi Pier","public_transport":"stop_position","@type":"node","@id":2331436115},"geometry":{"type":"Point","coordinates":[100.5503294,13.6909014]}},{"type":"Feature","id":2339057520,"properties":{"amenity":"ferry_terminal","ferry":"yes","name":"บางกะปิ","name:en":"Bangkapi","name:th":"บางกะปิ","network":"NIDA Line","public_transport":"stop_position","ref":"E21","@type":"node","@id":2339057520},"geometry":{"type":"Point","coordinates":[100.6473896,13.7650322]}},{"type":"Feature","id":2339057521,"properties":{"amenity":"ferry_terminal","ferry":"yes","name":"สะพานมิตรมหาดไทย","name:en":"Sapan Mit Mahadthai","name:th":"สะพานมิตรมหาดไทย","network":"NIDA Line","public_transport":"stop_position","ref":"E18","@type":"node","@id":2339057521},"geometry":{"type":"Point","coordinates":[100.6236947,13.762165]}},{"type":"Feature","id":2367398625,"properties":{"addr:postcode":"10200","amenity":"ferry_terminal","ferry":"yes","name":"สะพานพุทธ","name:en":"Memorial Bridge","name:fr":"Memorial Bridge","name:th":"สะพานพุทธ","public_transport":"stop_position","ref":"N6","@type":"node","@id":2367398625},"geometry":{"type":"Point","coordinates":[100.4982194,13.7397402]}},{"type":"Feature","id":2393548001,"properties":{"amenity":"ferry_terminal","cargo":"passengers;vehicle","ferry":"yes","name":"ท่าเรือคลองลัดหลวง","name:en":"Khlong Lat Luang Pier","public_transport":"stop_position","@type":"node","@id":2393548001},"geometry":{"type":"Point","coordinates":[100.5277363,13.6697957]}},{"type":"Feature","id":2393558026,"properties":{"amenity":"ferry_terminal","cargo":"passengers;vehicle","ferry":"yes","name":"ท่าเรือสาธุประดิษฐ์","name:en":"Sathu Pradit Pier","public_transport":"stop_position","@type":"node","@id":2393558026},"geometry":{"type":"Point","coordinates":[100.5272491,13.6769773]}},{"type":"Feature","id":2397987932,"properties":{"amenity":"ferry_terminal","ferry":"yes","name":"วัดม่วงแค","name:en":"Wat Muang Kae","name:th":"วัดม่วงแค","public_transport":"stop_position","ref":"N2","wheelchair":"no","@type":"node","@id":2397987932},"geometry":{"type":"Point","coordinates":[100.5134803,13.7263089]}},{"type":"Feature","id":2519640795,"properties":{"amenity":"ferry_terminal","ferry":"yes","name":"ชาญอิสสระ","name:en":"Charn Issara","name:th":"ชาญอิสสระ","network":"NIDA Line","public_transport":"stop_position","ref":"E11","@type":"node","@id":2519640795},"geometry":{"type":"Point","coordinates":[100.5884556,13.7426935]}},{"type":"Feature","id":2618522299,"properties":{"amenity":"ferry_terminal","name":"ท่าเรือตลิ่งชัน","name:en":"Taling Chan Pier","opening_hours":"Sa-Su 09:00-17:00","@type":"node","@id":2618522299},"geometry":{"type":"Point","coordinates":[100.4563684,13.7758001]}},{"type":"Feature","id":2757817163,"properties":{"amenity":"ferry_terminal","ferry":"yes","name":"ท่าเรือข้ามฟากวัดกลางเกร็ด","name:en":"Wat Klang Kret Ferry","public_transport":"station","@type":"node","@id":2757817163},"geometry":{"type":"Point","coordinates":[100.4915896,13.9046597]}},{"type":"Feature","id":2757817164,"properties":{"amenity":"ferry_terminal","ferry":"yes","name":"ท่าเรือป่าฝ้าย","name:en":"Pa Fai","public_transport":"station","@type":"node","@id":2757817164},"geometry":{"type":"Point","coordinates":[100.4903118,13.9046617]}},{"type":"Feature","id":2902806579,"properties":{"amenity":"ferry_terminal","ferry":"yes","name":"วัดกลาง","name:en":"Wat Klang","name:th":"วัดกลาง","network":"NIDA Line","public_transport":"stop_position","ref":"E19","@type":"node","@id":2902806579},"geometry":{"type":"Point","coordinates":[100.633571,13.7634595]}},{"type":"Feature","id":2993468033,"properties":{"amenity":"ferry_terminal","ferry":"yes","name":"วัดระฆังฯ","name:en":"Wat Rakhang","name:th":"วัดระฆังฯ","public_transport":"stop_position","@type":"node","@id":2993468033},"geometry":{"type":"Point","coordinates":[100.486708,13.7525131]}},{"type":"Feature","id":2993472311,"properties":{"amenity":"ferry_terminal","country":"Thailand","ferry":"yes","name":"ท่าเรือวัดกัลยาณมิตร","name:en":"Wat Kanlayanamit Pier","name:th":"ท่าเรือวัดกัลยาณมิตร","public_transport":"stop_position","@type":"node","@id":2993472311},"geometry":{"type":"Point","coordinates":[100.4921971,13.7409626]}},{"type":"Feature","id":3053005367,"properties":{"amenity":"ferry_terminal","ferry":"yes","name":"ท่ารถไฟ","name:en":"Thonburi Railway","name:th":"ท่ารถไฟ","public_transport":"stop_position","ref":"N11","@type":"node","@id":3053005367},"geometry":{"type":"Point","coordinates":[100.4878041,13.759207]}},{"type":"Feature","id":3053005368,"properties":{"amenity":"ferry_terminal","ferry":"yes","name":"พรานนก","name:en":"Prannok","name:th":"พรานนก","public_transport":"stop_position","ref":"N10","wikidata":"Q16306411","wikimedia_commons":"Category:Prannok Pier","wikipedia":"th:ท่าวังหลังและท่าพรานนก","@type":"node","@id":3053005368},"geometry":{"type":"Point","coordinates":[100.4868725,13.7563104]}},{"type":"Feature","id":3053005369,"properties":{"man_made":"pier","name":"Phrapinklao Bridge","@type":"node","@id":3053005369},"geometry":{"type":"Point","coordinates":[100.4908384,13.7621096]}},{"type":"Feature","id":3309041468,"properties":{"amenity":"ferry_terminal","ferry":"yes","name":"ท่าช้าง","name:en":"Tha Chang","name:fr":"Tha Chang","name:th":"ท่าช้าง","public_transport":"stop_position","ref":"N9","@type":"node","@id":3309041468},"geometry":{"type":"Point","coordinates":[100.4883181,13.7531549]}},{"type":"Feature","id":3309041474,"properties":{"amenity":"ferry_terminal","ferry":"yes","name":"ท่าช้าง","name:en":"Tha Chang","name:fr":"Tha Chang","name:th":"ท่าช้าง","public_transport":"stop_position","ref":"N9","@type":"node","@id":3309041474},"geometry":{"type":"Point","coordinates":[100.4883207,13.7532018]}},{"type":"Feature","id":3309041483,"properties":{"addr:postcode":"10700","amenity":"ferry_terminal","ferry":"yes","name":"ท่าวังหลัง","name:en":"Tha Wang Lang","name:fr":"Tha Wang Lang","name:ja":"ワンラン N10","name:th":"ท่าวังหลัง","public_transport":"stop_position","@type":"node","@id":3309041483},"geometry":{"type":"Point","coordinates":[100.486861,13.7559054]}},{"type":"Feature","id":3309041492,"properties":{"amenity":"ferry_terminal","charge":"4.5Thb","ferry":"yes","name":"ท่าวังหลัง","name:en":"Tha Wang Lang","name:th":"ท่าวังหลัง","public_transport":"stop_position","@type":"node","@id":3309041492},"geometry":{"type":"Point","coordinates":[100.4868675,13.7560095]}},{"type":"Feature","id":3309041506,"properties":{"amenity":"ferry_terminal","charge":"4.5Thb","ferry":"yes","name":"ท่าพระจันทร์","name:en":"Tha Phra Chan","name:es":"Tha Phra Chan","name:etymology:wikidata":"Q16304366","name:th":"ท่าพระจันทร์","public_transport":"stop_position","@type":"node","@id":3309041506},"geometry":{"type":"Point","coordinates":[100.4886763,13.7565171]}},{"type":"Feature","id":3309041510,"properties":{"addr:postcode":"10200","amenity":"ferry_terminal","ferry":"yes","name":"ท่าพระจันทร์","name:en":"Tha Phra Chan","name:es":"Tha Phra Chan","name:etymology:wikidata":"Q16304366","name:th":"ท่าพระจันทร์","public_transport":"stop_position","@type":"node","@id":3309041510},"geometry":{"type":"Point","coordinates":[100.4887151,13.7566499]}},{"type":"Feature","id":3493488226,"properties":{"amenity":"ferry_terminal","ferry":"yes","name":"ท่าเรือวัดอรุณฯ","name:en":"Wat Arun Pier","name:es":"Wat Arun","name:th":"ท่าเรือวัดอรุณฯ","public_transport":"stop_position","@type":"node","@id":3493488226},"geometry":{"type":"Point","coordinates":[100.4892081,13.7449657]}},{"type":"Feature","id":3505137003,"properties":{"amenity":"ferry_terminal","ferry":"yes","name":"ท่าเรือกสท. โทรคมนาคม","name:th":"ท่าเรือกสท. โทรคมนาคม","public_transport":"stop_position","@type":"node","@id":3505137003},"geometry":{"type":"Point","coordinates":[100.5134675,13.7269639]}},{"type":"Feature","id":3542061069,"properties":{"amenity":"ferry_terminal","ferry":"yes","name":"เทเวศร์","name:en":"Thewet","name:ru":"Тхевет","name:th":"เทเวศร์","public_transport":"station","ref":"N15","@type":"node","@id":3542061069},"geometry":{"type":"Point","coordinates":[100.5000982,13.7720432]}},{"type":"Feature","id":3578835663,"properties":{"amenity":"ferry_terminal","ferry":"yes","name":"ท่าเรือตากสิน","name:en":"Taksin Pier","name:th":"ท่าเรือตากสิน","public_transport":"stop_position","@type":"node","@id":3578835663},"geometry":{"type":"Point","coordinates":[100.5113205,13.7200153]}},{"type":"Feature","id":3608386001,"properties":{"disused":"yes","man_made":"pier","name":"วัดต้นไทรย์","name:en":"Wat Ton Sai","name:th":"วัดต้นไทรย์","public_transport":"stop_position","was:amenity":"ferry_terminal","was:ferry":"yes","@type":"node","@id":3608386001},"geometry":{"type":"Point","coordinates":[100.6264973,13.7129509]}},{"type":"Feature","id":3667972113,"properties":{"amenity":"ferry_terminal","ferry":"yes","harbour":"yes","name":"ท่าเรือพระสมุทรเจดีย์","name:en":"Phra Samut Chedi Pier","name:th":"ท่าเรือพระสมุทรเจดีย์","public_transport":"stop_position","seamark:harbour:category":"ferry","@type":"node","@id":3667972113},"geometry":{"type":"Point","coordinates":[100.5865555,13.5971751]}},{"type":"Feature","id":3812958499,"properties":{"amenity":"ferry_terminal","ferry":"yes","name":"วัดคฤหบดี","name:en":"Wat Kharuehabodi","public_transport":"stop_position","@type":"node","@id":3812958499},"geometry":{"type":"Point","coordinates":[100.4971703,13.7718923]}},{"type":"Feature","id":3812958959,"properties":{"amenity":"ferry_terminal","ferry":"yes","name":"ท่าเรือวัดบวรมงคล","name:en":"Wat Bowon Mongkhon Pier","public_transport":"stop_position","@type":"node","@id":3812958959},"geometry":{"type":"Point","coordinates":[100.4980775,13.7742094]}},{"type":"Feature","id":3938835238,"properties":{"amenity":"ferry_terminal","ferry":"yes","name":"วัดโกรกกราก","name:en":"Wat Krok Krak","name:th":"วัดโกรกกราก","public_transport":"station","@type":"node","@id":3938835238},"geometry":{"type":"Point","coordinates":[100.2752587,13.5318873]}},{"type":"Feature","id":3946362036,"properties":{"amenity":"ferry_terminal","ferry":"yes","name":"ท่าเรือวัดสุวรรณ","name:en":"Wat Suwan Pier","name:th":"ท่าเรือวัดสุวรรณ","public_transport":"stop_position","@type":"node","@id":3946362036},"geometry":{"type":"Point","coordinates":[100.511844,13.7240879]}},{"type":"Feature","id":3946372581,"properties":{"amenity":"ferry_terminal","ferry":"yes","name":"ท่าเรือสี่พระยา (ประตู 1)","name:en":"Si Phraya Pier (Gate 1)","name:th":"ท่าเรือสี่พระยา (ประตู 1)","public_transport":"stop_position","ref":"1","@type":"node","@id":3946372581},"geometry":{"type":"Point","coordinates":[100.5129442,13.729432]}},{"type":"Feature","id":3946372582,"properties":{"amenity":"ferry_terminal","ferry":"yes","name":"ท่าเรือคลองสาน","name:en":"Khlong San Pier","name:th":"ท่าเรือคลองสาน","public_transport":"stop_position","@type":"node","@id":3946372582},"geometry":{"type":"Point","coordinates":[100.5116047,13.7291082]}},{"type":"Feature","id":4327591716,"properties":{"amenity":"ferry_terminal","ferry":"yes","name":"หัวลำโพง","name:en":"Hua Lamphong Pier","public_transport":"stop_position","ref":"2","wikidata":"Q131557189","@type":"node","@id":4327591716},"geometry":{"type":"Point","coordinates":[100.5157635,13.7409063]}},{"type":"Feature","id":4561417665,"properties":{"amenity":"ferry_terminal","ferry":"yes","name":"ท่าเรือคลองลัดโพธิ์","name:en":"Khlong Lat Pho Pier","public_transport":"stop_position","@type":"node","@id":4561417665},"geometry":{"type":"Point","coordinates":[100.5387609,13.6678718]}},{"type":"Feature","id":4561417666,"properties":{"amenity":"ferry_terminal","ferry":"yes","name":"ท่าเรือพระรามที่ 3","name:en":"Rama III Pier","public_transport":"stop_position","@type":"node","@id":4561417666},"geometry":{"type":"Point","coordinates":[100.538448,13.6703741]}},{"type":"Feature","id":4566970962,"properties":{"amenity":"ferry_terminal","ferry":"yes","name":"ท่าเรือสาทร","name:en":"Sathorn Pier","public_transport":"stop_position","@type":"node","@id":4566970962},"geometry":{"type":"Point","coordinates":[100.5125661,13.7183726]}},{"type":"Feature","id":4586843050,"properties":{"amenity":"ferry_terminal","check_date":"2024-03-10","ferry":"yes","name":"สะพานหัวช้าง","name:en":"Sapan Hua Chang","name:ru":"Sapan Hua Chang","name:th":"สะพานหัวช้าง","network":"Golden Mount Line","public_transport":"stop_position","ref":"W1","@type":"node","@id":4586843050},"geometry":{"type":"Point","coordinates":[100.5308829,13.7491969]}},{"type":"Feature","id":4801299808,"properties":{"amenity":"ferry_terminal","ferry":"yes","name":"ท่าเรือวัดคลองเตยนอก","name:en":"Wat Khlong Toei Nok Pier","public_transport":"stop_position","@type":"node","@id":4801299808},"geometry":{"type":"Point","coordinates":[100.5635823,13.7072028]}},{"type":"Feature","id":5365165134,"properties":{"amenity":"ferry_terminal","name":"ท่าเรือ เคหะทุ่งสองห้อง","name:en":"Tongsonghong pier","@type":"node","@id":5365165134},"geometry":{"type":"Point","coordinates":[100.5885078,13.9006671]}},{"type":"Feature","id":5818119896,"properties":{"amenity":"ferry_terminal","ferry":"yes","name":"วัดสร้อยทอง","name:en":"Wat Soi Thong","name:th":"วัดสร้อยทอง","public_transport":"station","ref":"N23","@type":"node","@id":5818119896},"geometry":{"type":"Point","coordinates":[100.517481,13.8120953]}},{"type":"Feature","id":5835645103,"properties":{"disused:amenity":"ferry_terminal","ferry":"yes","name":"ท่าเรือคลองบางลำพู","name:en":"Kllong Banglamphu (not operated)","name:th":"ท่าเรือคลองบางลำพู","public_transport":"station","short_name:th":"คลองบางลำพู","@type":"node","@id":5835645103},"geometry":{"type":"Point","coordinates":[100.4983744,13.7627136]}},{"type":"Feature","id":6150815344,"properties":{"amenity":"ferry_terminal","country":"ไทย","ferry":"yes","name":"ท่าเรือไอคอนสยาม 2","name:en":"Icon Siam Pier 2","name:th":"ท่าเรือไอคอนสยาม 2","public_transport":"station","wheelchair":"yes","@type":"node","@id":6150815344},"geometry":{"type":"Point","coordinates":[100.5118539,13.7266265]}},{"type":"Feature","id":6150815346,"properties":{"amenity":"ferry_terminal","country":"Thailand","ferry":"yes","name":"ท่าเรือไอคอนสยาม 4","name:en":"Icon Siam Pier 4","name:th":"ท่าเรือไอคอนสยาม 4","province":"Bangkok","public_transport":"stop_position","ref":"N2/1","@type":"node","@id":6150815346},"geometry":{"type":"Point","coordinates":[100.5117949,13.7275593]}},{"type":"Feature","id":6158336920,"properties":{"amenity":"ferry_terminal","description":"ท่าเรือข้ามฟาก ท่าน้ำบางศรีเมือง (ferry boat); Ferry fee 4 THB (updated: 2022-06-01); Pay at Bangsrimuang Pier.","fee":"yes","ferry":"yes","name":"ท่าเรือข้ามฟากบางศรีเมือง","name:en":"Bang Si Mueang Ferry Pier","name:th":"ท่าเรือข้ามฟากบางศรีเมือง","payment:cash":"yes","public_transport":"station","@type":"node","@id":6158336920},"geometry":{"type":"Point","coordinates":[100.4892735,13.8418947]}},{"type":"Feature","id":6158344590,"properties":{"amenity":"ferry_terminal","ferry":"yes","name":"ท่าน้ำนนทบุรี","name:en":"Nonthaburi Pier","name:th":"ท่าน้ำนนทบุรี","public_transport":"station","wikidata":"Q64746744","wikipedia":"en:Nonthaburi Pier","@type":"node","@id":6158344590},"geometry":{"type":"Point","coordinates":[100.4910036,13.8421696]}},{"type":"Feature","id":6167718985,"properties":{"amenity":"ferry_terminal","bench":"no","bin":"no","ferry":"yes","name":"ป้อมพระสุเมรุ","name:en":"Phra Sumen Fort","name:th":"ป้อมพระสุเมรุ","public_transport":"station","ref":"7","@type":"node","@id":6167718985},"geometry":{"type":"Point","coordinates":[100.4963148,13.7641078]}},{"type":"Feature","id":6174365548,"properties":{"floating":"yes","man_made":"pier","name":"Icon Siam Pontoon 1B","@type":"node","@id":6174365548},"geometry":{"type":"Point","coordinates":[100.5118963,13.7262037]}},{"type":"Feature","id":6463773574,"properties":{"amenity":"ferry_terminal","country":"Thailand","ferry":"yes","name":"วัดอรุณราชวราราม","name:en":"Wat Arun Ratchawararam","name:th":"วัดอรุณราชวราราม","province":"Bangkok","public_transport":"stop_position","ref":"1","@type":"node","@id":6463773574},"geometry":{"type":"Point","coordinates":[100.4899411,13.7438761]}},{"type":"Feature","id":6463773575,"properties":{"amenity":"ferry_terminal","country":"ไทย","ferry":"yes","name":"วัดอรุณราชวราราม","name:en":"Wat Arun Ratchawararam","name:th":"วัดอรุณราชวราราม","province":"กรุงเทพมหานคร","public_transport":"stop_position","ref":"2","@type":"node","@id":6463773575},"geometry":{"type":"Point","coordinates":[100.489838,13.7440526]}},{"type":"Feature","id":6548920526,"properties":{"amenity":"ferry_terminal","ferry":"yes","name":"บางหว้า","name:en":"Bang Wa","name:th":"บางหว้า","old_name":"สะพานตากสิน-เพชรเกษม","old_name:en":"Saphan Taksin-Phetchakasem","public_transport":"stop_position","ref":"P4","@type":"node","@id":6548920526},"geometry":{"type":"Point","coordinates":[100.45815,13.7187206]}},{"type":"Feature","id":6549136021,"properties":{"amenity":"ferry_terminal","description":"ท่าเรือข้ามฟาก ท่าน้ำบางศรีเมือง (ferry boat) Ferry fee 3.50 Baht. Pay at Bangsrimuang Pier.","fee":"yes","ferry":"yes","name":"ท่าเรือเทศบาลเมืองบางศรีเมือง","name:en":"Bang Si Mueang Ferry Pier","name:th":"ท่าเรือเทศบาลเมืองบางศรีเมือง","payment:cash":"yes","public_transport":"station","@type":"node","@id":6549136021},"geometry":{"type":"Point","coordinates":[100.4892994,13.8419006]}},{"type":"Feature","id":6549136022,"properties":{"amenity":"ferry_terminal","description":"ท่าเรือข้ามฟาก ท่าน้ำนนทบุรี (ferry boat)\nFerry fee 3.50 Baht. Pay at Bangsrimuang Pier.","ferry":"yes","name":"ท่าเรือข้ามฟากท่าน้ำนนท์","name:en":"Nonthaburi Ferry Pier","name:th":"ท่าเรือข้ามฟากท่าน้ำนนท์","public_transport":"station","@type":"node","@id":6549136022},"geometry":{"type":"Point","coordinates":[100.4910185,13.8425105]}},{"type":"Feature","id":7791237198,"properties":{"amenity":"ferry_terminal","ferry":"yes","name":"วัดเศวตฉัตร","name:en":"Wat Sawetachat","name:th":"วัดเศวตฉัตร","public_transport":"stop_position","ref":"S1","@type":"node","@id":7791237198},"geometry":{"type":"Point","coordinates":[100.5071847,13.7126629]}},{"type":"Feature","id":7791237205,"properties":{"amenity":"ferry_terminal","ferry":"yes","name":"วัดเทพนารี","name:en":"Wat Thepnahree","public_transport":"stop_position","ref":"N17","@type":"node","@id":7791237205},"geometry":{"type":"Point","coordinates":[100.5023314,13.7839664]}},{"type":"Feature","id":7791237208,"properties":{"amenity":"ferry_terminal","ferry":"yes","name":"วัดเทพากร","name:en":"Wat Thepakorn","public_transport":"stop_position","ref":"N17/1","@type":"node","@id":7791237208},"geometry":{"type":"Point","coordinates":[100.5034266,13.7855317]}},{"type":"Feature","id":7791237213,"properties":{"amenity":"ferry_terminal","ferry":"yes","name":"กรมชลประทาน","name:en":"Irrigation Dept.","name:th":"กรมชลประทาน","public_transport":"stop_position","ref":"N19","@type":"node","@id":7791237213},"geometry":{"type":"Point","coordinates":[100.50953,13.7888406]}},{"type":"Feature","id":7791237216,"properties":{"amenity":"ferry_terminal","ferry":"yes","name":"ท่าเรือวัดอาวุธวิกสิตาราม","name:en":"Wat Awut Wikasitaram Pier","public_transport":"stop_position","@type":"node","@id":7791237216},"geometry":{"type":"Point","coordinates":[100.5069843,13.7894033]}},{"type":"Feature","id":7791237220,"properties":{"amenity":"ferry_terminal","ferry":"yes","name":"เขียวไข่กา","name:en":"Kheaw Khai Ka","public_transport":"stop_position","ref":"N20","@type":"node","@id":7791237220},"geometry":{"type":"Point","coordinates":[100.5115992,13.7911233]}},{"type":"Feature","id":7791237222,"properties":{"amenity":"ferry_terminal","ferry":"yes","name":"พิบูลสงคราม 1","name:en":"Pibul 1","public_transport":"station","ref":"N25","@type":"node","@id":7791237222},"geometry":{"type":"Point","coordinates":[100.5055923,13.8176906]}},{"type":"Feature","id":7791237223,"properties":{"amenity":"ferry_terminal","ferry":"yes","name":"วัดเขมา","name:en":"Wat Khema","public_transport":"stop_position","ref":"N26","@type":"node","@id":7791237223},"geometry":{"type":"Point","coordinates":[100.5020832,13.8218306]}},{"type":"Feature","id":7791237224,"properties":{"amenity":"ferry_terminal","ferry":"yes","name":"วัดตึก","name:en":"Wat Tuek","public_transport":"stop_position","ref":"N27","@type":"node","@id":7791237224},"geometry":{"type":"Point","coordinates":[100.4988743,13.8245003]}},{"type":"Feature","id":7791237225,"properties":{"amenity":"ferry_terminal","ferry":"yes","name":"บ้านพักข้าราชบริพารติวานนท์","name:en":"Office Residence Tiwanon","name:th":"บ้านพักข้าราชบริพารติวานนท์","public_transport":"stop_position","ref":"N31/1","@type":"node","@id":7791237225},"geometry":{"type":"Point","coordinates":[100.4909799,13.8980124]}},{"type":"Feature","id":7812385553,"properties":{"amenity":"ferry_terminal","ferry":"yes","name":"รามหนึ่ง","name:en":"Ramnueng","name:th":"รามหนึ่ง","network":"NIDA Line","public_transport":"stop_position","ref":"E13-1","@type":"node","@id":7812385553},"geometry":{"type":"Point","coordinates":[100.5988984,13.7433182]}},{"type":"Feature","id":7829305293,"properties":{"amenity":"ferry_terminal","ferry":"yes","name":"สะพานประชารัฐ","name:en":"Saphan Pracharat","name:th":"สะพานประชารัฐ","public_transport":"stop_position","ref":"P3","@type":"node","@id":7829305293},"geometry":{"type":"Point","coordinates":[100.4630925,13.7203967]}},{"type":"Feature","id":7829305294,"properties":{"amenity":"ferry_terminal","ferry":"yes","name":"อู่รถเมล์สาย 9","name:en":"U Rot Me Sai 9","name:th":"อู่รถเมล์สาย 9","public_transport":"stop_position","ref":"P2","@type":"node","@id":7829305294},"geometry":{"type":"Point","coordinates":[100.4662287,13.7213471]}},{"type":"Feature","id":7829305295,"properties":{"amenity":"ferry_terminal","ferry":"yes","name":"ประตูน้ำภาษีเจริญ","name:en":"Pratunam Phasi Charoen","name:th":"ประตูน้ำภาษีเจริญ","public_transport":"stop_position","ref":"P1","@type":"node","@id":7829305295},"geometry":{"type":"Point","coordinates":[100.4681348,13.7221535]}},{"type":"Feature","id":7829305296,"properties":{"amenity":"ferry_terminal","ferry":"yes","name":"วัดอ่างแก้ว","name:en":"Wat Ang Kaeo","name:th":"วัดอ่างแก้ว","public_transport":"stop_position","ref":"P5","@type":"node","@id":7829305296},"geometry":{"type":"Point","coordinates":[100.4544451,13.7172143]}},{"type":"Feature","id":7829305297,"properties":{"amenity":"ferry_terminal","ferry":"yes","name":"เพชรเกษม 31","name:en":"Phetchakasem 31","name:th":"เพชรเกษม 31","public_transport":"stop_position","ref":"P6","@type":"node","@id":7829305297},"geometry":{"type":"Point","coordinates":[100.4449103,13.7139955]}},{"type":"Feature","id":7829305298,"properties":{"amenity":"ferry_terminal","ferry":"yes","name":"วัดรางบัว","name:en":"Wat Rang Bua","name:th":"วัดรางบัว","public_transport":"stop_position","ref":"P7","@type":"node","@id":7829305298},"geometry":{"type":"Point","coordinates":[100.4387022,13.7116659]}},{"type":"Feature","id":7829305300,"properties":{"amenity":"ferry_terminal","ferry":"yes","name":"เพชรเกษม 35","name:en":"Phetchakasem 35","name:th":"เพชรเกษม 35","public_transport":"stop_position","ref":"P8","@type":"node","@id":7829305300},"geometry":{"type":"Point","coordinates":[100.4324609,13.7095775]}},{"type":"Feature","id":7829305301,"properties":{"amenity":"ferry_terminal","ferry":"yes","name":"เพชรเกษม 37","name:en":"Phetchakasem 37","name:th":"เพชรเกษม 37","public_transport":"stop_position","ref":"P9","@type":"node","@id":7829305301},"geometry":{"type":"Point","coordinates":[100.4311793,13.7091445]}},{"type":"Feature","id":7829305302,"properties":{"amenity":"ferry_terminal","ferry":"yes","name":"เพชรเกษม 39","name:en":"Phetchakasem 39","name:th":"เพชรเกษม 39","public_transport":"stop_position","ref":"P10","@type":"node","@id":7829305302},"geometry":{"type":"Point","coordinates":[100.4291649,13.7084408]}},{"type":"Feature","id":7829305303,"properties":{"amenity":"ferry_terminal","ferry":"yes","name":"วัดนิมมานรดี","name:en":"Wat Nimmanoradi","name:th":"วัดนิมมานรดี","public_transport":"stop_position","ref":"P11","@type":"node","@id":7829305303},"geometry":{"type":"Point","coordinates":[100.4269942,13.707651]}},{"type":"Feature","id":7829305304,"properties":{"amenity":"ferry_terminal","ferry":"yes","name":"เกษตรบางแค","name:en":"Kaset Bang Khae","name:th":"เกษตรบางแค","public_transport":"stop_position","ref":"P12","@type":"node","@id":7829305304},"geometry":{"type":"Point","coordinates":[100.4211857,13.7056321]}},{"type":"Feature","id":7829305306,"properties":{"amenity":"ferry_terminal","ferry":"yes","name":"สะพานกาญจนาภิเษก","name:en":"Saphan Kanchanaphisek","name:th":"สะพานกาญจนาภิเษก","public_transport":"stop_position","ref":"P13","@type":"node","@id":7829305306},"geometry":{"type":"Point","coordinates":[100.4063211,13.7003061]}},{"type":"Feature","id":7829305307,"properties":{"amenity":"ferry_terminal","ferry":"yes","name":"วัดม่วง","name:en":"Wat Muang","name:th":"วัดม่วง","public_transport":"stop_position","ref":"P14","@type":"node","@id":7829305307},"geometry":{"type":"Point","coordinates":[100.3925572,13.6954285]}},{"type":"Feature","id":7829305308,"properties":{"amenity":"ferry_terminal","ferry":"yes","name":"เพชรเกษม 69","name:en":"Phetchakasem 69","name:th":"เพชรเกษม 69","public_transport":"stop_position","ref":"P15","@type":"node","@id":7829305308},"geometry":{"type":"Point","coordinates":[100.38142,13.6917591]}},{"type":"Feature","id":7829305344,"properties":{"disused":"yes","man_made":"pier","name":"วัดทองใน","name:en":"Wat Thong Nai","name:th":"วัดทองใน","public_transport":"stop_position","was:amenity":"ferry_terminal","was:ferry":"yes","@type":"node","@id":7829305344},"geometry":{"type":"Point","coordinates":[100.621422,13.711764]}},{"type":"Feature","id":7829320691,"properties":{"amenity":"ferry_terminal","ferry":"yes","name":"ท่าเรือเภตรา","name:en":"Phetra Pier","name:th":"ท่าเรือเภตรา","operator":"ห้างหุ้นส่วนจำกัดเภตรา","public_transport":"stop_position","@type":"node","@id":7829320691},"geometry":{"type":"Point","coordinates":[100.53743,13.6577342]}},{"type":"Feature","id":7829320700,"properties":{"amenity":"ferry_terminal","ferry":"yes","name":"ท่าเรือแพเจี๊ยบ","name:en":"Pae Jeab Pier","public_transport":"stop_position","@type":"node","@id":7829320700},"geometry":{"type":"Point","coordinates":[100.559241,13.7051128]}},{"type":"Feature","id":7829320711,"properties":{"amenity":"ferry_terminal","ferry":"yes","name":"ท่าเรือวัดบางพึ่ง","name:en":"Wat Bang Phueng Pier","public_transport":"stop_position","@type":"node","@id":7829320711},"geometry":{"type":"Point","coordinates":[100.5235959,13.6750474]}},{"type":"Feature","id":7829320712,"properties":{"amenity":"ferry_terminal","ferry":"yes","name":"ท่าเรือสาทร","name:en":"Sathon Pier","name:th":"ท่าเรือสาทร","public_transport":"stop_position","@type":"node","@id":7829320712},"geometry":{"type":"Point","coordinates":[100.5128954,13.7193143]}},{"type":"Feature","id":7829320722,"properties":{"amenity":"ferry_terminal","ferry":"yes","name":"ท่าเรือวัดทองธรรมชาติ","name:en":"Wat Thong Thammachat Pier","public_transport":"stop_position","@type":"node","@id":7829320722},"geometry":{"type":"Point","coordinates":[100.5082762,13.7352241]}},{"type":"Feature","id":7829320737,"properties":{"amenity":"ferry_terminal","ferry":"yes","name":"ท่าเรือสวัสดี","name:en":"Sawatdi Pier","public_transport":"stop_position","@type":"node","@id":7829320737},"geometry":{"type":"Point","coordinates":[100.5093072,13.7361988]}},{"type":"Feature","id":8093957531,"properties":{"amenity":"ferry_terminal","ferry":"yes","name":"วัดตึกมหาชยาราม","name:th":"วัดตึกมหาชยาราม","public_transport":"station","@type":"node","@id":8093957531},"geometry":{"type":"Point","coordinates":[100.2777978,13.5447738]}},{"type":"Feature","id":8093957532,"properties":{"amenity":"ferry_terminal","ferry":"yes","name":"วัดมหาชัยคล้ายนิมิตร","name:th":"วัดมหาชัยคล้ายนิมิตร","public_transport":"station","@type":"node","@id":8093957532},"geometry":{"type":"Point","coordinates":[100.2776044,13.5450304]}},{"type":"Feature","id":8130282595,"properties":{"amenity":"ferry_terminal","ferry":"yes","name":"ท่าเรือสถานีรถไฟหัวลำโพง","name:en":"Hua Lamphong Station Pier","name:th":"ท่าเรือสถานีรถไฟหัวลำโพง","public_transport":"stop_position","ref":"1","wikidata":"Q131555970","@type":"node","@id":8130282595},"geometry":{"type":"Point","coordinates":[100.515741,13.7386935]}},{"type":"Feature","id":8130282598,"properties":{"amenity":"ferry_terminal","ferry":"yes","name":"ท่าเรือนพวงศ์","name:en":"Nopphawong Pier","name:th":"ท่าเรือนพวงศ์","public_transport":"stop_position","ref":"3","wikidata":"Q131557195","@type":"node","@id":8130282598},"geometry":{"type":"Point","coordinates":[100.5163042,13.7449517]}},{"type":"Feature","id":8130282601,"properties":{"amenity":"ferry_terminal","ferry":"yes","name":"ท่าเรือยศเส","name:en":"Yotse Pier","name:th":"ท่าเรือยศเส","public_transport":"stop_position","ref":"4","wikidata":"Q131557201","@type":"node","@id":8130282601},"geometry":{"type":"Point","coordinates":[100.5164749,13.7468323]}},{"type":"Feature","id":8130282604,"properties":{"amenity":"ferry_terminal","ferry":"yes","name":"ท่าเรือกระทรวงพลังงาน","name:en":"Department of Energy Pier","name:th":"ท่าเรือกระทรวงพลังงาน","public_transport":"stop_position","ref":"5","wikidata":"Q131557203","@type":"node","@id":8130282604},"geometry":{"type":"Point","coordinates":[100.5170059,13.7492906]}},{"type":"Feature","id":8130282610,"properties":{"amenity":"ferry_terminal","ferry":"yes","name":"ท่าเรือนครสวรรค์","name:en":"Nakhon Sawan Pier","name:th":"ท่าเรือนครสวรรค์","public_transport":"stop_position","ref":"7","wikidata":"Q131557223","@type":"node","@id":8130282610},"geometry":{"type":"Point","coordinates":[100.5132132,13.7597686]}},{"type":"Feature","id":8130282613,"properties":{"amenity":"ferry_terminal","ferry":"yes","name":"ท่าเรือราชดำเนินนอก","name:en":"Ratchadamnoen Nok Pier","name:th":"ท่าเรือราชดำเนินนอก","public_transport":"stop_position","ref":"8","wikidata":"Q131557226","@type":"node","@id":8130282613},"geometry":{"type":"Point","coordinates":[100.5100915,13.7628618]}},{"type":"Feature","id":8130282615,"properties":{"amenity":"ferry_terminal","ferry":"yes","name":"ประชาธิปไตย","name:en":"Praca Thippatai","name:th":"ทประชาธิปไตย","public_transport":"stop_position","ref":"9","wikidata":"Q131557234","@type":"node","@id":8130282615},"geometry":{"type":"Point","coordinates":[100.50796,13.7650838]}},{"type":"Feature","id":8130294620,"properties":{"amenity":"ferry_terminal","ferry":"yes","name":"ทตลาดเทวราช","name:en":"Thevaraj Market","name:th":"ตลาดเทวราช","public_transport":"stop_position","ref":"11","wikidata":"Q131557242","@type":"node","@id":8130294620},"geometry":{"type":"Point","coordinates":[100.5020131,13.7711639]}},{"type":"Feature","id":8130294690,"properties":{"amenity":"ferry_terminal","ferry":"yes","name":"ท่าเรือเทเวศร์","name:en":"Thewet Pier","name:th":"ท่าเรือเทเวศร์","public_transport":"stop_position","ref":"10","wikidata":"Q131557237","@type":"node","@id":8130294690},"geometry":{"type":"Point","coordinates":[100.5048108,13.7685662]}},{"type":"Feature","id":9622825431,"properties":{"amenity":"ferry_terminal","ferry":"yes","name":"ท่าช้าง","name:en":"Tha Chang","name:fr":"Tha Chang","name:th":"ท่าช้าง","public_transport":"stop_position","ref":"N9","@type":"node","@id":9622825431},"geometry":{"type":"Point","coordinates":[100.488274,13.7527005]}},{"type":"Feature","id":9758722596,"properties":{"amenity":"ferry_terminal","ferry":"yes","name":"โรงเรียนพร้อมมิตรพิทยา","name:en":"Prommitpittaya School","name:th":"โรงเรียนพร้อมมิตรพิทยา","public_transport":"station","@type":"node","@id":9758722596},"geometry":{"type":"Point","coordinates":[100.6558743,13.7705309]}},{"type":"Feature","id":9758722599,"properties":{"amenity":"ferry_terminal","ferry":"yes","name":"พาซิโอ","name:en":"Paseo","name:th":"พาซิโอ","public_transport":"station","@type":"node","@id":9758722599},"geometry":{"type":"Point","coordinates":[100.6658655,13.7758477]}},{"type":"Feature","id":9758722602,"properties":{"amenity":"ferry_terminal","ferry":"yes","name":"เสรีไทย 26","name:en":"Seri Thai 26","name:th":"เสรีไทย 26","public_transport":"station","@type":"node","@id":9758722602},"geometry":{"type":"Point","coordinates":[100.6745504,13.7807959]}},{"type":"Feature","id":9758722604,"properties":{"amenity":"ferry_terminal","ferry":"yes","name":"คลองระหัส","name:en":"Khlong Rahat","name:th":"คลองระหัส","public_transport":"station","@type":"node","@id":9758722604},"geometry":{"type":"Point","coordinates":[100.6786888,13.7830846]}},{"type":"Feature","id":9758722607,"properties":{"amenity":"ferry_terminal","ferry":"yes","name":"หมู่บ้านร่มไทร","name:en":"Rom Sai Village","name:th":"หมู่บ้านร่มไทร","public_transport":"station","@type":"node","@id":9758722607},"geometry":{"type":"Point","coordinates":[100.6814395,13.7846294]}},{"type":"Feature","id":9758722610,"properties":{"amenity":"ferry_terminal","ferry":"yes","name":"สุเหร่าแดง","name:en":"Red Mosque Pier","name:th":"สุเหร่าแดง","public_transport":"station","@type":"node","@id":9758722610},"geometry":{"type":"Point","coordinates":[100.6892481,13.7888569]}},{"type":"Feature","id":9758722613,"properties":{"amenity":"ferry_terminal","ferry":"yes","name":"ชุมชนหลอแหลใหญ่","name:en":"Lolae Yai Community","name:th":"ชุมชนหลอแหลใหญ่","public_transport":"station","@type":"node","@id":9758722613},"geometry":{"type":"Point","coordinates":[100.695633,13.7925051]}},{"type":"Feature","id":9758735118,"properties":{"amenity":"ferry_terminal","ferry":"yes","name":"Lower Bang Chan Dam Pier","public_transport":"station","@type":"node","@id":9758735118},"geometry":{"type":"Point","coordinates":[100.7042362,13.7971962]}},{"type":"Feature","id":9758735121,"properties":{"amenity":"ferry_terminal","ferry":"yes","name":"Upper Bang Chan Dam Pier","public_transport":"station","@type":"node","@id":9758735121},"geometry":{"type":"Point","coordinates":[100.7047798,13.7975034]}},{"type":"Feature","id":9758735123,"properties":{"amenity":"ferry_terminal","ferry":"yes","name":"Talat Minburi Pier","public_transport":"station","@type":"node","@id":9758735123},"geometry":{"type":"Point","coordinates":[100.7290701,13.8109446]}},{"type":"Feature","id":9758735125,"properties":{"amenity":"ferry_terminal","ferry":"yes","name":"Khet Minburi Pier","public_transport":"station","@type":"node","@id":9758735125},"geometry":{"type":"Point","coordinates":[100.731232,13.8120955]}},{"type":"Feature","id":10726384742,"properties":{"amenity":"ferry_terminal","ferry":"yes","name":"ท่าเรือสี่พระยา (ประตู 2)","name:en":"Si Phraya Pier (Gate 2)","name:th":"ท่าเรือสี่พระยา (ประตู 2)","public_transport":"stop_position","ref":"2","@type":"node","@id":10726384742},"geometry":{"type":"Point","coordinates":[100.5129272,13.729504]}},{"type":"Feature","id":11264893194,"properties":{"amenity":"ferry_terminal","ferry":"yes","internet_access":"no","name":"ท่าเรือวัดลาดสนุ่น","name:en":"Wat Lad Sanun Pier","name:th":"ท่าเรือวัดลาดสนุ่น","public_transport":"station","@type":"node","@id":11264893194},"geometry":{"type":"Point","coordinates":[100.6357097,13.9599829]}},{"type":"Feature","id":11466860298,"properties":{"amenity":"ferry_terminal","ferry":"yes","name":"ท่าเรือลพชัย ตลาดเก่าริมน้ำปากเกร็ด","public_transport":"station","@type":"node","@id":11466860298},"geometry":{"type":"Point","coordinates":[100.4954005,13.915644]}},{"type":"Feature","id":11466860301,"properties":{"amenity":"ferry_terminal","ferry":"yes","public_transport":"station","@type":"node","@id":11466860301},"geometry":{"type":"Point","coordinates":[100.4949538,13.9176042]}},{"type":"Feature","id":11743570947,"properties":{"amenity":"ferry_terminal","description":"왓 아룬 가는 나루; cross rhe river","ferry":"yes","image":"https://images.mapillary.com/cRJJWo0oy6N2sKqgA7nWRA/thumb-2048.jpg","mapillary":"325115346413718","name":"ท่าเตียน","name:en":"Tha Tien","name:he":"טאן טיאן","name:ko":"타 띠엔","name:ru":"Tha Tien","name:th":"ท่าเตียน","operator":"CPX-B, CPX-O, CPX-T","province":"Bangkok","public_transport":"stop_position","ref":"N8","@type":"node","@id":11743570947},"geometry":{"type":"Point","coordinates":[100.4900957,13.7458358]}},{"type":"Feature","id":11743570949,"properties":{"amenity":"ferry_terminal","description":"왓 아룬 가는 나루; cross rhe river","ferry":"yes","image":"https://images.mapillary.com/cRJJWo0oy6N2sKqgA7nWRA/thumb-2048.jpg","mapillary":"325115346413718","name":"ท่าเตียน","name:en":"Tha Tien","name:he":"טאן טיאן","name:ko":"타 띠엔","name:ru":"Тиан","name:th":"ท่าเตียน","operator":"CPX-B, CPX-O, CPX-T","province":"กรุงเทพมหานคร","public_transport":"stop_position","ref":"N8","@type":"node","@id":11743570949},"geometry":{"type":"Point","coordinates":[100.4903196,13.7455462]}},{"type":"Feature","id":11743570951,"properties":{"amenity":"ferry_terminal","country":"ไทย","description":"왓 아룬 가는 나루; cross rhe river","ferry":"yes","image":"https://images.mapillary.com/cRJJWo0oy6N2sKqgA7nWRA/thumb-2048.jpg","mapillary":"325115346413718","name":"ท่าเตียน","name:en":"Tha Tien","name:he":"טאן טיאן","name:ko":"타 띠엔","name:ru":"Tha Tien","name:th":"ท่าเตียน","operator":"CPX-B, CPX-O, CPX-T","province":"Bangkok","public_transport":"stop_position","ref":"N8","@type":"node","@id":11743570951},"geometry":{"type":"Point","coordinates":[100.4904047,13.7454115]}},{"type":"Feature","id":11770982523,"properties":{"addr:district":"เมืองสมุทรสาคร","addr:postcode":"74000","addr:province":"สมุทรสาคร","addr:subdistrict":"ท่าฉลอม","amenity":"ferry_terminal","country":"ไทย","ferry":"yes","name":"สุขาภิบาลท่าฉลอม","name:th":"สุขาภิบาลท่าฉลอม","province":"สมุทรสาคร","public_transport":"station","@type":"node","@id":11770982523},"geometry":{"type":"Point","coordinates":[100.2749015,13.5343852]}},{"type":"Feature","id":12432276105,"properties":{"amenity":"ferry_terminal","ferry":"yes","name":"ท่าเรือวัดคูหาสวรรค์","public_transport":"station","@type":"node","@id":12432276105},"geometry":{"type":"Point","coordinates":[100.4626175,13.7327251]}},{"type":"Feature","id":12442803776,"properties":{"amenity":"ferry_terminal","ferry":"yes","name":"ท่าเรือสยามเจริญนคร","name:en":"Siam Charoen Nakhon Pier","name:th":"ท่าเรือสยามเจริญนคร","public_transport":"station","@type":"node","@id":12442803776},"geometry":{"type":"Point","coordinates":[100.490689,13.7019305]}},{"type":"Feature","id":12508852179,"properties":{"amenity":"ferry_terminal","ferry":"yes","name":"ท่าเรือวัดคลองภูมิ","name:th":"ท่าเรือวัดคลองภูมิ","public_transport":"station","@type":"node","@id":12508852179},"geometry":{"type":"Point","coordinates":[100.5503944,13.6800533]}},{"type":"Feature","id":12528905212,"properties":{"amenity":"ferry_terminal","ferry":"yes","public_transport":"station","@type":"node","@id":12528905212},"geometry":{"type":"Point","coordinates":[100.5868972,13.6819114]}},{"type":"Feature","id":12616016860,"properties":{"amenity":"ferry_terminal","ferry":"yes","name":"เสรีไทย 16","name:en":"Seri Thai 16","name:th":"เสรีไทย 16","public_transport":"station","@type":"node","@id":12616016860},"geometry":{"type":"Point","coordinates":[100.6712175,13.7789834]}},{"type":"Feature","id":12616016864,"properties":{"amenity":"ferry_terminal","ferry":"yes","@type":"node","@id":12616016864},"geometry":{"type":"Point","coordinates":[100.6715048,13.779176]}},{"type":"Feature","id":12616016866,"properties":{"amenity":"ferry_terminal","ferry":"yes","@type":"node","@id":12616016866},"geometry":{"type":"Point","coordinates":[100.6715953,13.7790449]}},{"type":"Feature","id":13377689098,"properties":{"amenity":"ferry_terminal","ferry":"yes","foot":"yes","internet_access":"no","name":"วัดซางตาครู้ส","name:en":"Santa Cruz Church","name:th":"วัดซางตาครู้ส","public_transport":"station","@type":"node","@id":13377689098},"geometry":{"type":"Point","coordinates":[100.4941534,13.7397308]}},{"type":"Feature","id":13452383201,"properties":{"amenity":"ferry_terminal","ferry":"yes","name:en":"Wat Pho","public_transport":"station","@type":"node","@id":13452383201},"geometry":{"type":"Point","coordinates":[100.4915217,13.7440374]}},{"type":"Feature","id":13608990763,"properties":{"amenity":"ferry_terminal","ferry":"yes","name":"ตลาดพลู","name:th":"ตลาดพลู","public_transport":"station","@type":"node","@id":13608990763},"geometry":{"type":"Point","coordinates":[100.4771199,13.7224408]}},{"type":"Feature","id":13730281933,"properties":{"amenity":"ferry_terminal","ferry":"yes","name":"เนาวจำเนียร","name:en":"Naowachamnian","name:th":"เนาวจำเนียร","public_transport":"station","@type":"node","@id":13730281933},"geometry":{"type":"Point","coordinates":[100.4853642,13.7277262]}},{"type":"Feature","id":29976999,"properties":{"amenity":"ferry_terminal","building":"yes","ferry":"yes","name":"Chedi Pier","public_transport":"station","@type":"way","@id":29976999},"geometry":{"type":"Point","coordinates":[100.5869272,13.5992371]}},{"type":"Feature","id":40274645,"properties":{"area":"yes","man_made":"pier","name":"ท่าเรือบางกะเจ้า","name:en":"Bang Kachao Pier","note":"To Klong Toey Port pier","@type":"way","@id":40274645},"geometry":{"type":"Point","coordinates":[100.5628067,13.7042538]}},{"type":"Feature","id":40346505,"properties":{"area":"yes","man_made":"pier","name":"ท่าเรือวัดบางน้ำผึ้งนอก","name:en":"Wat Bang Nam Phueng Nok Pier","@type":"way","@id":40346505},"geometry":{"type":"Point","coordinates":[100.5870416,13.6825169]}},{"type":"Feature","id":178329996,"properties":{"area":"yes","man_made":"pier","name":"ท่าเรือราชินี","@type":"way","@id":178329996},"geometry":{"type":"Point","coordinates":[100.4940593,13.7416568]}},{"type":"Feature","id":178329997,"properties":{"area":"yes","highway":"footway","man_made":"pier","name":"ท่าเรืออัษฎางค์ (ปากคลองตลาด)","@type":"way","@id":178329997},"geometry":{"type":"Point","coordinates":[100.4942793,13.741511]}},{"type":"Feature","id":230925663,"properties":{"area":"yes","bicycle":"yes","man_made":"pier","name":"Khlong Lat Luang Pier","@type":"way","@id":230925663},"geometry":{"type":"Point","coordinates":[100.527766,13.6697985]}},{"type":"Feature","id":230926695,"properties":{"area":"yes","bicycle":"yes","man_made":"pier","name":"ท่าเรือสาธุประดิษฐ์","name:en":"Sathu Pradit Pier","@type":"way","@id":230926695},"geometry":{"type":"Point","coordinates":[100.527344,13.6770797]}},{"type":"Feature","id":242179387,"properties":{"man_made":"pier","name":"สะพานแดง","@type":"way","@id":242179387},"geometry":{"type":"Point","coordinates":[100.6436156,13.5173924]}},{"type":"Feature","id":320240804,"properties":{"man_made":"pier","name":"สะพานแดง(บำหรุ)","@type":"way","@id":320240804},"geometry":{"type":"Point","coordinates":[100.6781594,13.5070749]}},{"type":"Feature","id":338294416,"properties":{"area":"yes","man_made":"pier","name":"ท่าเรือตากสิน","name:en":"Taksin Pier","@type":"way","@id":338294416},"geometry":{"type":"Point","coordinates":[100.5111623,13.7200532]}},{"type":"Feature","id":342339407,"properties":{"area":"yes","man_made":"pier","name":"วัดอรุณ","name:ko":"왓아룬(나루)","@type":"way","@id":342339407},"geometry":{"type":"Point","coordinates":[100.4891401,13.7449505]}},{"type":"Feature","id":342537781,"properties":{"departures_board":"timetable","ferry":"yes","man_made":"pier","name":"Anantara","name:en":"Anantara Pier","note":"Please find the timetable on the website","public_transport":"platform","website":"https://mailchi.mp/minor/riverside-shuttle-boat-service","@type":"way","@id":342537781},"geometry":{"type":"Point","coordinates":[100.4927414,13.7038167]}},{"type":"Feature","id":351091877,"properties":{"area":"yes","highway":"pedestrian","man_made":"pier","name":"ท่าช้าง","name:en":"Tha Chang Pier","name:etymology:wikidata":"Q7378","name:th":"ท่าช้าง","@type":"way","@id":351091877},"geometry":{"type":"Point","coordinates":[100.488546,13.7528089]}},{"type":"Feature","id":352102184,"properties":{"area":"yes","man_made":"pier","name":"ท่าเรือป่าฝ้าย","@type":"way","@id":352102184},"geometry":{"type":"Point","coordinates":[100.4902593,13.9046949]}},{"type":"Feature","id":352102185,"properties":{"area":"yes","man_made":"pier","name":"ท่าเรือวัดกลางเกร็ด","@type":"way","@id":352102185},"geometry":{"type":"Point","coordinates":[100.4915709,13.9046538]}},{"type":"Feature","id":352102186,"properties":{"area":"yes","man_made":"pier","name":"เท่าเรือวัดสนามเหนือ","@type":"way","@id":352102186},"geometry":{"type":"Point","coordinates":[100.4916709,13.9127903]}},{"type":"Feature","id":352102187,"properties":{"area":"yes","man_made":"pier","name":"ท่าเรือปากเกร็ด","@type":"way","@id":352102187},"geometry":{"type":"Point","coordinates":[100.4946793,13.9152739]}},{"type":"Feature","id":352102188,"properties":{"area":"yes","man_made":"pier","name":"Chao Praya Express Boat Pier","@type":"way","@id":352102188},"geometry":{"type":"Point","coordinates":[100.4942964,13.9149482]}},{"type":"Feature","id":352117285,"properties":{"area":"yes","highway":"footway","man_made":"pier","name":"ท่าคลองสาน","@type":"way","@id":352117285},"geometry":{"type":"Point","coordinates":[100.5115249,13.7291011]}},{"type":"Feature","id":352117286,"properties":{"area":"yes","highway":"footway","lit":"yes","man_made":"pier","name":"ท่าเรือสี่พระยา","name:en":"Si Phraya Pier","name:th":"ท่าเรือสี่พระยา","@type":"way","@id":352117286},"geometry":{"type":"Point","coordinates":[100.5131265,13.7294887]}},{"type":"Feature","id":352117288,"properties":{"area":"yes","man_made":"pier","name":"Saphan Taksin Pier","name:ko":"사판 탁신 부두","@type":"way","@id":352117288},"geometry":{"type":"Point","coordinates":[100.512744,13.7188648]}},{"type":"Feature","id":352117289,"properties":{"area":"yes","man_made":"pier","name":"Asiatique Pier","@type":"way","@id":352117289},"geometry":{"type":"Point","coordinates":[100.5126127,13.7184227]}},{"type":"Feature","id":352117291,"properties":{"area":"yes","country":"ไทย","man_made":"pier","name":"ท่าเรือข้ามฟากราชวงศ์","province":"กรุงเทพมหานคร","@type":"way","@id":352117291},"geometry":{"type":"Point","coordinates":[100.5043781,13.7385111]}},{"type":"Feature","id":352117292,"properties":{"area":"yes","man_made":"pier","name":"ท่าดินแดง","name:en":"Tha Din Daeng","@type":"way","@id":352117292},"geometry":{"type":"Point","coordinates":[100.5038364,13.7368887]}},{"type":"Feature","id":434839896,"properties":{"addr:district":"ปทุมวัน","addr:postcode":"10330","addr:province":"กรุงเทพมหานคร","addr:subdistrict":"รองเมือง","building":"yes","floating":"yes","man_made":"pier","name":"ท่าเรือหัวลำโพง","name:en":"Hua Lamphong Pier","name:th":"ท่าเรือหัวลำโพง","@type":"way","@id":434839896},"geometry":{"type":"Point","coordinates":[100.5157837,13.740904]}},{"type":"Feature","id":487690666,"properties":{"area":"yes","man_made":"pier","name":"ท่าเรือวัดคลองเตยนอก","name:en":"Wat Klong Toei Nok Pier","@type":"way","@id":487690666},"geometry":{"type":"Point","coordinates":[100.5635843,13.7072606]}},{"type":"Feature","id":663703813,"properties":{"access":"customers","man_made":"pier","mooring":"private","name":"Riverside Cruise","operator":"Riverside Hotel","website":"https://www.riversidebangkok.com/en/cruise.php","@type":"way","@id":663703813},"geometry":{"type":"Point","coordinates":[100.5001656,13.7796122]}},{"type":"Feature","id":756642530,"properties":{"access":"private","man_made":"pier","name":"ท่าราชวรดิฐ","name:th":"ท่าราชวรดิฐ","wikidata":"Q16433837","@type":"way","@id":756642530},"geometry":{"type":"Point","coordinates":[100.4887507,13.7494001]}},{"type":"Feature","id":756642531,"properties":{"access":"private","man_made":"pier","mooring":"yes","name":"ท่าราชวรดิฐ","name:th":"ท่าราชวรดิฐ","wikidata":"Q16433837","@type":"way","@id":756642531},"geometry":{"type":"Point","coordinates":[100.4888739,13.7495221]}},{"type":"Feature","id":777869147,"properties":{"area":"yes","man_made":"pier","name":"ท่าเรือสะพานพระนั่งเกล้า","name:en":"Phra Nangklao Pier","name:th":"ท่าเรือสะพานพระนั่งเกล้า","opening_date":"2021-03-06","operator":"Panrail Thailand LTD.","start_date":"2020-01-31","website":"https://www.facebook.com/PanrailTH","@type":"way","@id":777869147},"geometry":{"type":"Point","coordinates":[100.4785423,13.8702272]}},{"type":"Feature","id":857726208,"properties":{"amenity":"ferry_terminal","@type":"way","@id":857726208},"geometry":{"type":"Point","coordinates":[100.5361167,13.6526947]}},{"type":"Feature","id":1020887825,"properties":{"area":"yes","country":"Thailand","man_made":"pier","name":"ท่าเตียน","name:en":"Tha Tien Pier","name:th":"ท่าเตียน","province":"Bangkok","@type":"way","@id":1020887825},"geometry":{"type":"Point","coordinates":[100.4903861,13.7457842]}},{"type":"Feature","id":1057672409,"properties":{"man_made":"pier","name":"ท่าเรือฮิลตัน","name:en":"Hilton Pier","name:th":"ท่าเรือฮิลตัน","@type":"way","@id":1057672409},"geometry":{"type":"Point","coordinates":[100.5116278,13.7285735]}},{"type":"Feature","id":1076376943,"properties":{"addr:country":"ไทย","addr:district":"สาทร","addr:postcode":"10120","addr:province":"กรุงเทพมหานคร","addr:province:en":"Bangkok","addr:subdistrict":"ยานนาวา","building":"yes","description":"ท่าเรือสาธร Sathon Pier","layer":"1","man_made":"pier","name":"ท่าเรือสาทร","name:en":"Sathon Pier","name:th":"ท่าเรือสาทร","@type":"way","@id":1076376943},"geometry":{"type":"Point","coordinates":[100.5127715,13.7185691]}},{"type":"Feature","id":1125101141,"properties":{"man_made":"pier","name":"Nana Nuea","@type":"way","@id":1125101141},"geometry":{"type":"Point","coordinates":[100.5539388,13.7482678]}},{"type":"Feature","id":1147838004,"properties":{"area":"yes","country":"ไทย","man_made":"pier","name":"ท่าเรือท่าฉลอม","name:en":"Thachalom Pier","name:th":"ท่าเรือท่าฉลอม","province":"สมุทรสาคร","@type":"way","@id":1147838004},"geometry":{"type":"Point","coordinates":[100.2744394,13.5417321]}},{"type":"Feature","id":1153316951,"properties":{"area":"yes","floating":"yes","lit":"no","man_made":"pier","name":"Pier 1","@type":"way","@id":1153316951},"geometry":{"type":"Point","coordinates":[100.5129038,13.7299464]}},{"type":"Feature","id":1153316953,"properties":{"area":"yes","floating":"yes","lit":"no","man_made":"pier","name":"Pier 2","name:en":"Pier 2","@type":"way","@id":1153316953},"geometry":{"type":"Point","coordinates":[100.5128166,13.7302695]}},{"type":"Feature","id":1153316954,"properties":{"area":"yes","floating":"yes","lit":"no","man_made":"pier","name":"Pier 3","@type":"way","@id":1153316954},"geometry":{"type":"Point","coordinates":[100.5127433,13.7305409]}},{"type":"Feature","id":1172196566,"properties":{"area":"yes","floating":"yes","man_made":"pier","name":"ท่าเรือ ธปท.","@type":"way","@id":1172196566},"geometry":{"type":"Point","coordinates":[100.4987301,13.7692419]}},{"type":"Feature","id":1172196596,"properties":{"area":"yes","floating":"yes","man_made":"pier","name":"เรือนแพ ธปท.","@type":"way","@id":1172196596},"geometry":{"type":"Point","coordinates":[100.4991859,13.7699265]}},{"type":"Feature","id":1190310308,"properties":{"floating":"yes","man_made":"pier","name":"ท่าเรือเดอะแจมแฟคทอรี่","name:en":"The Jam Factory Pier","name:th":"ท่าเรือเดอะแจมแฟคทอรี่","@type":"way","@id":1190310308},"geometry":{"type":"Point","coordinates":[100.511314,13.7296962]}},{"type":"Feature","id":1203025914,"properties":{"area":"yes","man_made":"pier","name":"ท่าเรือปากเกร็ด","@type":"way","@id":1203025914},"geometry":{"type":"Point","coordinates":[100.4936073,13.9164728]}},{"type":"Feature","id":1227647287,"properties":{"man_made":"pier","name":"นิเวศน์วรดิฐ","name:th":"นิเวศน์วรดิฐ","@type":"way","@id":1227647287},"geometry":{"type":"Point","coordinates":[100.4886109,13.7501018]}},{"type":"Feature","id":1227647288,"properties":{"man_made":"pier","name":"นิเวศน์วรดิฐ","name:th":"นิเวศน์วรดิฐ","@type":"way","@id":1227647288},"geometry":{"type":"Point","coordinates":[100.4887389,13.7501351]}},{"type":"Feature","id":1227647290,"properties":{"floating":"yes","man_made":"pier","name":"ท่าราชวรดิฐ","name:th":"ท่าราชวรดิฐ","wikidata":"Q16433837","@type":"way","@id":1227647290},"geometry":{"type":"Point","coordinates":[100.4886248,13.7494807]}},{"type":"Feature","id":1264028723,"properties":{"area":"yes","man_made":"pier","name":"ท่าเรือเขียว (วัดโพธิ์)","name:en":"Green Pier (Wat Pho)","name:th":"ท่าเรือเขียว (วัดโพธิ์)","@type":"way","@id":1264028723},"geometry":{"type":"Point","coordinates":[100.491351,13.7445475]}},{"type":"Feature","id":1342088528,"properties":{"area":"yes","man_made":"pier","name":"ท่าเรือรอยัลออคิด เชอราตัน","name:en":"Royal Orchid Sheraton Jetty","name:th":"ท่าเรือรอยัลออคิด เชอราตัน","@type":"way","@id":1342088528},"geometry":{"type":"Point","coordinates":[100.51314,13.7288759]}},{"type":"Feature","id":1362786860,"properties":{"floating":"yes","man_made":"pier","name":"Phasi Charoen Pier","@type":"way","@id":1362786860},"geometry":{"type":"Point","coordinates":[100.4705987,13.7227407]}},{"type":"Feature","id":1434339945,"properties":{"floating":"yes","man_made":"pier","mooring":"yes","name":"Riva Surya","name:en":"Riva Surya","@type":"way","@id":1434339945},"geometry":{"type":"Point","coordinates":[100.493024,13.7625649]}},{"type":"Feature","id":1468606674,"properties":{"addr:city":"Krokkrak","description":"ท่าเรือข้ามฟากวัดโกรกกราก - ท่าฉลอม - มหาชัย เป็นท่าเรือประจำวัดโกรกกราก ตำบลโกรกกราก จังหวัดสมุทรสาคร เส้นทางเดินทางข้ามฝากไปยังตำบลท่าฉลอม และตำบลมหาชัย","highway":"service","man_made":"pier","mooring":"yes","name":"ท่าเรือวัดโกรกกราก","name:en":"Wat Krokkrak Pier","reg_name":"ท่าเรือข้ามฟากวัดโกรกกราก","@type":"way","@id":1468606674},"geometry":{"type":"Point","coordinates":[100.275281,13.5318247]}},{"type":"Feature","id":1469037212,"properties":{"area":"yes","country":"Thailand","description":"ท่าเรือราชวงศ์ ใกล้ถนนทรงวาด เยาวราช Ratchawong Pier Bangkok Thailand Yaowarat road Thai Street Food.","man_made":"pier","name":"ท่าเรือราชวงศ์","name:en":"Ratchawong Pier","name:th":"ท่าเรือราชวงศ์","province":"Bangkok","@type":"way","@id":1469037212},"geometry":{"type":"Point","coordinates":[100.5046378,13.7385228]}},{"type":"Feature","id":1487605346,"properties":{"area":"yes","floating":"yes","man_made":"pier","name":"วัดอมรินทรารามวรวิหาร","name:en":"Wat Amarintharam","name:th":"วัดอมรินทรารามวรวิหาร","@type":"way","@id":1487605346},"geometry":{"type":"Point","coordinates":[100.4828801,13.7610253]}},{"type":"Feature","id":1551900774,"properties":{"area":"yes","country":"ไทย","man_made":"pier","name":"ท่าเรือมหาชัย-ท่าฉลอม","name:en":"Mahachai Pier (Mahachai - Tha Chalom)","name:th":"ท่าเรือมหาชัย-ท่าฉลอม","province":"สมุทรสาคร","@type":"way","@id":1551900774},"geometry":{"type":"Point","coordinates":[100.2750527,13.5442732]}},{"type":"Feature","id":1551901440,"properties":{"area":"yes","country":"Thailand","man_made":"pier","name":"ท่าเรือโกรกกราก","name:th":"ท่าเรือโกรกกราก","province":"สมุทรสาคร","@type":"way","@id":1551901440},"geometry":{"type":"Point","coordinates":[100.2752621,13.5318394]}},{"type":"Feature","id":303340779,"properties":{"amenity":"ferry_terminal","ferry":"yes","name":"ท่าเรือนวลทิพย์","name:en":"Nuanthip Pier","name:th":"ท่าเรือนวลทิพย์","public_transport":"station","@type":"node","@id":303340779},"geometry":{"type":"Point","coordinates":[101.4424062,12.626604]}},{"type":"Feature","id":487193238,"properties":{"addr:country":"ไทย","addr:district":"เกาะสีชัง","addr:province":"ชลบุรี","amenity":"ferry_terminal","ferry":"yes","name":"เกาะสีชัง","name:en":"Ko Sichang","name:th":"เกาะสีชัง","public_transport":"station","@type":"node","@id":487193238},"geometry":{"type":"Point","coordinates":[100.8093025,13.1661108]}},{"type":"Feature","id":1199397671,"properties":{"amenity":"ferry_terminal","ferry":"yes","name":"ท่าเรือแหลมบาลีฮาย","name:en":"Pattaya Bali Hai Pier","name:ko":"파타야 발리하이 선착장","name:th":"ท่าเรือแหลมบาลีฮาย","public_transport":"station","ref":"A;B","@type":"node","@id":1199397671},"geometry":{"type":"Point","coordinates":[100.8682968,12.9288604]}},{"type":"Feature","id":1199398742,"properties":{"amenity":"ferry_terminal","cargo":"passengers","ferry":"yes","name":"ท่าเรือตาแหวน","name:en":"Ta Waen Pier","name:th":"ท่าเรือตาแหวน","public_transport":"station","@type":"node","@id":1199398742},"geometry":{"type":"Point","coordinates":[100.7750083,12.9274895]}},{"type":"Feature","id":1228583305,"properties":{"amenity":"ferry_terminal","cargo":"passengers","ferry":"yes","name":"ท่าเรือหน้าบ้าน","name:en":"Na Baan Pier","name:th":"ท่าเรือหน้าบ้าน","province":"Chonburi","public_transport":"station","wheelchair":"yes","@type":"node","@id":1228583305},"geometry":{"type":"Point","coordinates":[100.7901561,12.9224635]}},{"type":"Feature","id":2043749492,"properties":{"amenity":"ferry_terminal","ferry":"yes","name":"ท่าตลิ่งชัน","public_transport":"station","@type":"node","@id":2043749492},"geometry":{"type":"Point","coordinates":[100.7903611,12.9311753]}},{"type":"Feature","id":2078709485,"properties":{"amenity":"ferry_terminal","ferry":"yes","name":"ท่าเรือจเด็จ","name:en":"Jadet Pier","name:th":"ท่าเรือจเด็จ","public_transport":"station","@type":"node","@id":2078709485},"geometry":{"type":"Point","coordinates":[101.4386266,12.6239774]}},{"type":"Feature","id":2078709686,"properties":{"amenity":"ferry_terminal","ferry":"yes","name":"ท่าเรือเพ","name:en":"Taruhphe Pier","name:th":"ท่าเรือเพ","public_transport":"station","wheelchair":"yes","@type":"node","@id":2078709686},"geometry":{"type":"Point","coordinates":[101.4394689,12.625699]}},{"type":"Feature","id":2078709709,"properties":{"amenity":"ferry_terminal","ferry":"yes","name":"Ban Phe Pier","name:en":"Chok Krisada Pier Ferry Boat and Speed Boat","public_transport":"station","@type":"node","@id":2078709709},"geometry":{"type":"Point","coordinates":[101.4385231,12.627087]}},{"type":"Feature","id":2478263464,"properties":{"amenity":"ferry_terminal","ferry":"yes","name":"หน้าด่าน","name:en":"Nadan","name:th":"หน้าด่าน","public_transport":"station","@type":"node","@id":2478263464},"geometry":{"type":"Point","coordinates":[101.4636459,12.5753702]}},{"type":"Feature","id":3903045781,"properties":{"man_made":"pier","mooring":"commercial","name":"additional Cruise Ship quay","@type":"node","@id":3903045781},"geometry":{"type":"Point","coordinates":[100.8886252,13.0666468]}},{"type":"Feature","id":4011040817,"properties":{"amenity":"ferry_terminal","ferry":"yes","name":"เกาะขามใหญ่","name:en":"Ko Kham Yai","name:th":"เกาะขามใหญ่","public_transport":"station","@type":"node","@id":4011040817},"geometry":{"type":"Point","coordinates":[100.8207153,13.1651654]}},{"type":"Feature","id":4165075889,"properties":{"man_made":"pier","name":"Nuanthip Pier","@type":"node","@id":4165075889},"geometry":{"type":"Point","coordinates":[101.450437,12.5543676]}},{"type":"Feature","id":4165123316,"properties":{"amenity":"ferry_terminal","ferry":"yes","name":"ท่าเรือเกาะสีชัง (ท่าล่าง)","name:en":"Ko Sichang Tha Lang Pier","name:th":"ท่าเรือเกาะสีชัง (ท่าล่าง)","public_transport":"station","@type":"node","@id":4165123316},"geometry":{"type":"Point","coordinates":[100.8107842,13.1618628]}},{"type":"Feature","id":4666507805,"properties":{"amenity":"ferry_terminal","ferry":"yes","name":"ท่าเรือเกาะลอย","name:en":"Ko Loy Pier","name:ja":"コロイ港","public_transport":"station","@type":"node","@id":4666507805},"geometry":{"type":"Point","coordinates":[100.9192485,13.1751969]}},{"type":"Feature","id":6401976191,"properties":{"amenity":"ferry_terminal","ferry":"yes","name":"ท่าเรือเขาหมาจอ","name:en":"Khao Ma Jo Pier","public_transport":"station","@type":"node","@id":6401976191},"geometry":{"type":"Point","coordinates":[100.9497202,12.5976404]}},{"type":"Feature","id":9374658815,"properties":{"amenity":"ferry_terminal","ferry":"yes","name":"ท่าเรือจุกเสม็ด","name:en":"Chuksamed Pier","name:th":"ท่าเรือจุกเสม็ด","public_transport":"station","@type":"node","@id":9374658815},"geometry":{"type":"Point","coordinates":[100.9147336,12.6281004]}},{"type":"Feature","id":10752240251,"properties":{"amenity":"ferry_terminal","ferry":"yes","name":"ท่าเรือจุกเสม็ด","name:en":"Chuksamed Pier","name:th":"ท่าเรือจุกเสม็ด","public_transport":"station","@type":"node","@id":10752240251},"geometry":{"type":"Point","coordinates":[100.9136373,12.6229154]}},{"type":"Feature","id":14141905834,"properties":{"amenity":"ferry_terminal","ferry":"yes","name":"ท่าเรือแหลมบาลีฮาย","name:en":"Pattaya Bali Hai Pier","name:ko":"파타야 발리하이 선착장","name:th":"ท่าเรือแหลมบาลีฮาย","public_transport":"station","ref":"F","@type":"node","@id":14141905834},"geometry":{"type":"Point","coordinates":[100.8673253,12.9299149]}},{"type":"Feature","id":14141905835,"properties":{"amenity":"ferry_terminal","ferry":"yes","name":"ท่าเรือแหลมบาลีฮาย","name:en":"Pattaya Bali Hai Pier","name:ko":"파타야 발리하이 선착장","name:th":"ท่าเรือแหลมบาลีฮาย","public_transport":"station","ref":"E","@type":"node","@id":14141905835},"geometry":{"type":"Point","coordinates":[100.8678303,12.929372]}},{"type":"Feature","id":14141905836,"properties":{"amenity":"ferry_terminal","ferry":"yes","name":"ท่าเรือแหลมบาลีฮาย","name:en":"Pattaya Bali Hai Pier","name:ko":"파타야 발리하이 선착장","name:th":"ท่าเรือแหลมบาลีฮาย","public_transport":"station","ref":"D","@type":"node","@id":14141905836},"geometry":{"type":"Point","coordinates":[100.866818,12.9285107]}},{"type":"Feature","id":14141905837,"properties":{"amenity":"ferry_terminal","ferry":"yes","name":"ท่าเรือแหลมบาลีฮาย","name:en":"Pattaya Bali Hai Pier","name:ko":"파타야 발리하이 선착장","name:th":"ท่าเรือแหลมบาลีฮาย","public_transport":"station","ref":"C","@type":"node","@id":14141905837},"geometry":{"type":"Point","coordinates":[100.8672422,12.9281984]}},{"type":"Feature","id":14141905838,"properties":{"amenity":"ferry_terminal","ferry":"yes","name":"ท่าเรือแหลมบาลีฮาย","name:en":"Pattaya Bali Hai Pier","name:ko":"파타야 발리하이 선착장","name:th":"ท่าเรือแหลมบาลีฮาย","public_transport":"station","@type":"node","@id":14141905838},"geometry":{"type":"Point","coordinates":[100.8677322,12.9272867]}},{"type":"Feature","id":14141905839,"properties":{"amenity":"ferry_terminal","ferry":"yes","name":"ท่าเรือแหลมบาลีฮาย","name:en":"Pattaya Bali Hai Pier","name:ko":"파타야 발리하이 선착장","name:th":"ท่าเรือแหลมบาลีฮาย","public_transport":"station","@type":"node","@id":14141905839},"geometry":{"type":"Point","coordinates":[100.867687,12.926845]}},{"type":"Feature","id":14141905840,"properties":{"amenity":"ferry_terminal","ferry":"yes","name":"ท่าเรือแหลมบาลีฮาย","name:en":"Pattaya Bali Hai Pier","name:ko":"파타야 발리하이 선착장","name:th":"ท่าเรือแหลมบาลีฮาย","public_transport":"station","@type":"node","@id":14141905840},"geometry":{"type":"Point","coordinates":[100.8676372,12.9264125]}},{"type":"Feature","id":14141905841,"properties":{"amenity":"ferry_terminal","ferry":"yes","name":"ท่าเรือแหลมบาลีฮาย","name:en":"Pattaya Bali Hai Pier","name:ko":"파타야 발리하이 선착장","name:th":"ท่าเรือแหลมบาลีฮาย","public_transport":"station","@type":"node","@id":14141905841},"geometry":{"type":"Point","coordinates":[100.868016,12.9265916]}},{"type":"Feature","id":14141905842,"properties":{"amenity":"ferry_terminal","ferry":"yes","name":"ท่าเรือแหลมบาลีฮาย","name:en":"Pattaya Bali Hai Pier","name:ko":"파타야 발리하이 선착장","name:th":"ท่าเรือแหลมบาลีฮาย","public_transport":"station","@type":"node","@id":14141905842},"geometry":{"type":"Point","coordinates":[100.8680314,12.9269972]}},{"type":"Feature","id":14141905843,"properties":{"amenity":"ferry_terminal","ferry":"yes","name":"ท่าเรือแหลมบาลีฮาย","name:en":"Pattaya Bali Hai Pier","name:ko":"파타야 발리하이 선착장","name:th":"ท่าเรือแหลมบาลีฮาย","public_transport":"station","@type":"node","@id":14141905843},"geometry":{"type":"Point","coordinates":[100.8680719,12.9274027]}},{"type":"Feature","id":27622070,"properties":{"man_made":"pier","name":"ท่าเรือเพ","name:en":"Taruhphe Pier","name:th":"ท่าเรือเพ","@type":"way","@id":27622070},"geometry":{"type":"Point","coordinates":[101.4393441,12.6264813]}},{"type":"Feature","id":27622262,"properties":{"foot":"yes","man_made":"pier","name":"ท่าเรือหน้าด่าน","name:en":"Nadan Pier","name:th":"ท่าเรือหน้าด่าน","@type":"way","@id":27622262},"geometry":{"type":"Point","coordinates":[101.4635253,12.5748563]}},{"type":"Feature","id":40354093,"properties":{"country":"ไทย","floating":"no","lit":"yes","man_made":"pier","name":"ท่าเรือเกาะสีชัง (ท่าล่าง)","name:en":"Ko Sichang Tha Lang Pier","name:th":"ท่าเรือเกาะสีชัง (ท่าล่าง)","@type":"way","@id":40354093},"geometry":{"type":"Point","coordinates":[100.8104413,13.1614433]}},{"type":"Feature","id":40420413,"properties":{"floating":"no","man_made":"pier","name":"สะพานอัษฎางค์","name:en":"Asdang bridge","name:th":"สะพานอัษฎางค์","@type":"way","@id":40420413},"geometry":{"type":"Point","coordinates":[100.8180567,13.1504555]}},{"type":"Feature","id":154103192,"properties":{"country":"ไทย","man_made":"pier","name":"ท่าเทียบเรือ บางพระ","name:th":"ท่าเทียบเรือ บางพระ","province":"ชลบุรี","@type":"way","@id":154103192},"geometry":{"type":"Point","coordinates":[100.933497,13.2127287]}},{"type":"Feature","id":154652987,"properties":{"description":"Wonnapha Beach Pier Chonburi","man_made":"pier","name":"สะพานท่าเรือหาดวอนนภา บางแสน","name:en":"Wonnapha Beach Pier","name:th":"สะพานท่าเรือหาดวอนนภา บางแสน","@type":"way","@id":154652987},"geometry":{"type":"Point","coordinates":[100.9217354,13.2685965]}},{"type":"Feature","id":185058077,"properties":{"man_made":"pier","name":"ท่าเทียบเรือประมงนาเกลือ","name:en":"Naklua Fishing Pier","name:th":"ท่าเทียบเรือประมงนาเกลือ","@type":"way","@id":185058077},"geometry":{"type":"Point","coordinates":[100.8964564,12.9760929]}},{"type":"Feature","id":187966567,"properties":{"man_made":"pier","name":"สะพานราชนาวี","@type":"way","@id":187966567},"geometry":{"type":"Point","coordinates":[100.9016589,13.3045175]}},{"type":"Feature","id":187966568,"properties":{"man_made":"pier","name":"สะพานราชนาวี","@type":"way","@id":187966568},"geometry":{"type":"Point","coordinates":[100.9013075,13.305186]}},{"type":"Feature","id":193869767,"properties":{"man_made":"pier","name":"ท่าตลิ่งชัน","@type":"way","@id":193869767},"geometry":{"type":"Point","coordinates":[100.789814,12.9311867]}},{"type":"Feature","id":197670243,"properties":{"man_made":"pier","name":"Sribanphe Pier","source":"GPS","@type":"way","@id":197670243},"geometry":{"type":"Point","coordinates":[101.4344567,12.622371]}},{"type":"Feature","id":197670287,"properties":{"man_made":"pier","name":"ท่าเรือจเด็จ","name:en":"Jadet Pier","name:th":"ท่าเรือจเด็จ","source":"Bing","@type":"way","@id":197670287},"geometry":{"type":"Point","coordinates":[101.4380975,12.6252884]}},{"type":"Feature","id":242270768,"properties":{"country":"ไทย","man_made":"pier","name":"ท่าเทียบเรือท่องเที่ยวเกาะสีชัง","name:th":"ท่าเทียบเรือท่องเที่ยวเกาะสีชัง","@type":"way","@id":242270768},"geometry":{"type":"Point","coordinates":[100.810001,13.1635526]}},{"type":"Feature","id":466125300,"properties":{"man_made":"pier","name":"ท่าเรือท่องเที่ยวเกาะ","name:en":"Thongthiao Ko Pier","name:th":"ท่าเรือท่องเที่ยวเกาะ","@type":"way","@id":466125300},"geometry":{"type":"Point","coordinates":[101.7010513,12.7085322]}},{"type":"Feature","id":475939862,"properties":{"man_made":"pier","name":"สะพานพระเจ้าตากสิน พิพิธภัณฑ์ธรรมชาติแสมสาร","@type":"way","@id":475939862},"geometry":{"type":"Point","coordinates":[100.9503548,12.600845]}},{"type":"Feature","id":504916659,"properties":{"area":"yes","country":"Thailand","man_made":"pier","name":"ท่าเรือแหลมบาลีฮาย","name:en":"Bali Hai Pier","name:th":"ท่าเรือแหลมบาลีฮาย","province":"Chonburi","@type":"way","@id":504916659},"geometry":{"type":"Point","coordinates":[100.8675573,12.9278203]}},{"type":"Feature","id":587327615,"properties":{"area":"yes","bicycle":"yes","country":"Thailand","foot":"yes","man_made":"pier","name":"ท่าเรือหน้าบ้านเกาะล้าน","name:en":"Na Baan Pier","name:th":"ท่าเรือหน้าบ้านเกาะล้าน","province":"Chonburi","@type":"way","@id":587327615},"geometry":{"type":"Point","coordinates":[100.7893456,12.9227542]}},{"type":"Feature","id":587327617,"properties":{"area":"yes","country":"Thailand","man_made":"pier","name":"Koh Larn (Tawaen Beach Pier)","@type":"way","@id":587327617},"geometry":{"type":"Point","coordinates":[100.7750198,12.9273959]}},{"type":"Feature","id":587327618,"properties":{"area":"yes","country":"ไทย","man_made":"pier","name":"หาดแสม","@type":"way","@id":587327618},"geometry":{"type":"Point","coordinates":[100.7702022,12.9107798]}},{"type":"Feature","id":951236300,"properties":{"area":"yes","man_made":"pier","name":"สะพานราชนาวี","@type":"way","@id":951236300},"geometry":{"type":"Point","coordinates":[100.9014853,13.3040281]}},{"type":"Feature","id":1179643355,"properties":{"man_made":"pier","name":"ท่าเรือ 333","name:en":"Pier 333","name:th":"ท่าเรือ 333","@type":"way","@id":1179643355},"geometry":{"type":"Point","coordinates":[100.8075275,13.1753399]}},{"type":"Feature","id":1330694011,"properties":{"alt_name":"สะพานเขียว","area":"yes","floating":"no","man_made":"pier","name":"สะพานท่าเทียบเรือแหลมง","name:en":"Laem Ngoo Harbour","@type":"way","@id":1330694011},"geometry":{"type":"Point","coordinates":[100.8161705,13.1315516]}},{"type":"Feature","id":1183700077,"properties":{"amenity":"ferry_terminal","cargo":"passengers;bicycle","ferry":"yes","public_transport":"station","@type":"node","@id":1183700077},"geometry":{"type":"Point","coordinates":[99.9973965,13.4081403]}},{"type":"Feature","id":1347311839,"properties":{"amenity":"ferry_terminal","cargo":"passengers;bicycle","ferry":"yes","public_transport":"station","@type":"node","@id":1347311839},"geometry":{"type":"Point","coordinates":[99.9963405,13.407843]}},{"type":"Feature","id":1572174557,"properties":{"amenity":"ferry_terminal","cargo":"passengers","@type":"node","@id":1572174557},"geometry":{"type":"Point","coordinates":[99.9462485,13.4670647]}},{"type":"Feature","id":2385137131,"properties":{"amenity":"ferry_terminal","cargo":"passengers","@type":"node","@id":2385137131},"geometry":{"type":"Point","coordinates":[99.9557409,13.423805]}},{"type":"Feature","id":484425423,"properties":{"area":"yes","highway":"footway","man_made":"pier","name":"สะพานปลา","name:en":"Saphan Pla","name:th":"สะพานปลา","@type":"way","@id":484425423},"geometry":{"type":"Point","coordinates":[99.9600618,12.5754554]}},{"type":"Feature","id":549626813,"properties":{"area":"yes","highway":"footway","man_made":"pier","name":"ท่าเรือเขาตะเกียบ","name:en":"Khao Takiab Pier","name:th":"ท่าเรือเขาตะเกียบ","@type":"way","@id":549626813},"geometry":{"type":"Point","coordinates":[99.9806823,12.5134076]}}]}