{"type":"FeatureCollection","features":[{"type":"Feature","id":496757954,"properties":{"amenity":"police","@type":"node","@id":496757954},"geometry":{"type":"Point","coordinates":[100.5097818,13.7311382]}},{"type":"Feature","id":1023022403,"properties":{"amenity":"police","name":"สถานีตำรวจนครบาลสำราญราษฎร์","name:en":"Samranrat Police Station","name:th":"สถานีตำรวจนครบาลสำราญราษฎร์","@type":"node","@id":1023022403},"geometry":{"type":"Point","coordinates":[100.5036975,13.7517628]}},{"type":"Feature","id":1340912906,"properties":{"amenity":"police","name":"Prachachuen Police Station","@type":"node","@id":1340912906},"geometry":{"type":"Point","coordinates":[100.546917,13.8421703]}},{"type":"Feature","id":1692927585,"properties":{"amenity":"police","name":"สถานีตำรวจนครบาลสุทธิสาร","name:en":"Suttisarn Police Station","name:th":"สถานีตำรวจนครบาลสุทธิสาร","@type":"node","@id":1692927585},"geometry":{"type":"Point","coordinates":[100.5738972,13.7901787]}},{"type":"Feature","id":1756126663,"properties":{"amenity":"police","name":"Police Support Unit สน.ย่อยจตุรัส","@type":"node","@id":1756126663},"geometry":{"type":"Point","coordinates":[100.5341624,13.7439967]}},{"type":"Feature","id":1797239849,"properties":{"amenity":"police","name":"Bangsue Police Station","source":"local knowledge","@type":"node","@id":1797239849},"geometry":{"type":"Point","coordinates":[100.5473789,13.7867789]}},{"type":"Feature","id":1851491627,"properties":{"amenity":"police","name":"สถานีตำรวจนครบาลบางเขน","name:en":"Bangkhen Police Station","name:th":"สถานีตำรวจนครบาลบางเขน","operator":"ตำรวจแห่งชาติ","operator:en":"Royal Thai Police","operator:short":"RTP","operator:th":"ตำรวจแห่งชาติ","operator:wikidata":"Q1831399","@type":"node","@id":1851491627},"geometry":{"type":"Point","coordinates":[100.597874,13.875011]}},{"type":"Feature","id":1919605972,"properties":{"amenity":"police","name":"สน.คลองตัน","name:en":"Khlong Ton Police Station","@type":"node","@id":1919605972},"geometry":{"type":"Point","coordinates":[100.6172884,13.7406514]}},{"type":"Feature","id":2077224879,"properties":{"amenity":"police","name":"สถานีตำรวจนครบาลนิมิตใหม่","@type":"node","@id":2077224879},"geometry":{"type":"Point","coordinates":[100.7484726,13.9056089]}},{"type":"Feature","id":2575891107,"properties":{"amenity":"police","name":"สถานีตำรวจนครบาลมีนบุรี","@type":"node","@id":2575891107},"geometry":{"type":"Point","coordinates":[100.7349252,13.8154713]}},{"type":"Feature","id":2618522923,"properties":{"amenity":"police","@type":"node","@id":2618522923},"geometry":{"type":"Point","coordinates":[100.4461808,13.7805141]}},{"type":"Feature","id":2635951172,"properties":{"amenity":"police","name":"สถานีตำรวจนครบาลปทุมวัน","name:en":"Pathum Wan Police Station","name:th":"สถานีตำรวจนครบาลปทุมวัน","opening_hours":"24/7","@type":"node","@id":2635951172},"geometry":{"type":"Point","coordinates":[100.5254325,13.742169]}},{"type":"Feature","id":2671180698,"properties":{"amenity":"police","name":"Tourist Police","@type":"node","@id":2671180698},"geometry":{"type":"Point","coordinates":[100.5284292,13.7445577]}},{"type":"Feature","id":2688147193,"properties":{"amenity":"police","name":"จุดร่วม​ปฎิบัติ​แก้​ไขปัญหา​การจราจร​ถนนสายหลัก​ สน.ลุมพินี","@type":"node","@id":2688147193},"geometry":{"type":"Point","coordinates":[100.5504357,13.7428942]}},{"type":"Feature","id":3076487533,"properties":{"addr:city":"กระทุ่มแบน","addr:country":"TH","addr:district":"กระทุ่มแบน","addr:housenumber":"39","addr:postcode":"74110","addr:province":"สมุทรสาคร","addr:street":"ถนนเจริญสวัสดิ์","addr:subdistrict":"ตลาดกระทุ่มแบน","amenity":"police","description":"สถานีตำรวจกระทุ่มแบน (ตลาดกระทุ่มแบน-ถนนเจริญสวัสดิ์) อยู่บริเวณหอนาฬิกา เป็นสถานีตำรวจกระทุ่มแบนแห่งดั้งเดิม (ปัจจุบันได้ทำการย้ายไปสถานีตำรวจกระทุ่มแบนแห่งใหม่ บริเวณ ซอยสุคนธวิท25 ตำบลท่าเสา สมุทรสาคร) แต่ยังมีส่วนงานจราจร และอื่นๆ","loc_name":"สถานีตำรวจกระทุ่มแบน ที่เก่า","name":"สถานีตำรวจกระทุ่มแบน (ตลาดกระทุ่มแบน)","name:en":"Police station Krathumbaen","name:th":"สถานีตำรวจกระทุ่มแบน (ตลาดกระทุ่มแบน-ถนนเจริญสวัสดิ์)","reg_name":"สถานีตำรวจกระทุ่มแบน","@type":"node","@id":3076487533},"geometry":{"type":"Point","coordinates":[100.267138,13.655877]}},{"type":"Feature","id":3667974774,"properties":{"amenity":"police","name":"สถานีตำรวจจังหวัดสมุทรปราการ","name:th":"สถานีตำรวจจังหวัดสมุทรปราการ","operator":"ตำรวจแห่งชาติ","operator:en":"Royal Thai Police","operator:short":"RTP","operator:th":"ตำรวจแห่งชาติ","operator:wikidata":"Q1831399","@type":"node","@id":3667974774},"geometry":{"type":"Point","coordinates":[100.5974014,13.5975817]}},{"type":"Feature","id":3674414758,"properties":{"amenity":"police","name":"Check point","@type":"node","@id":3674414758},"geometry":{"type":"Point","coordinates":[100.8073682,13.8543937]}},{"type":"Feature","id":4156063808,"properties":{"addr:street":"คลองสิบ-คลองสิบสี่","amenity":"police","name":"สน.ลำหิน","@type":"node","@id":4156063808},"geometry":{"type":"Point","coordinates":[100.82455,13.894018]}},{"type":"Feature","id":4217170989,"properties":{"amenity":"police","name":"Suvarnabhumi Airport Junction Police Box","@type":"node","@id":4217170989},"geometry":{"type":"Point","coordinates":[100.7764145,13.721638]}},{"type":"Feature","id":4451565537,"properties":{"amenity":"police","name":"Prawet Police Station","@type":"node","@id":4451565537},"geometry":{"type":"Point","coordinates":[100.6980625,13.7244404]}},{"type":"Feature","id":4478881691,"properties":{"amenity":"police","name":"บางปะกอก","name:th":"บางปะกอก","@type":"node","@id":4478881691},"geometry":{"type":"Point","coordinates":[100.5003018,13.6767886]}},{"type":"Feature","id":4634245461,"properties":{"amenity":"police","name":"Bangsue Police Box","@type":"node","@id":4634245461},"geometry":{"type":"Point","coordinates":[100.5523823,13.8008575]}},{"type":"Feature","id":4640269791,"properties":{"amenity":"police","name:en":"Lumpini Police","@type":"node","@id":4640269791},"geometry":{"type":"Point","coordinates":[100.5531679,13.7413285]}},{"type":"Feature","id":4672093189,"properties":{"amenity":"police","name":"Thonglor Police Station","@type":"node","@id":4672093189},"geometry":{"type":"Point","coordinates":[100.5610836,13.7363632]}},{"type":"Feature","id":4678490966,"properties":{"amenity":"police","name":"Makasan Police Station","@type":"node","@id":4678490966},"geometry":{"type":"Point","coordinates":[100.5834657,13.7459857]}},{"type":"Feature","id":4744960244,"properties":{"amenity":"police","name":"Traffic police box","@type":"node","@id":4744960244},"geometry":{"type":"Point","coordinates":[100.5437487,13.743812]}},{"type":"Feature","id":4744962522,"properties":{"amenity":"police","name":"Traffic Police box","opening_hours":"24/7","@type":"node","@id":4744962522},"geometry":{"type":"Point","coordinates":[100.5635823,13.7492763]}},{"type":"Feature","id":4744962752,"properties":{"amenity":"police","name":"Traffic Police box","@type":"node","@id":4744962752},"geometry":{"type":"Point","coordinates":[100.5545622,13.7501639]}},{"type":"Feature","id":4861041908,"properties":{"amenity":"police","@type":"node","@id":4861041908},"geometry":{"type":"Point","coordinates":[100.6755605,13.7859783]}},{"type":"Feature","id":5281558086,"properties":{"addr:district":"เมืองสมุทรสาคร","addr:postcode":"74000","addr:province":"สมุทรสาคร","addr:subdistrict":"มหาชัย","amenity":"police","name":"ที่ทำการตำรวจน้ำจังหวัดสมุทรสาคร","@type":"node","@id":5281558086},"geometry":{"type":"Point","coordinates":[100.2726394,13.5450001]}},{"type":"Feature","id":5287918233,"properties":{"amenity":"police","name":"ศูนย์ฝึกอบรมตำรวจกลาง","name:en":"Police Central Training Center","@type":"node","@id":5287918233},"geometry":{"type":"Point","coordinates":[100.3187244,13.8069155]}},{"type":"Feature","id":5354786722,"properties":{"amenity":"police","name":"พ.ต.อ.วีร์พลใหญ่อรุณ","@type":"node","@id":5354786722},"geometry":{"type":"Point","coordinates":[100.4503826,13.6938258]}},{"type":"Feature","id":5382344693,"properties":{"amenity":"police","@type":"node","@id":5382344693},"geometry":{"type":"Point","coordinates":[100.5729154,13.7692666]}},{"type":"Feature","id":5495123322,"properties":{"addr:street":"เตชะตุงคะ","amenity":"police","list:fmm_0000":"yes","name":"สถานีตำรวจนครบาล ดอนเมือง","office":"government","@type":"node","@id":5495123322},"geometry":{"type":"Point","coordinates":[100.6070882,13.9348]}},{"type":"Feature","id":5837616754,"properties":{"addr:country":"TH","addr:district":"บางซื่อ","addr:housenumber":"655","addr:postcode":"10800","addr:province":"กรุงเทพมหานคร","addr:street":"ถนนกรุงเทพฯ-นนทบุรี","addr:subdistrict":"บางซื่อ","amenity":"police","contact:email":"div2_taopoon@hotmail.com","contact:facebook":"https://www.facebook.com/Taopoonpolicestation","contact:fax":"+66-2-5856102","contact:phone":"+66-2-5851648; +66-2-5851649; +66-2-5856101","contact:website":"http://taopoonpolice.go.th/","name":"สถานีตำรวจนครบาลเตาปูน","name:en":"Taopoon Police Station","name:th":"สถานีตำรวจนครบาลเตาปูน","opening_hours":"24/7","source":"Bing; sign","@type":"node","@id":5837616754},"geometry":{"type":"Point","coordinates":[100.5314308,13.8144924]}},{"type":"Feature","id":5898778485,"properties":{"amenity":"police","name:en":"Tourist police bureau","operator":"กองบัญชาการตำรวจท่องเที่ยว","operator:en":"Tourist Police Bureau","operator:th":"กองบัญชาการตำรวจท่องเที่ยว","operator:wikidata":"Q58366882","@type":"node","@id":5898778485},"geometry":{"type":"Point","coordinates":[100.4912283,13.7524599]}},{"type":"Feature","id":5999761383,"properties":{"amenity":"police","@type":"node","@id":5999761383},"geometry":{"type":"Point","coordinates":[100.4967605,13.7371675]}},{"type":"Feature","id":6328215786,"properties":{"amenity":"police","@type":"node","@id":6328215786},"geometry":{"type":"Point","coordinates":[100.498456,13.6841465]}},{"type":"Feature","id":6373531067,"properties":{"amenity":"police","name":"สถานีตำรวจภูธรบางบัวทอง (สาขาย่อยเทศบาลเมืองบางบัวทอง)","name:th":"สถานีตำรวจภูธรบางบัวทอง (สาขาย่อยเทศบาลเมืองบางบัวทอง)","@type":"node","@id":6373531067},"geometry":{"type":"Point","coordinates":[100.4229898,13.9145469]}},{"type":"Feature","id":6734320282,"properties":{"airconditioned":"yes","amenity":"police","capacity:car":"1","capacity:motorcycle":"2","computer":"1","contact:phone":"025240610(3)","ele":"no","internet":"no","jail":"no","level":"1","name":"Khlong Luang Police Station","opening_hours":"24/7","police":"2","television":"yes","toilets":"yes","@type":"node","@id":6734320282},"geometry":{"type":"Point","coordinates":[100.6143969,14.0760594]}},{"type":"Feature","id":7273922388,"properties":{"amenity":"police","@type":"node","@id":7273922388},"geometry":{"type":"Point","coordinates":[100.7941071,13.7504382]}},{"type":"Feature","id":7624960528,"properties":{"amenity":"police","name":"Klongkae police booth","name:th":"ป้อมตำรวจคลองแค","opening_hours":"24/7","@type":"node","@id":7624960528},"geometry":{"type":"Point","coordinates":[100.2824731,13.6872991]}},{"type":"Feature","id":8624303285,"properties":{"amenity":"police","@type":"node","@id":8624303285},"geometry":{"type":"Point","coordinates":[100.529755,13.7378593]}},{"type":"Feature","id":9587770915,"properties":{"amenity":"police","opening_hours":"not all day","@type":"node","@id":9587770915},"geometry":{"type":"Point","coordinates":[100.5721466,13.83405]}},{"type":"Feature","id":9671302217,"properties":{"amenity":"police","name:en":"Immigration for Covid Extention","@type":"node","@id":9671302217},"geometry":{"type":"Point","coordinates":[100.55349,13.9172821]}},{"type":"Feature","id":10745138205,"properties":{"amenity":"police","name:en":"Nonthaburi Police Forensic Science","@type":"node","@id":10745138205},"geometry":{"type":"Point","coordinates":[100.492208,13.8435517]}},{"type":"Feature","id":10763809763,"properties":{"amenity":"police","name":"สถานีตำรวจนครบาลบางกอกน้อย","name:en":"Bangkok Noi Police Station","@type":"node","@id":10763809763},"geometry":{"type":"Point","coordinates":[100.4715376,13.7600523]}},{"type":"Feature","id":10903373794,"properties":{"addr:district":"หนองแขม","addr:postcode":"10160","addr:province":"กรุงเทพมหานคร","addr:street":"ถนนมาเจริญ (บางบอน5)","addr:subdistrict":"หนองแขม","amenity":"police","name":"สถานีตำรวจนครบาลหนองแขม","operator":"ตำรวจแห่งชาติ","operator:en":"Royal Thai Police","operator:short":"RTP","operator:th":"ตำรวจแห่งชาติ","operator:wikidata":"Q1831399","short_name":"สถานีตำรวจหนองแขม","website":"https://www.nongkhaempolice.com/","@type":"node","@id":10903373794},"geometry":{"type":"Point","coordinates":[100.3453684,13.6766384]}},{"type":"Feature","id":11013382247,"properties":{"amenity":"police","name":"กองบังคับการตำรวจนครบาล ๕","name:en":"Metropolitan Police Division 5","source":"Bing; sign","@type":"node","@id":11013382247},"geometry":{"type":"Point","coordinates":[100.5318268,13.7230077]}},{"type":"Feature","id":11609544192,"properties":{"amenity":"police","@type":"node","@id":11609544192},"geometry":{"type":"Point","coordinates":[100.5734681,13.7783304]}},{"type":"Feature","id":12438400243,"properties":{"addr:district":"หนองแขม","addr:postcode":"10160","addr:province":"กรุงเทพมหานคร","addr:subdistrict":"หนองแขม","amenity":"police","name":"สถานีตำรวจชุมชนตลาดหนองแขม","name:en":"Tarad Nongkaem Community Policeing Station","name:th":"สถานีตำรวจชุมชนตลาดหนองแขม","operator":"ตำรวจแห่งชาติ","operator:en":"Royal Thai Police","operator:short":"RTP","operator:th":"ตำรวจแห่งชาติ","operator:wikidata":"Q1831399","@type":"node","@id":12438400243},"geometry":{"type":"Point","coordinates":[100.3397815,13.6776789]}},{"type":"Feature","id":12461212260,"properties":{"addr:district":"บางกอกใหญ่","addr:postcode":"10600","addr:province":"กรุงเทพมหานคร","addr:subdistrict":"วัดท่าพระ","amenity":"police","name":"สถานีตำรวจนครบาลท่าพระ","name:en":"Tha Phra Police Station","name:th":"สถานีตำรวจนครบาลท่าพระ","operator":"ตำรวจแห่งชาติ","operator:en":"Royal Thai Police","operator:short":"RTP","operator:th":"ตำรวจแห่งชาติ","operator:wikidata":"Q1831399","@type":"node","@id":12461212260},"geometry":{"type":"Point","coordinates":[100.4656487,13.7295416]}},{"type":"Feature","id":13125138818,"properties":{"amenity":"police","@type":"node","@id":13125138818},"geometry":{"type":"Point","coordinates":[100.5651472,13.7338458]}},{"type":"Feature","id":13251206844,"properties":{"amenity":"police","name":"Thong Lor Police Post","operator":"ตำรวจแห่งชาติ","operator:en":"Royal Thai Police","operator:short":"RTP","operator:th":"ตำรวจแห่งชาติ","operator:wikidata":"Q1831399","@type":"node","@id":13251206844},"geometry":{"type":"Point","coordinates":[100.5819666,13.7324379]}},{"type":"Feature","id":13727482651,"properties":{"amenity":"police","@type":"node","@id":13727482651},"geometry":{"type":"Point","coordinates":[100.5762465,13.710679]}},{"type":"Feature","id":25829534,"properties":{"amenity":"police","name":"สำนักงานตำรวจแห่งชาติ","name:en":"Royal Thai Police Headquarters","name:th":"สำนักงานตำรวจแห่งชาติ","@type":"way","@id":25829534},"geometry":{"type":"Point","coordinates":[100.5374196,13.7442148]}},{"type":"Feature","id":48967626,"properties":{"amenity":"police","barrier":"wall","name":"สถานีตำรวจนครบาลลุมพินี","name:en":"Lumpini Police Station","name:th":"สถานีตำรวจนครบาลลุมพินี","@type":"way","@id":48967626},"geometry":{"type":"Point","coordinates":[100.5461204,13.7316056]}},{"type":"Feature","id":138948365,"properties":{"addr:district":"พระนคร","addr:postcode":"10200","addr:province":"กรุงเทพมหานคร","addr:subdistrict":"วังบูรพาภิรมย์","amenity":"police","building":"commercial","name":"กองบังคับการตำรวจนครบาล 6","name:en":"Metropolitan Police Department 6","name:th":"กองบังคับการตำรวจนครบาล 6","office":"government","phone":"+66 2 223 1222","short_name:th":"บก.น.6","website":"http://metropolicediv6.com/","@type":"way","@id":138948365},"geometry":{"type":"Point","coordinates":[100.4992978,13.7460674]}},{"type":"Feature","id":151988452,"properties":{"amenity":"police","building":"yes","name":"สถานีตำรวจภูธรปากเกร็ด","source":"Bing","@type":"way","@id":151988452},"geometry":{"type":"Point","coordinates":[100.5471967,13.9379302]}},{"type":"Feature","id":174444011,"properties":{"addr:city":"ศาลายา","addr:housenumber":"99/24 M.5","addr:postcode":"73170","addr:street":"ธรรมสพน์","amenity":"police","building":"yes","name":"สถานีตำรวจภูธร พุทธมณฑล","@type":"way","@id":174444011},"geometry":{"type":"Point","coordinates":[100.3206454,13.8016897]}},{"type":"Feature","id":175683950,"properties":{"amenity":"police","name":"สํานักงานส่งกําลังบํารุง","name:th":"สํานักงานส่งกําลังบํารุง","@type":"way","@id":175683950},"geometry":{"type":"Point","coordinates":[100.5280285,13.781491]}},{"type":"Feature","id":176820823,"properties":{"amenity":"police","barrier":"wall","landuse":"institutional","name":"กองบัญชาการตำรวจนครบาล","name:en":"Metropolitan Police Bureau","name:th":"กองบัญชาการตำรวจนครบาล","@type":"way","@id":176820823},"geometry":{"type":"Point","coordinates":[100.5099924,13.7676351]}},{"type":"Feature","id":191190227,"properties":{"addr:district":"หนองจอก","addr:postcode":"10530","addr:province":"กรุงเทพมหานคร","amenity":"police","building":"yes","name":"สถานีตำรวจนครบาลลำผักชี","name:en":"Lampakchee Police Station","name:th":"สถานีตำรวจนครบาลลำผักชี","@type":"way","@id":191190227},"geometry":{"type":"Point","coordinates":[100.8459855,13.8095102]}},{"type":"Feature","id":194327361,"properties":{"amenity":"police","government":"police","name":"ศูนย์พัฒนาด้านการข่าว กองบัญชาการตำรวจสันติบาล","name:en":"Intelligence Development Center Special Branch","name:th":"ศูนย์พัฒนาด้านการข่าว กองบัญชาการตำรวจสันติบาล","office":"government","@type":"way","@id":194327361},"geometry":{"type":"Point","coordinates":[100.5728108,13.8752598]}},{"type":"Feature","id":194327367,"properties":{"amenity":"police","building":"yes","name":"สถานีตำรวจนครบาลทุ่งสองห้อง","name:en":"Thungsonghong Police Station","name:th":"สถานีตำรวจนครบาลทุ่งสองห้อง","@type":"way","@id":194327367},"geometry":{"type":"Point","coordinates":[100.5712088,13.8681368]}},{"type":"Feature","id":196902822,"properties":{"amenity":"police","name":"สถานีตำรวจภูธรนนทบุรี","name:en":"Nonthaburi Provincial Police","@type":"way","@id":196902822},"geometry":{"type":"Point","coordinates":[100.5041208,13.8826131]}},{"type":"Feature","id":208118669,"properties":{"amenity":"police","building":"yes","name":"หน่วยบริการประชาชนตลาดเทศบาลนครปากเกร็ด สถานีตำรวจภูธรปากเกร็ด","@type":"way","@id":208118669},"geometry":{"type":"Point","coordinates":[100.4979507,13.9120549]}},{"type":"Feature","id":220645996,"properties":{"amenity":"police","building":"yes","name":"สถานีตำรวจจังหวัดปทุมธานี","name:en":"Muang Pathum Thani Police Station","@type":"way","@id":220645996},"geometry":{"type":"Point","coordinates":[100.5343133,14.018775]}},{"type":"Feature","id":222126064,"properties":{"amenity":"police","building":"yes","name":"สถานีตำรวจนครบาลพญาไท","name:ja":"パヤタイ警察署","source":"Bing, Local knowledge","website":"https://phayathai.metro.police.go.th/","@type":"way","@id":222126064},"geometry":{"type":"Point","coordinates":[100.5301764,13.7594074]}},{"type":"Feature","id":254864928,"properties":{"amenity":"police","landuse":"police","@type":"way","@id":254864928},"geometry":{"type":"Point","coordinates":[100.5545863,13.831702]}},{"type":"Feature","id":289494460,"properties":{"addr:district":"บางรัก","addr:district:en":"Bang Rak","addr:district:th":"บางรัก","addr:housenumber":"80","addr:postcode":"10500","addr:province":"กรุงเทพมหานคร","addr:street":"ถนนสุรศักดิ์","addr:subdistrict":"สีลม","amenity":"police","building":"yes","building:levels":"3","email":"yannava.polis@gmail.com","fax":"+66 2 233 7277","name":"สถานีตำรวจนครบาลยานนาวา","name:en":"Yannawa Police Station","name:th":"สถานีตำรวจนครบาลยานนาวา","phone":"+66 2 233 7148-9","source":"survey","website":"https://www.yannawametropolice.com","@type":"way","@id":289494460},"geometry":{"type":"Point","coordinates":[100.5193881,13.7203989]}},{"type":"Feature","id":301161721,"properties":{"addr:district":"ป้อมปราบศัตรูพ่าย","addr:postcode":"10100","addr:province":"กรุงเทพมหานคร","addr:subdistrict":"ป้อมปราบ","amenity":"police","building":"yes","name":"สถานีตำรวจนครบาล พลับพลาไชย","name:en":"Phapphachai Police Station","@type":"way","@id":301161721},"geometry":{"type":"Point","coordinates":[100.5106455,13.7439375]}},{"type":"Feature","id":316166738,"properties":{"amenity":"police","name":"ตู้ควบคุมสัญญาณไฟจราจร เดอะมอลล์ บางกะปิ","operator":"สำนักงานตำรวจแห่งชาติ","@type":"way","@id":316166738},"geometry":{"type":"Point","coordinates":[100.6417194,13.7678245]}},{"type":"Feature","id":316240420,"properties":{"addr:district":"บางกะปิ","addr:postcode":"10240","addr:province":"กรุงเทพมหานคร","addr:subdistrict":"คลองจั่น","amenity":"police","building":"yes","name":"ตู้ควบคุมสัญญาณไฟจราจร สี่แยกบางกะปิ","operator":"สำนักงานตำรวจแห่งชาติ","@type":"way","@id":316240420},"geometry":{"type":"Point","coordinates":[100.6477097,13.766521]}},{"type":"Feature","id":316413956,"properties":{"addr:district":"บางกะปิ","addr:postcode":"10240","addr:province":"กรุงเทพมหานคร","addr:subdistrict":"คลองจั่น","amenity":"police","building":"yes","name":"ตู้ควบคุมสัญญาณไฟจราจร แยกนิด้า","operator":"สำนักงานตำรวจแห่งชาติ","@type":"way","@id":316413956},"geometry":{"type":"Point","coordinates":[100.6543382,13.7728157]}},{"type":"Feature","id":321260762,"properties":{"addr:district":"บางบอน","addr:housenumber":"1277","addr:postcode":"10150","addr:province":"กรุงเทพมหานคร","addr:street":"ถนนเอกชัย","addr:subdistrict":"บางบอนใต้","amenity":"police","building":"yes","name":"สถานีตำรวจนครบาลบางบอน","name:en":"Bangbon Metropolitan Police Station","name:th":"สถานีตำรวจนครบาลบางบอน","short_name":"สถานีตำรวจบางบอน","website":"https://bangbon.metro.police.go.th","@type":"way","@id":321260762},"geometry":{"type":"Point","coordinates":[100.3814819,13.6457366]}},{"type":"Feature","id":321532229,"properties":{"amenity":"police","area":"yes","name":"สถานีตำรวจนครบาลลาดกระบัง","name:en":"Lat Krabang Police Station","name:th":"สถานีตำรวจนครบาลลาดกระบัง","website":"https://ladkrabang.metro.police.go.th/","@type":"way","@id":321532229},"geometry":{"type":"Point","coordinates":[100.7639126,13.7210582]}},{"type":"Feature","id":323690981,"properties":{"addr:district":"วัฒนา","addr:postcode":"10110","addr:province":"กรุงเทพมหานคร","addr:subdistrict":"คลองตันเหนือ","amenity":"police","building":"yes","check_date":"2025-11-14","name":"สถานีตำรวจนครบาลทองหล่อ","name:en":"Thong Lor Metropolitan Police Station","name:th":"สถานีตำรวจนครบาลทองหล่อ","@type":"way","@id":323690981},"geometry":{"type":"Point","coordinates":[100.5836154,13.7359342]}},{"type":"Feature","id":332633013,"properties":{"amenity":"police","building":"yes","@type":"way","@id":332633013},"geometry":{"type":"Point","coordinates":[100.6838093,13.9213318]}},{"type":"Feature","id":338827251,"properties":{"addr:city":"กรุงเทพมหานคร","addr:postcode":"10310","amenity":"police","building":"yes","name":"สถานีตำรวจนครบาลวังทองหลาง","name:en":"WangTongLang Police Station","name:th":"สถานีตำรวจนครบาลวังทองหลาง","phone":"02 539 0171","@type":"way","@id":338827251},"geometry":{"type":"Point","coordinates":[100.6017279,13.7598918]}},{"type":"Feature","id":339641413,"properties":{"addr:city":"หัวหมาก","addr:housenumber":"2090","addr:postcode":"10240","addr:street":"ถนนรามคำแหง","amenity":"police","landuse":"commercial","name":"สถานีตำรวจนครบาลหัวหมาก","name:en":"Huamark Police Station","name:th":"สถานีตำรวจนครบาลหัวหมาก","@type":"way","@id":339641413},"geometry":{"type":"Point","coordinates":[100.6273675,13.7597746]}},{"type":"Feature","id":366186706,"properties":{"amenity":"police","building":"yes","@type":"way","@id":366186706},"geometry":{"type":"Point","coordinates":[100.6172404,14.076007]}},{"type":"Feature","id":367977945,"properties":{"addr:district":"ดินแดง","addr:postcode":"10400","addr:province":"กรุงเทพมหานคร","addr:subdistrict":"ดินแดง","amenity":"police","building":"yes","name":"สถานีตำรวจนครบาลห้วยขวาง","name:en":"Huai Khwang Metropolitan Police Station","name:th":"สถานีตำรวจนครบาลห้วยขวาง","@type":"way","@id":367977945},"geometry":{"type":"Point","coordinates":[100.5698642,13.7770475]}},{"type":"Feature","id":368606052,"properties":{"addr:district":"ดินแดง","addr:postcode":"10400","addr:province":"กรุงเทพมหานคร","addr:subdistrict":"รัชดาภิเษก","amenity":"police","building":"yes","name":"Sutthisan Check Point","@type":"way","@id":368606052},"geometry":{"type":"Point","coordinates":[100.5669674,13.7861407]}},{"type":"Feature","id":393403618,"properties":{"amenity":"police","building":"yes","name":"Vibhavadi Metropolitan Police Station","@type":"way","@id":393403618},"geometry":{"type":"Point","coordinates":[100.5582706,13.8337912]}},{"type":"Feature","id":442793759,"properties":{"addr:housenumber":"35 หมู่ 7","amenity":"police","building":"yes","name":"Khongluang police office","name:th":"สถานีตำรวจภูธรคลองหลวง","@type":"way","@id":442793759},"geometry":{"type":"Point","coordinates":[100.6462972,14.0651272]}},{"type":"Feature","id":450148796,"properties":{"addr:district":"วัฒนา","addr:province":"กรุงเทพมหานคร","addr:subdistrict":"พระโขนงเหนือ","amenity":"police","building":"yes","name":"สถานีตำรวจนครบาลพระโขนง","name:en":"Phrakhanong Metropolitan Police Station","source":"Bing","@type":"way","@id":450148796},"geometry":{"type":"Point","coordinates":[100.5999503,13.7086558]}},{"type":"Feature","id":477558305,"properties":{"amenity":"police","building":"yes","name":"สถานีตำรวจชุมชน ปากทางบางกรวย","name:en":"Pak Tang Bangkruai Community Police Box","name:th":"สถานีตำรวจชุมชน ปากทางบางกรวย","phone":"024594551-2, 191","@type":"way","@id":477558305},"geometry":{"type":"Point","coordinates":[100.5095274,13.8094268]}},{"type":"Feature","id":544286003,"properties":{"amenity":"police","building":"yes","name":"สถานีตำรวจนครบาลโชคชัย","name:en":"Chokchai Police Station","@type":"way","@id":544286003},"geometry":{"type":"Point","coordinates":[100.5933428,13.7952891]}},{"type":"Feature","id":545377314,"properties":{"amenity":"police","building":"yes","name":"RSU Police Station","@type":"way","@id":545377314},"geometry":{"type":"Point","coordinates":[100.5887345,13.9637945]}},{"type":"Feature","id":659085649,"properties":{"addr:city":"ตำบลสวนใหญ่","addr:housenumber":"1","amenity":"police","fax":"0 2525 0900","name":"สถานีตำรวจภูธรเมืองนนทบุรี","name:en":"Nonthaburi Police Station","name:th":"สถานีตำรวจภูธรเมืองนนทบุรี","phone":"0 2525 0900","website":"http://www.mueangnonthaburipolicestation.go.th/","@type":"way","@id":659085649},"geometry":{"type":"Point","coordinates":[100.4916822,13.8429886]}},{"type":"Feature","id":710627208,"properties":{"addr:hamlet":"6","addr:housenumber":"64","addr:subdistrict":"บางกร่าง","amenity":"police","email":"bangsrimuang@royalthaipolice.go.th","name":"สถานีตำรวจภูธรบางศรีเมือง","name:en":"Bang Si Mueang Police Station","name:th":"สถานีตำรวจภูธรบางศรีเมือง","phone":"0 2595 4557","website":"https://bangsrimuang.nonthaburi.police.go.th/","@type":"way","@id":710627208},"geometry":{"type":"Point","coordinates":[100.4407963,13.8355854]}},{"type":"Feature","id":779191100,"properties":{"addr:city":"ตำบลบางขนุน","addr:hamlet":"1","addr:housenumber":"80","addr:postcode":"11130","amenity":"police","fax":"0 2459 4553","name":"สถานีตำรวจภูธรบางกรวย","name:en":"Bang Kruai Police Station","name:th":"สถานีตำรวจภูธรบางกรวย","phone":"0 2459 4551-2","@type":"way","@id":779191100},"geometry":{"type":"Point","coordinates":[100.452594,13.8154858]}},{"type":"Feature","id":868346646,"properties":{"amenity":"police","building":"yes","name":"สถานีตำรวจภูธรเมืองสมุทรสาคร","@type":"way","@id":868346646},"geometry":{"type":"Point","coordinates":[100.2745067,13.5490681]}},{"type":"Feature","id":868403452,"properties":{"addr:district":"เมืองสมุทรสาคร","addr:postcode":"74000","addr:province":"สมุทรสาคร","addr:subdistrict":"มหาชัย","amenity":"police","name":"สถานีตำรวจภูธรเมืองสมุทรสาคร","name:en":"Samut Sakhon Provincial Police Station","website":"https://mueang.samutsakhon.police.go.th/","@type":"way","@id":868403452},"geometry":{"type":"Point","coordinates":[100.2746115,13.5494576]}},{"type":"Feature","id":884667464,"properties":{"amenity":"police","building":"yes","name":"Khu Khot Police Station","@type":"way","@id":884667464},"geometry":{"type":"Point","coordinates":[100.6444169,13.9318494]}},{"type":"Feature","id":897918035,"properties":{"addr:district":"ปทุมวัน","addr:postcode":"10330","addr:province":"กรุงเทพมหานคร","addr:subdistrict":"วังใหม่","amenity":"police","building":"yes","@type":"way","@id":897918035},"geometry":{"type":"Point","coordinates":[100.5254327,13.7421749]}},{"type":"Feature","id":898017620,"properties":{"addr:city":"แขวงวัดโสมนัส","addr:housenumber":"2","addr:postcode":"10100","addr:street":"ถนน กะออม","amenity":"police","building":"commercial","building:levels":"3","name":"สถานีตำรวจนครบานนางเลิ้ง","name:th":"สถานีตำรวจนครบานนางเลิ้ง","@type":"way","@id":898017620},"geometry":{"type":"Point","coordinates":[100.5074879,13.7576333]}},{"type":"Feature","id":1020471364,"properties":{"addr:district":"บางรัก","addr:postcode":"10500","addr:province":"กรุงเทพมหานคร","addr:subdistrict":"สี่พระยา","amenity":"police","building":"yes","name":"สถานีตำรวจนครบาล บางรัก","name:en":"Bangrak Metropolitan Police Station","name:th":"สถานีตำรวจนครบาล บางรัก","opening_hours":"24/7","operator":"Metropolitan Police Bureau","@type":"way","@id":1020471364},"geometry":{"type":"Point","coordinates":[100.5232759,13.7299102]}},{"type":"Feature","id":1073812248,"properties":{"amenity":"police","building":"yes","name":"สถานีตำรวจจังหวัดสมุทรปราการ","@type":"way","@id":1073812248},"geometry":{"type":"Point","coordinates":[100.5975565,13.5977003]}},{"type":"Feature","id":1073812249,"properties":{"addr:district":"เมืองสมุทรปราการ","addr:postcode":"10270","addr:province":"สมุทรปราการ","addr:province:en":"Samut Prakan","addr:street":"ถนนศรีสมุทร","addr:subdistrict":"ปากน้ำ","alt_name":"สถานีตำรวจสมุทรปราการ","alt_name:en":"Samutprakan Police Station","alt_name:th":"สถานีตำรวจสมุทรปราการ","amenity":"police","building":"yes","contact:facebook":"https://www.facebook.com/100064569017461","description":"สถานีตำรวจภูธรเมืองสมุทรปราการ อำเภอเมืองสมุทรปราการ","name":"สถานีตำรวจภูธรเมืองสมุทรปราการ","name:en":"Mueang Samut Prakan Police Station","name:th":"สถานีตำรวจภูธรเมืองสมุทรปราการ","website":"https://mueangsamutprakan.samutprakan.police.go.th/","@type":"way","@id":1073812249},"geometry":{"type":"Point","coordinates":[100.5974898,13.5974199]}},{"type":"Feature","id":1101009789,"properties":{"amenity":"police","building":"yes","name":"สถานีตำรวจนครบาลบางพลัด","name:en":"Bang Phlat Metropolitan Police Station","name:th":"สถานีตำรวจนครบาลบางพลัด","operator":"กองบังคับการตำรวจครบาล 7","@type":"way","@id":1101009789},"geometry":{"type":"Point","coordinates":[100.4916075,13.7654247]}},{"type":"Feature","id":1104847577,"properties":{"amenity":"police","building":"yes","name":"Bang Kaew Police Station","@type":"way","@id":1104847577},"geometry":{"type":"Point","coordinates":[100.6733417,13.6504861]}},{"type":"Feature","id":1117991335,"properties":{"amenity":"police","building":"yes","name":"สถานีตำรวจภูธรเมืองสมุทรสาคร","@type":"way","@id":1117991335},"geometry":{"type":"Point","coordinates":[100.274714,13.5491014]}},{"type":"Feature","id":1186500402,"properties":{"addr:district":"ปทุมวัน","addr:postcode":"10330","addr:province":"กรุงเทพมหานคร","addr:subdistrict":"รองเมือง","amenity":"police","building":"yes","@type":"way","@id":1186500402},"geometry":{"type":"Point","coordinates":[100.5158568,13.7385097]}},{"type":"Feature","id":1211304692,"properties":{"addr:district":"สาทร","addr:housenumber":"505","addr:postcode":"10120","addr:province":"กรุงเทพมหานคร","addr:street":"ถนนสวนพลู","addr:subdistrict":"ทุ่งมหาเมฆ","amenity":"police","building":"yes","email":"mekapolicestation@hotmail.com","fax":"+66 2287-3007","name":"สถานีตำรวจนครบาลทุ่งมหาเมฆ","name:en":"Thung Maha Mek Police Station","name:th":"สถานีตำรวจนครบาลทุ่งมหาเมฆ","phone":"+66 2287-3004-6","start_date":"1976-10-07","website":"https://thungmahamek.metro.police.go.th/","@type":"way","@id":1211304692},"geometry":{"type":"Point","coordinates":[100.539385,13.7183901]}},{"type":"Feature","id":1215834197,"properties":{"amenity":"police","building":"yes","name":"สถานีตำรวจภูธรธัญบุรี","name:en":"Thanyaburi Police Department","name:th":"สถานีตำรวจภูธรธัญบุรี","@type":"way","@id":1215834197},"geometry":{"type":"Point","coordinates":[100.7337437,14.0209396]}},{"type":"Feature","id":1216274752,"properties":{"addr:district":"บางกะปิ","addr:postcode":"10240","addr:province":"กรุงเทพมหานคร","addr:subdistrict":"คลองจั่น","amenity":"police","building":"yes","name":"สถานีตำรวจชุมชนบึงทองหลาง","name:en":"Buengthonglang Community Police Station","operator":"ตำรวจแห่งชาติ","operator:en":"Royal Thai Police","operator:short":"RTP","operator:th":"ตำรวจแห่งชาติ","operator:wikidata":"Q1831399","@type":"way","@id":1216274752},"geometry":{"type":"Point","coordinates":[100.6271769,13.7965376]}},{"type":"Feature","id":1221555474,"properties":{"amenity":"police","building":"yes","name":"สถานีตำรวจนครบาลบางกอกใหญ่","@type":"way","@id":1221555474},"geometry":{"type":"Point","coordinates":[100.4867622,13.7415388]}},{"type":"Feature","id":1225162272,"properties":{"amenity":"police","building":"yes","name":"สถานีตำรวจนครบาลวังทองหลาง","name:en":"Wang Thonglang Police Station","name:th":"สถานีตำรวจนครบาลวังทองหลาง","@type":"way","@id":1225162272},"geometry":{"type":"Point","coordinates":[100.6009399,13.7589925]}},{"type":"Feature","id":1234911290,"properties":{"amenity":"police","building":"yes","name":"Tourist Police Bureau","operator":"กองบัญชาการตำรวจท่องเที่ยว","operator:en":"Tourist Police Bureau","operator:th":"กองบัญชาการตำรวจท่องเที่ยว","operator:wikidata":"Q58366882","@type":"way","@id":1234911290},"geometry":{"type":"Point","coordinates":[100.7752041,13.7127009]}},{"type":"Feature","id":1236332933,"properties":{"addr:district":"เมืองสมุทรปราการ","addr:postcode":"10280","addr:province":"สมุทรปราการ","addr:subdistrict":"บางปูใหม่","alt_name":"สถานีตำรวจบางปู","amenity":"police","name":"สถานีตำรวจภูธรบางปู","operator":"ตำรวจแห่งชาติ","operator:en":"Royal Thai Police","operator:short":"RTP","operator:th":"ตำรวจแห่งชาติ","operator:wikidata":"Q1831399","website":"https://policebangpoo.net/","@type":"way","@id":1236332933},"geometry":{"type":"Point","coordinates":[100.6900714,13.5130046]}},{"type":"Feature","id":1236332934,"properties":{"amenity":"police","building":"yes","operator":"ตำรวจแห่งชาติ","operator:en":"Royal Thai Police","operator:short":"RTP","operator:th":"ตำรวจแห่งชาติ","operator:wikidata":"Q1831399","@type":"way","@id":1236332934},"geometry":{"type":"Point","coordinates":[100.6900755,13.5127069]}},{"type":"Feature","id":1239588047,"properties":{"addr:district":"บางคอแหลม","addr:postcode":"10120","addr:province":"กรุงเทพมหานคร","addr:subdistrict":"บางโคล่","amenity":"police","building":"yes","name":"สถานีตำราวจชุมชนวัดไผ่เงิน","name:th":"สถานีตำราวจชุมชนวัดไผ่เงิน","@type":"way","@id":1239588047},"geometry":{"type":"Point","coordinates":[100.5235695,13.7017197]}},{"type":"Feature","id":1243380724,"properties":{"addr:district":"บางขุนเทียน","addr:postcode":"10150","addr:province":"กรุงเทพมหานคร","addr:subdistrict":"ท่าข้าม","amenity":"police","building":"yes","name":"สถานีตำรวจนครบาลเทียนทะเล","name:en":"Thian Talay Police Station","name:th":"สถานีตำรวจนครบาลเทียนทะเล","@type":"way","@id":1243380724},"geometry":{"type":"Point","coordinates":[100.4190309,13.5515854]}},{"type":"Feature","id":1263179382,"properties":{"addr:district":"บางบ่อ","addr:housenumber":"333","addr:postcode":"10550","addr:province":"สมุทรปราการ","addr:province:en":"Samutprakan","addr:street":"ถนนสุขุมวิท","addr:subdistrict":"คลองด่าน","alt_name":"สถานีตำรวจคลองด่าน","amenity":"police","contact:facebook":"https://th-th.facebook.com/klongdanpolice/","name":"สถานีตำรวจภูธรคลองด่าน","name:en":"Klongdan Police Station","name:th":"สถานีตำรวจภูธรคลองด่าน","website":"https://khlongdan.samutprakan.police.go.th/","@type":"way","@id":1263179382},"geometry":{"type":"Point","coordinates":[100.8358801,13.5023903]}},{"type":"Feature","id":1279023372,"properties":{"addr:street":"ถนนพระรามที่ 5","amenity":"police","building":"yes","name":"สถานีตำรวจนครบาลดุสิต","name:en":"Dusit Metropolitan Police Station","name:th":"สถานีตำรวจนครบาลดุสิต","@type":"way","@id":1279023372},"geometry":{"type":"Point","coordinates":[100.5208723,13.7774699]}},{"type":"Feature","id":1315887990,"properties":{"amenity":"police","layer":"1","name":"สถานีตำรวจนครบาลบางขุนเทียน","name:en":"Bang Khun Thian Police Station","name:th":"สถานีตำรวจนครบาลบางขุนเทียน","operator":"ตำรวจแห่งชาติ","operator:en":"Royal Thai Police","operator:short":"RTP","operator:th":"ตำรวจแห่งชาติ","operator:wikidata":"Q1831399","@type":"way","@id":1315887990},"geometry":{"type":"Point","coordinates":[100.4447304,13.6858286]}},{"type":"Feature","id":1319867503,"properties":{"addr:district":"ดินแดง","addr:postcode":"10400","addr:province":"กรุงเทพมหานคร","addr:subdistrict":"ดินแดง","amenity":"police","building":"yes","name":"ศูนย์ปฏิบัติการตำรวจชุมชนเคหะดินแดง 2","name:th":"ศูนย์ปฏิบัติการตำรวจชุมชนเคหะดินแดง 2","operator":"สถานีตำรวจนครบาลดินแดง","@type":"way","@id":1319867503},"geometry":{"type":"Point","coordinates":[100.5548345,13.7657163]}},{"type":"Feature","id":1320015011,"properties":{"amenity":"police","name":"สถานีตำรวจนครบาลดินแดง","name:th":"สถานีตำรวจนครบาลดินแดง","@type":"way","@id":1320015011},"geometry":{"type":"Point","coordinates":[100.5569668,13.7715941]}},{"type":"Feature","id":1320660079,"properties":{"amenity":"police","name":"กองบังคับการตำรวจนครบาล 9","name:th":"กองบังคับการตำรวจนครบาล 9","@type":"way","@id":1320660079},"geometry":{"type":"Point","coordinates":[100.4583875,13.6694799]}},{"type":"Feature","id":1320936454,"properties":{"amenity":"police","area":"yes","name":"สถานีตำรวจนครบาลบางมด","name:en":"Bang Mot Metro Police Station","@type":"way","@id":1320936454},"geometry":{"type":"Point","coordinates":[100.4550715,13.67385]}},{"type":"Feature","id":1331393965,"properties":{"amenity":"police","name":"ศูนย์สืบนครบาล","name:th":"ศูนย์สืบนครบาล","@type":"way","@id":1331393965},"geometry":{"type":"Point","coordinates":[100.5263868,13.760626]}},{"type":"Feature","id":1355904298,"properties":{"amenity":"police","name":"สถานีตำรวจภูธรพระประแดง","name:en":"Phrapradaeng Police Station","name:th":"สถานีตำรวจภูธรพระประแดง","operator":"ตำรวจแห่งชาติ","operator:en":"Royal Thai Police","operator:short":"RTP","operator:th":"ตำรวจแห่งชาติ","operator:wikidata":"Q1831399","@type":"way","@id":1355904298},"geometry":{"type":"Point","coordinates":[100.5336579,13.6576957]}},{"type":"Feature","id":1356233493,"properties":{"amenity":"police","name":"สถานีตำรวจภูธรไทรน้อย","name:th":"สถานีตำรวจภูธรไทรน้อย","@type":"way","@id":1356233493},"geometry":{"type":"Point","coordinates":[100.3234613,13.9828982]}},{"type":"Feature","id":1374672871,"properties":{"amenity":"police","name":"กองบัญชาการตำรวจตระเวนชายแดน","name:en":"Border Control Police Bureau","name:th":"กองบัญชาการตำรวจตระเวนชายแดน","@type":"way","@id":1374672871},"geometry":{"type":"Point","coordinates":[100.5452562,13.7833198]}},{"type":"Feature","id":1382560834,"properties":{"addr:district":"พระนคร","addr:housenumber":"79","addr:postcode":"10200","addr:province":"กรุงเทพมหานคร","addr:street":"ถนนมหาราช","addr:subdistrict":"พระบรมมหาราชวัง","amenity":"police","building":"yes","building:levels":"1","name":"สถานีตำรวจนครบาลพระราชวัง","name:en":"Phra Ratchawang Police Station","name:th":"สถานีตำรวจนครบาลพระราชวัง","website":"https://phrarachawang.metro.police.go.th/LP%20Web/Homes.php","wikidata":"Q135100159","wikipedia":"th:สถานีตำรวจนครบาลพระราชวัง","@type":"way","@id":1382560834},"geometry":{"type":"Point","coordinates":[100.4944663,13.743242]}},{"type":"Feature","id":1383256061,"properties":{"amenity":"police","landuse":"industrial","name":"โรงพิพม์ตำรวจ","name:en":"Police Printing Bureau","name:th":"โรงพิพม์ตำรวจ","@type":"way","@id":1383256061},"geometry":{"type":"Point","coordinates":[100.5295694,13.7823228]}},{"type":"Feature","id":1387749248,"properties":{"amenity":"police","name":"กองตำรวจทางหลวง","name:en":"Highway Police","name:th":"กองตำรวจทางหลวง","@type":"way","@id":1387749248},"geometry":{"type":"Point","coordinates":[100.5236657,13.7623663]}},{"type":"Feature","id":1390020830,"properties":{"amenity":"police","name":"กองบังคับการอารักขาและควบคุมฝูงชน 1","name:th":"กองบังคับการอารักขาและควบคุมฝูงชน 1","operator":"ตำรวจแห่งชาติ","operator:en":"Royal Thai Police","operator:short":"RTP","operator:th":"ตำรวจแห่งชาติ","operator:wikidata":"Q1831399","@type":"way","@id":1390020830},"geometry":{"type":"Point","coordinates":[100.5802809,13.8666096]}},{"type":"Feature","id":1390020841,"properties":{"amenity":"police","@type":"way","@id":1390020841},"geometry":{"type":"Point","coordinates":[100.5775068,13.8686484]}},{"type":"Feature","id":1444930251,"properties":{"amenity":"police","name":"กองตำรวจสื่อสาร","name:th":"กองตำรวจสื่อสาร","police":"offices","@type":"way","@id":1444930251},"geometry":{"type":"Point","coordinates":[100.5714349,13.8381988]}},{"type":"Feature","id":1456728114,"properties":{"amenity":"police","building":"yes","@type":"way","@id":1456728114},"geometry":{"type":"Point","coordinates":[100.5530313,13.7419665]}},{"type":"Feature","id":1473277694,"properties":{"amenity":"police","name":"กองบังคับการตำรวจสันติบาล 1","name:th":"กองบังคับการตำรวจสันติบาล 1","@type":"way","@id":1473277694},"geometry":{"type":"Point","coordinates":[100.5299338,13.7812947]}},{"type":"Feature","id":1487913468,"properties":{"amenity":"police","building":"yes","name":"สถานีตำรวจนครบาลธรรมศาลา","name:th":"สถานีตำรวจนครบาลธรรมศาลา","operator":"ตำรวจแห่งชาติ","operator:en":"Royal Thai Police","operator:short":"RTP","operator:th":"ตำรวจแห่งชาติ","operator:wikidata":"Q1831399","@type":"way","@id":1487913468},"geometry":{"type":"Point","coordinates":[100.3545772,13.770717]}},{"type":"Feature","id":1492116619,"properties":{"amenity":"police","building":"yes","name":"สถานีตำรวจทางหลวง 2 กองกำกับการ 8","name:en":"Highway Police Station 2 Sub-divison 8","name:th":"สถานีตำรวจทางหลวง 2 กองกำกับการ 8","@type":"way","@id":1492116619},"geometry":{"type":"Point","coordinates":[100.6733832,13.8289986]}},{"type":"Feature","id":1516178383,"properties":{"addr:district":"พระนคร","addr:housenumber":"74","addr:postcode":"10200","addr:province":"กรุงเทพมหานคร","addr:street":"ถนนจักรพงษ์","addr:subdistrict":"ตลาดยอด","amenity":"police","building":"commercial","name":"สถานีตำรวจนครบาลชนะสงคราม","name:th":"สถานีตำรวจนครบาลชนะสงคราม","@type":"way","@id":1516178383},"geometry":{"type":"Point","coordinates":[100.4959999,13.7598188]}},{"type":"Feature","id":1520473634,"properties":{"amenity":"police","building":"yes","name":"สถานีตำรวจนครบาลหนองค้างพลู","name:th":"สถานีตำรวจนครบาลหนองค้างพลู","@type":"way","@id":1520473634},"geometry":{"type":"Point","coordinates":[100.3488416,13.7288694]}},{"type":"Feature","id":1524574484,"properties":{"addr:district":"เมืองสมุทรสาคร","addr:postcode":"74000","addr:province":"สมุทรสาคร","addr:street":"ถนนเลียบคลองหลวง","addr:subdistrict":"โคกขาม","amenity":"police","country":"ไทย","layer":"1","name":"สถานีตำรวจภูธรโคกขาม","name:en":"Khokkham Police Station","name:th":"สถานีตำรวจโคกขาม สมุทรสาคร","opening_hours":"24/7","phone":"034869654","province":"สมุทรสาคร","website":"https://khokkham.samutsakhon.police.go.th","@type":"way","@id":1524574484},"geometry":{"type":"Point","coordinates":[100.323563,13.5184546]}},{"type":"Feature","id":1524577047,"properties":{"addr:district":"เมืองสมุทรสาคร","addr:place":"9","addr:postcode":"74000","addr:province":"สมุทรสาคร","addr:street":"ถนนเลียบคลองหลวง","addr:subdistrict":"โคกขาม","amenity":"police","country":"ไทย","layer":"1","name":"พิสูจน์หลักฐานจังหวัดสมุทรสาคร","name:en":"Samut Sakhon Provincial Police Forensic Science","name:th":"พิสูจน์หลักฐาน จังหวัดสมุทรสาคร","province":"สมุทรสาคร","source":"https://criminal.police.go.th/serve0.php","website":"https://criminal.police.go.th/serve0.php","@type":"way","@id":1524577047},"geometry":{"type":"Point","coordinates":[100.3230678,13.5194426]}},{"type":"Feature","id":1526464615,"properties":{"addr:district":"สามพราน","addr:housenumber":"99","addr:place":"6","addr:postcode":"73110","addr:province":"นครปฐม","addr:subdistrict":"ท่าตลาด","amenity":"police","building":"yes","contact:facebook":"https://www.facebook.com/phokaewpolicestation","name":"สถานีตำรวจภูธรโพธิ์แก้ว","name:en":"Phokaew Police Station","name:th":"สถานีตำรวจภูธรโพธิ์แก้ว","short_name":"สถานีตำรวจโพธิ์แก้ว","website":"https://phokaeo.nakhonpathom.police.go.th","@type":"way","@id":1526464615},"geometry":{"type":"Point","coordinates":[100.2557701,13.7430804]}},{"type":"Feature","id":1528420764,"properties":{"addr:district":"จอมทอง","addr:postcode":"10150","addr:province":"กรุงเทพมหานคร","addr:subdistrict":"จอมทอง","amenity":"police","layer":"1","name":"กองบังคับการตำรวจนครบาล 8","name:th":"กองบังคับการตำรวจนครบาล 8","@type":"way","@id":1528420764},"geometry":{"type":"Point","coordinates":[100.4606177,13.692459]}},{"type":"Feature","id":1529043110,"properties":{"addr:country":"TH","addr:district":"เมืองสมุทรสาคร","addr:province":"สมุทรสาคร","addr:street":"ถนนวัดศรีบูรณาวาส","addr:subdistrict":"โคกขาม","amenity":"police","building":"yes","country":"ไทย","name":"หน่วยบริการประชาชน สภ.โคกขาม","name:en":"Khokkham Police Station Public Service Unit","name:th":"หน่วยบริการประชาชน สภ.โคกขาม","@type":"way","@id":1529043110},"geometry":{"type":"Point","coordinates":[100.299968,13.5568648]}},{"type":"Feature","id":1533045308,"properties":{"addr:district":"บางพลี","addr:province":"สมุทรปราการ","addr:subdistrict":"บางปลา","amenity":"police","description":"ที่ทำการใหม่ของ ตำรวจภูธรจังหวัดสมุทรปราการ (หน่วยงานบริหาร) ตั้งอยู่เลขที่ 58/58 หมู่ที่ 14 ตำบลบางปลา อำเภอบางพลี จังหวัดสมุทรปราการ \nhttps://www.facebook.com/policesamutprakan/posts/%E0%B8%9B%E0%B8%A3%E0%B8%B0%E0%B8%81%E0%B8%B2%E0%B8%A8-%E0%B8%95%E0%B8","name":"ตำรวจจังหวัดสมุทรปราการ (หน่วยงานบริหาร)","name:en":"Samutprakan Provincial Police","name:th":"ตำรวจจังหวัดสมุทรปราการ","operator":"ตำรวจแห่งชาติ","operator:en":"Royal Thai Police","operator:short":"RTP","operator:th":"ตำรวจแห่งชาติ","operator:wikidata":"Q1831399","source":"https://www.facebook.com/policesamutprakan/posts/%E0%B8%9B%E0%B8%A3%E0%B8%B0%E0%B8%81%E0%B8%B2%E0%B8%A8-%E0%B8%95%E0%B8%B3%E0%B8%A3%E0%B8%A7%E0%B8%88%E0%B8%A0%E0%B8%B9%E0%B8%98%E0%B8%A3%E0%B8%88%E0%B8%B1%E0%B8%87%E0%B8%AB%E0%B8%A7%E0%B8%B1%E0%B8%94%E0%B8%","@type":"way","@id":1533045308},"geometry":{"type":"Point","coordinates":[100.7624792,13.5219034]}},{"type":"Feature","id":1533075730,"properties":{"addr:district":"บางพลี","addr:postcode":"10540","addr:province":"สมุทรปราการ","addr:subdistrict":"บางพลีใหญ่","alt_name":"สถานีตำรวจบางพลี","amenity":"police","building":"yes","contact:facebook":"https://www.facebook.com/police.bangplee","layer":"1","name":"สถานีตำรวจภูธรบางพลี","name:en":"Bang Phli Police Station","name:th":"สถานีตำรวจภูธรบางพลี","operator":"ตำรวจแห่งชาติ","operator:en":"Royal Thai Police","operator:short":"RTP","operator:th":"ตำรวจแห่งชาติ","operator:wikidata":"Q1831399","province":"สมุทรปราการ","website":"https://bangphli.samutprakan.police.go.th/","@type":"way","@id":1533075730},"geometry":{"type":"Point","coordinates":[100.7064636,13.605945]}},{"type":"Feature","id":1533117039,"properties":{"addr:country":"ไทย","addr:district":"พระประแดง","addr:housenumber":"204","addr:place":"3","addr:postcode":"10270","addr:province":"สมุทรปราการ","addr:province:en":"Samutprakan","addr:subdistrict":"สำโรงกลาง","addr:subdistrict:en":"Samrong Klang","amenity":"police","name":"สถานีตำรวจภูธรสำโรงใต้","name:en":"Samrongtai Police Station","name:th":"สถานีตำรวจภูธรสำโรงใต้","operator":"ตำรวจแห่งชาติ","operator:en":"Royal Thai Police","operator:short":"RTP","operator:th":"ตำรวจแห่งชาติ","operator:wikidata":"Q1831399","website":"https://samrongtaipolice.go.th/","@type":"way","@id":1533117039},"geometry":{"type":"Point","coordinates":[100.5696445,13.648141]}},{"type":"Feature","id":1533122947,"properties":{"addr:district":"เมืองสมุทรปราการ","addr:housenumber":"77","addr:place":"4","addr:postcode":"10270","addr:province":"สมุทรปราการ","addr:subdistrict":"เทพารักษ์","alt_name":"สถานีตำรวจสำโรงเหนือ","amenity":"police","contact:facebook":"https://www.facebook.com/samrongnueasrn","name":"สถานีตำรวจภูธรสำโรงเหนือ","name:en":"Samrongnuea police station","name:th":"สถานีตำรวจภูธรสำโรงเหนือ","operator":"ตำรวจแห่งชาติ","operator:en":"Royal Thai Police","operator:short":"RTP","operator:th":"ตำรวจแห่งชาติ","operator:wikidata":"Q1831399","website":"https://samrongnueapolice.go.th/","@type":"way","@id":1533122947},"geometry":{"type":"Point","coordinates":[100.5960731,13.6459418]}},{"type":"Feature","id":1533147283,"properties":{"addr:district":"บางบ่อ","addr:postcode":"10560","addr:province":"สมุทรปราการ","addr:subdistrict":"บางบ่อ","alt_name":"สถานีตำรวจบางบ่อ","amenity":"police","building":"yes","contact:facebook":"https://www.facebook.com/Bangbopolicestation203","name":"สถานีตำรวจภูธรบางบ่อ","name:th":"สถานีตำรวจภูธรบางบ่อ","operator":"ตำรวจแห่งชาติ","operator:en":"Royal Thai Police","operator:short":"RTP","operator:th":"ตำรวจแห่งชาติ","operator:wikidata":"Q1831399","website":"https://bangbo.samutprakan.police.go.th/","@type":"way","@id":1533147283},"geometry":{"type":"Point","coordinates":[100.8355169,13.5742874]}},{"type":"Feature","id":1546186150,"properties":{"amenity":"police","area":"yes","operator":"ตำรวจแห่งชาติ","operator:en":"Royal Thai Police","operator:short":"RTP","operator:th":"ตำรวจแห่งชาติ","operator:wikidata":"Q1831399","@type":"way","@id":1546186150},"geometry":{"type":"Point","coordinates":[100.7343944,13.8157298]}},{"type":"Feature","id":1559859961,"properties":{"amenity":"police","building":"yes","name":"ที่ทำการตำรวจชุมชนเคหะชุมชนทุ่งสองห้อง","name:th":"ที่ทำการตำรวจชุมชนเคหะชุมชนทุ่งสองห้อง","@type":"way","@id":1559859961},"geometry":{"type":"Point","coordinates":[100.5777285,13.9029798]}},{"type":"Feature","id":1560746891,"properties":{"amenity":"police","building":"yes","name":"หน่วยบริการประชาชน สน.พลับพลาไชย 1","name:th":"หน่วยบริการประชาชน สน.พลับพลาไชย 1","operator":"สถานีตำรวจนครบาลพลับพลาไชย 1","@type":"way","@id":1560746891},"geometry":{"type":"Point","coordinates":[100.5119231,13.7506772]}},{"type":"Feature","id":1561894462,"properties":{"amenity":"police","name":"กองกํากับการม้าตํารวจ","name:en":"Mounted Police Sub-Division","name:th":"กองกํากับการม้าตํารวจ","@type":"way","@id":1561894462},"geometry":{"type":"Point","coordinates":[100.3847512,13.6450983]}},{"type":"Feature","id":1563409195,"properties":{"amenity":"police","@type":"way","@id":1563409195},"geometry":{"type":"Point","coordinates":[100.4904117,13.7061778]}},{"type":"Feature","id":1563409198,"properties":{"addr:district":"ธนบุรี","addr:housenumber":"258","addr:postcode":"10600","addr:province":"กรุงเทพมหานคร","addr:street":"ถนนเจริญนคร","addr:subdistrict":"สำเหร่","amenity":"police","building":"yes","building:levels":"3","email":"samraepolice.2026@gmail.com","name":"สถานีตำรวจนครบาลบุคคโล","name:en":"Bukkalo Metropolitan Police Station","name:th":"สถานีตำรวจนครบาลบุคคโล","phone":"+66 2 460 1465","website":"https://samre.metro.police.go.th","@type":"way","@id":1563409198},"geometry":{"type":"Point","coordinates":[100.4903984,13.7059633]}},{"type":"Feature","id":1563409199,"properties":{"addr:district":"ธนบุรี","addr:housenumber":"258","addr:postcode":"10600","addr:province":"กรุงเทพมหานคร","addr:street":"ถนนเจริญนคร","addr:subdistrict":"สำเหร่","amenity":"police","building":"yes","building:levels":"3","email":"samraepolice.2026@gmail.com","name":"สถานีตำรวจนครบาลสำเหร่","name:en":"Samrae Metropolitan Police Station","name:th":"สถานีตำรวจนครบาลสำเหร่","phone":"+66 2 460 1465","website":"https://samre.metro.police.go.th","@type":"way","@id":1563409199},"geometry":{"type":"Point","coordinates":[100.4905281,13.7061441]}},{"type":"Feature","id":1565100052,"properties":{"addr:district":"ลาดกระบัง","addr:housenumber":"9","addr:postcode":"10520","addr:province":"กรุงเทพมหานคร","addr:street":"ถนนเคหะร่มเกล้า","addr:subdistrict":"คลองสองต้นนุ่น","amenity":"police","building":"yes","name":"สถานีตำรวจนครบาลร่มเกล้า","name:th":"สถานีตำรวจนครบาลร่มเกล้า","@type":"way","@id":1565100052},"geometry":{"type":"Point","coordinates":[100.7323465,13.7658287]}},{"type":"Feature","id":423753973,"properties":{"amenity":"police","name":"Chaiya Pruek Community Police Station","@type":"node","@id":423753973},"geometry":{"type":"Point","coordinates":[100.885136,12.8771725]}},{"type":"Feature","id":617507540,"properties":{"amenity":"police","@type":"node","@id":617507540},"geometry":{"type":"Point","coordinates":[101.4412069,12.6282115]}},{"type":"Feature","id":976304142,"properties":{"addr:country":"ไทย","addr:district":"บางละมุง","addr:district:en":"Banglamung","addr:housenumber":"203","addr:place":"2","addr:postcode":"20150","addr:province":"ชลบุรี","addr:province:en":"Chonburi","addr:subdistrict":"เมืองพัทยา","addr:subdistrict:en":"Pattaya City","alt_name":"สถานีตำรวจบางละมุง","amenity":"police","contact:facebook":"https://www.facebook.com/banglamungpolicestation/","name":"สถานีตำรวจภูธรบางละมุง","name:en":"Banglamung Police Station","name:th":"สถานีตำรวจภูธรบางละมุง","website":"https://banglamung.chonburi.police.go.th/","@type":"node","@id":976304142},"geometry":{"type":"Point","coordinates":[100.913991,12.9760257]}},{"type":"Feature","id":1800550274,"properties":{"addr:country":"ไทย","addr:district":"ท่าประดู่","addr:postcode":"21000","addr:province":"ระยอง","addr:subdistrict":"ตากสินมหาราช","amenity":"police","country":"ไทย","name":"สถานีตำรวจภูธร ระยอง","name:en":"Rayong Police Station","name:th":"สถานีตำรวจภูธร ระยอง","operator":"ตำรวจแห่งชาติ","operator:en":"Royal Thai Police","operator:short":"RTP","operator:th":"ตำรวจแห่งชาติ","operator:wikidata":"Q1831399","province":"ระยอง","@type":"node","@id":1800550274},"geometry":{"type":"Point","coordinates":[101.2789622,12.6761681]}},{"type":"Feature","id":2001341703,"properties":{"amenity":"police","name":"Najomtien Police Station","@type":"node","@id":2001341703},"geometry":{"type":"Point","coordinates":[100.9025342,12.855371]}},{"type":"Feature","id":2711554835,"properties":{"addr:street":"ถนนสุขุมวิท","amenity":"police","name":"สถานีตำรวจภูธรศรีราชา","name:en":"Sriracha Police Station","name:ja":"シラチャ警察署","name:th":"สถานีตำรวจภูธรศรีราชา","@type":"node","@id":2711554835},"geometry":{"type":"Point","coordinates":[100.9310668,13.1716943]}},{"type":"Feature","id":2754460898,"properties":{"amenity":"police","@type":"node","@id":2754460898},"geometry":{"type":"Point","coordinates":[101.3841478,12.6112434]}},{"type":"Feature","id":2754503315,"properties":{"amenity":"police","name":"ที่พักสายตรวจตะพง","name:th":"ที่พักสายตรวจตะพง","@type":"node","@id":2754503315},"geometry":{"type":"Point","coordinates":[101.3469132,12.6475848]}},{"type":"Feature","id":2899844277,"properties":{"amenity":"police","name":"สถานีตำรวจภูธรหนองกรับ","name:en":"Nongkhap Police Station","name:th":"สถานีตำรวจภูธรหนองกรับ","@type":"node","@id":2899844277},"geometry":{"type":"Point","coordinates":[101.3191908,12.895917]}},{"type":"Feature","id":2923758927,"properties":{"addr:district":"เมืองระยอง","addr:postcode":"21000","addr:province":"ระยอง","addr:subdistrict":"เมืองแกลง","amenity":"police","name":"ที่ทำการสายตรวจท่าเรือแกลง","name:th":"ที่ทำการสายตรวจท่าเรือแกลง","@type":"node","@id":2923758927},"geometry":{"type":"Point","coordinates":[101.5034818,12.641669]}},{"type":"Feature","id":2923791595,"properties":{"amenity":"police","@type":"node","@id":2923791595},"geometry":{"type":"Point","coordinates":[101.5589199,12.6352609]}},{"type":"Feature","id":3003591271,"properties":{"amenity":"police","@type":"node","@id":3003591271},"geometry":{"type":"Point","coordinates":[101.083095,12.8608743]}},{"type":"Feature","id":3266879863,"properties":{"amenity":"police","name":"Police Impound","@type":"node","@id":3266879863},"geometry":{"type":"Point","coordinates":[100.8817849,12.9086726]}},{"type":"Feature","id":3266879864,"properties":{"amenity":"police","name":"Police Impound","@type":"node","@id":3266879864},"geometry":{"type":"Point","coordinates":[100.8929837,12.9103536]}},{"type":"Feature","id":3268392485,"properties":{"amenity":"police","name":"Police Impound","@type":"node","@id":3268392485},"geometry":{"type":"Point","coordinates":[100.8925162,12.948518]}},{"type":"Feature","id":3316129871,"properties":{"amenity":"police","name":"สภ.นาจอมเทียน","@type":"node","@id":3316129871},"geometry":{"type":"Point","coordinates":[100.9116095,12.8387817]}},{"type":"Feature","id":3383901498,"properties":{"amenity":"police","name":"Highway Police Station","@type":"node","@id":3383901498},"geometry":{"type":"Point","coordinates":[100.8973867,12.9194872]}},{"type":"Feature","id":3970812486,"properties":{"amenity":"police","name":"Hua Yai Police Station","@type":"node","@id":3970812486},"geometry":{"type":"Point","coordinates":[100.9293813,12.8603125]}},{"type":"Feature","id":4074685015,"properties":{"amenity":"police","name":"Sattahip Police Station","@type":"node","@id":4074685015},"geometry":{"type":"Point","coordinates":[100.9050287,12.6629923]}},{"type":"Feature","id":4127281194,"properties":{"amenity":"police","name":"Bang Bung Police Station","opening_hours":"24/7","@type":"node","@id":4127281194},"geometry":{"type":"Point","coordinates":[101.1738914,13.2891633]}},{"type":"Feature","id":4189199198,"properties":{"amenity":"police","name":"Police Box","@type":"node","@id":4189199198},"geometry":{"type":"Point","coordinates":[101.1161674,13.6055616]}},{"type":"Feature","id":4228150102,"properties":{"amenity":"police","name":"สน.ดอนหัวฬ่อ","@type":"node","@id":4228150102},"geometry":{"type":"Point","coordinates":[101.0457975,13.4297657]}},{"type":"Feature","id":4497151299,"properties":{"amenity":"police","@type":"node","@id":4497151299},"geometry":{"type":"Point","coordinates":[100.9067415,12.9734266]}},{"type":"Feature","id":4547527990,"properties":{"amenity":"police","@type":"node","@id":4547527990},"geometry":{"type":"Point","coordinates":[100.9119406,12.839614]}},{"type":"Feature","id":4609948259,"properties":{"amenity":"police","name":"ที่พักสายตรวจตำบลเนินมัย","name:en":"Klaeng Police Station","name:th":"ที่พักสายตรวจตำบลเนินมัย","@type":"node","@id":4609948259},"geometry":{"type":"Point","coordinates":[101.6697461,12.6934618]}},{"type":"Feature","id":4624066847,"properties":{"amenity":"police","name":"สถานีตำรวจบ้านค่าย","name:en":"Ban Khai Police Station","name:th":"สถานีตำรวจบ้านค่าย","@type":"node","@id":4624066847},"geometry":{"type":"Point","coordinates":[101.2965139,12.7832905]}},{"type":"Feature","id":4630659864,"properties":{"amenity":"police","name":"สถานีตำรวจภูธรบ้านฉาง","name:en":"Ban Chang Police Station","name:th":"สถานีตำรวจภูธรบ้านฉาง","@type":"node","@id":4630659864},"geometry":{"type":"Point","coordinates":[101.0668406,12.7287166]}},{"type":"Feature","id":5085174821,"properties":{"amenity":"police","name":"ป้อมตำรวจ","name:th":"ป้อมตำรวจ","@type":"node","@id":5085174821},"geometry":{"type":"Point","coordinates":[101.1756534,13.4506713]}},{"type":"Feature","id":5448425798,"properties":{"amenity":"police","name":"Highway Police","@type":"node","@id":5448425798},"geometry":{"type":"Point","coordinates":[101.2304778,13.675917]}},{"type":"Feature","id":6275677689,"properties":{"amenity":"police","@type":"node","@id":6275677689},"geometry":{"type":"Point","coordinates":[101.3469004,13.7432684]}},{"type":"Feature","id":6861020502,"properties":{"amenity":"police","name":"จุดบริการประชาชน และที่พักสายตรวจหนองจับเต่า","@type":"node","@id":6861020502},"geometry":{"type":"Point","coordinates":[100.9294613,12.7896058]}},{"type":"Feature","id":7004672585,"properties":{"amenity":"police","check_date":"2025-11-22","name":"กองบัญชาการตำรวจท่องเที่ยว","name:en":"Tourist Police","wheelchair":"no","@type":"node","@id":7004672585},"geometry":{"type":"Point","coordinates":[101.464381,12.5696939]}},{"type":"Feature","id":9808601921,"properties":{"amenity":"police","@type":"node","@id":9808601921},"geometry":{"type":"Point","coordinates":[101.7391932,12.857387]}},{"type":"Feature","id":11746388426,"properties":{"amenity":"police","name":"Tourist Police Koban","@type":"node","@id":11746388426},"geometry":{"type":"Point","coordinates":[101.4458827,12.6294978]}},{"type":"Feature","id":11835869903,"properties":{"amenity":"police","@type":"node","@id":11835869903},"geometry":{"type":"Point","coordinates":[101.7138999,12.7763257]}},{"type":"Feature","id":11896567681,"properties":{"amenity":"police","@type":"node","@id":11896567681},"geometry":{"type":"Point","coordinates":[100.9877113,12.9193298]}},{"type":"Feature","id":11985006445,"properties":{"amenity":"police","name":"Nongorue Police Station","@type":"node","@id":11985006445},"geometry":{"type":"Point","coordinates":[100.9495751,12.9246032]}},{"type":"Feature","id":12265700519,"properties":{"amenity":"police","name":"พิสูจน์หลักฐานจังหวัดฉะเชิงเทรา","@type":"node","@id":12265700519},"geometry":{"type":"Point","coordinates":[101.0779427,13.6914142]}},{"type":"Feature","id":12828259016,"properties":{"amenity":"police","@type":"node","@id":12828259016},"geometry":{"type":"Point","coordinates":[100.9989239,13.2875278]}},{"type":"Feature","id":12844018442,"properties":{"amenity":"police","@type":"node","@id":12844018442},"geometry":{"type":"Point","coordinates":[100.9079978,12.6710566]}},{"type":"Feature","id":40358385,"properties":{"amenity":"police","name":"ตำรวจน้ำเกาะสีชัง","name:en":"Ko Sichang Water Police","name:th":"ตำรวจน้ำเกาะสีชัง","@type":"way","@id":40358385},"geometry":{"type":"Point","coordinates":[100.8131918,13.1550193]}},{"type":"Feature","id":40421778,"properties":{"amenity":"police","layer":"1","@type":"way","@id":40421778},"geometry":{"type":"Point","coordinates":[100.9201155,13.1758112]}},{"type":"Feature","id":153538034,"properties":{"addr:country":"Thailand","addr:district":"บางละมุง","addr:postcode":"20150","addr:province":"ชลบุรี","addr:province:en":"Chonburi","addr:subdistrict":"เมืองพัทยา","addr:subdistrict:en":"Pattaya City","amenity":"police","building":"yes","building:levels":"3","contact:facebook":"https://www.facebook.com/pattayapolice.fan/","name":"สถานีตำรวจภูธรเมืองพัทยา","name:en":"Pattaya City Police Station","name:ja":"パタヤ市警察署","name:th":"สถานีตำรวจภูธรเมืองพัทยา","website":"https://pattaya.p2.go.th/","@type":"way","@id":153538034},"geometry":{"type":"Point","coordinates":[100.8828216,12.9359871]}},{"type":"Feature","id":172878892,"properties":{"amenity":"police","building":"yes","check_date":"2025-11-22","name":"สถานีตำรวจภูธรเพ สาขาย่อยเกาะเสม็ด","name:en":"Phe Police Sub Station (Koh Samed)","name:th":"สถานีตำรวจภูธรเพ สาขาย่อยเกาะเสม็ด","phone":"+6638644111","@type":"way","@id":172878892},"geometry":{"type":"Point","coordinates":[101.4645217,12.5701147]}},{"type":"Feature","id":219935712,"properties":{"amenity":"police","building":"yes","name":"หน่วยบริการประชาชนตำรวจทางหลวง เขาดิน","@type":"way","@id":219935712},"geometry":{"type":"Point","coordinates":[101.0066359,13.5426056]}},{"type":"Feature","id":311141628,"properties":{"amenity":"police","building":"yes","name":"Police Box","name:en":"Police Booth","name:ru":"ДПС","name:th":"ป้อมตำรวจ","@type":"way","@id":311141628},"geometry":{"type":"Point","coordinates":[100.8754908,12.9261693]}},{"type":"Feature","id":311224082,"properties":{"amenity":"police","building":"yes","name":"Police Box","name:th":"ป้อมตำรวจ","@type":"way","@id":311224082},"geometry":{"type":"Point","coordinates":[100.8958207,12.908969]}},{"type":"Feature","id":311552999,"properties":{"amenity":"police","building":"yes","name":"Tourist Police Station 4","@type":"way","@id":311552999},"geometry":{"type":"Point","coordinates":[100.8687669,12.9186089]}},{"type":"Feature","id":311867373,"properties":{"amenity":"police","building":"yes","@type":"way","@id":311867373},"geometry":{"type":"Point","coordinates":[100.8667326,12.898647]}},{"type":"Feature","id":311941388,"properties":{"amenity":"police","building":"yes","name":"ป้อมตำรวจ","@type":"way","@id":311941388},"geometry":{"type":"Point","coordinates":[100.8729574,12.8976017]}},{"type":"Feature","id":313224015,"properties":{"amenity":"police","building":"yes","name":"Police Box","name:th":"ป้อมตำรวจ","@type":"way","@id":313224015},"geometry":{"type":"Point","coordinates":[100.8923601,12.9088867]}},{"type":"Feature","id":320611405,"properties":{"amenity":"police","name":"Police Impound","@type":"way","@id":320611405},"geometry":{"type":"Point","coordinates":[100.8873837,12.911093]}},{"type":"Feature","id":342885286,"properties":{"amenity":"police","building":"yes","name":"จุดสกัดทัพพระยา สถานีตำรวจภูธรเมืองพัทยา","name:en":"Thappaya Placebox Pattaya City Police Station","@type":"way","@id":342885286},"geometry":{"type":"Point","coordinates":[100.8671202,12.9180102]}},{"type":"Feature","id":733399356,"properties":{"amenity":"police","building":"yes","name":"จุดบริการประชาชน ที่พักสายตรวจ บ้านอำเภอ","@type":"way","@id":733399356},"geometry":{"type":"Point","coordinates":[100.916085,12.8212821]}},{"type":"Feature","id":737422880,"properties":{"amenity":"police","building":"yes","name":"สถานีตำรวจทางหลวง 3","name:en":"Rayong Highway Police","@type":"way","@id":737422880},"geometry":{"type":"Point","coordinates":[101.2892217,12.6766171]}},{"type":"Feature","id":771223260,"properties":{"addr:country":"ไทย","addr:district":"เมืองชลบุรี","addr:housenumber":"102","addr:place":"2","addr:postcode":"20000","addr:province":"ชลบุรี","addr:subdistrict":"เสม็ด","amenity":"police","building":"police_station","name":"สถานีตำรวจภูธรเสม็ด","name:en":"Samed Police Station","name:th":"สถานีตำรวจภูธรเสม็ด","website":"https://samed.chonburi.police.go.th","@type":"way","@id":771223260},"geometry":{"type":"Point","coordinates":[100.9530681,13.3292613]}},{"type":"Feature","id":800448427,"properties":{"amenity":"police","building":"yes","@type":"way","@id":800448427},"geometry":{"type":"Point","coordinates":[101.2704214,13.3247551]}},{"type":"Feature","id":818153570,"properties":{"amenity":"police","building":"yes","image":"https://images.mapillary.com/c9y5Ko4tCBc3yRiELqPj8Q/thumb-2048.jpg","mapillary":"181955943885720","name:en":"Ban Phe Police Station","@type":"way","@id":818153570},"geometry":{"type":"Point","coordinates":[101.4394964,12.628664]}},{"type":"Feature","id":964331342,"properties":{"amenity":"police","building":"yes","name":"สถานีตำรวจภูธรพนัสนิคม","name:en":"Phanat Nikhom Police Station","@type":"way","@id":964331342},"geometry":{"type":"Point","coordinates":[101.1766525,13.4516057]}},{"type":"Feature","id":1054317001,"properties":{"amenity":"police","building":"yes","@type":"way","@id":1054317001},"geometry":{"type":"Point","coordinates":[101.0671512,13.0081279]}},{"type":"Feature","id":1138561406,"properties":{"amenity":"police","building":"yes","name":"Police Station","@type":"way","@id":1138561406},"geometry":{"type":"Point","coordinates":[100.8914605,12.7635281]}},{"type":"Feature","id":1204894255,"properties":{"amenity":"police","building":"yes","name":"Police Box","@type":"way","@id":1204894255},"geometry":{"type":"Point","coordinates":[100.8945183,12.9340129]}},{"type":"Feature","id":1205704767,"properties":{"amenity":"police","building":"yes","name":"Police Box","@type":"way","@id":1205704767},"geometry":{"type":"Point","coordinates":[100.9009091,12.9318588]}},{"type":"Feature","id":1206218471,"properties":{"amenity":"police","building":"yes","name":"Police Box","@type":"way","@id":1206218471},"geometry":{"type":"Point","coordinates":[100.8922061,12.9348112]}},{"type":"Feature","id":1207507001,"properties":{"amenity":"police","building":"yes","name":"Police Box","@type":"way","@id":1207507001},"geometry":{"type":"Point","coordinates":[100.882521,12.9234801]}},{"type":"Feature","id":1210196042,"properties":{"amenity":"police","building":"kiosk","name":"Police Box","@type":"way","@id":1210196042},"geometry":{"type":"Point","coordinates":[100.8863785,12.9365783]}},{"type":"Feature","id":1442962511,"properties":{"amenity":"police","building":"yes","operator":"ตำรวจแห่งชาติ","operator:en":"Royal Thai Police","operator:short":"RTP","operator:th":"ตำรวจแห่งชาติ","operator:wikidata":"Q1831399","@type":"way","@id":1442962511},"geometry":{"type":"Point","coordinates":[100.9158529,13.1469093]}},{"type":"Feature","id":1458928482,"properties":{"amenity":"police","building":"yes","name":"ที่พักสายตรวจเขาตาโล","name:th":"ที่พักสายตรวจเขาตาโล","operator":"สภ.หนองปรือ","@type":"way","@id":1458928482},"geometry":{"type":"Point","coordinates":[100.9115288,12.9077763]}},{"type":"Feature","id":1492105402,"properties":{"amenity":"police","building":"yes","name":"หน่วยสอบสวนตำรวจทางหลวงมาบประชัน","name:en":"Mabprachan Highway Police Investigation Unit","name:th":"หน่วยสอบสวนตำรวจทางหลวงมาบประชัน","@type":"way","@id":1492105402},"geometry":{"type":"Point","coordinates":[100.9569283,12.945188]}},{"type":"Feature","id":1510458429,"properties":{"amenity":"police","building":"yes","name":"สถานีตำรวจภูธรบ้านบึง","name:th":"สถานีตำรวจภูธรบ้านบึง","@type":"way","@id":1510458429},"geometry":{"type":"Point","coordinates":[101.1129363,13.3108299]}},{"type":"Feature","id":1561277503,"properties":{"addr:country":"ไทย","addr:district":"ปลวกแดง","addr:postcode":"21140","addr:province":"ระยอง","addr:subdistrict":"ปลวกแดง","amenity":"police","building":"yes","name":"สถานีตำรวจภูธรปลวกแดง","name:en":"Pluakdaeng Polece Station","name:th":"สถานีตำรวจภูธรปลวกแดง","operator":"ตำรวจแห่งชาติ","operator:en":"Royal Thai Police","operator:short":"RTP","operator:th":"ตำรวจแห่งชาติ","operator:wikidata":"Q1831399","website":"https://pluakdaeng.rayong.police.go.th","@type":"way","@id":1561277503},"geometry":{"type":"Point","coordinates":[101.2167175,12.9722325]}},{"type":"Feature","id":1562666273,"properties":{"amenity":"police","building":"yes","name":"สถานีตำรวจภูธามาบตาพุด","@type":"way","@id":1562666273},"geometry":{"type":"Point","coordinates":[101.1670627,12.7105511]}},{"type":"Feature","id":1562666281,"properties":{"amenity":"police","building":"yes","name":"สถานีตำรวจภูธรห้วยโป่ง","name:en":"Huay Pong Provincial Police Station","name:th":"สถานีตำรวจภูธรห้วยโป่ง","@type":"way","@id":1562666281},"geometry":{"type":"Point","coordinates":[101.1254498,12.7261295]}},{"type":"Feature","id":1563744421,"properties":{"amenity":"police","name":"สถานีตำรวจภูธรนิคมพัฒนา","name:en":"Nikhom Phatthana Provincial Police Station","name:th":"สถานีตำรวจภูธรนิคมพัฒนา","operator":"ตำรวจแห่งชาติ","operator:en":"Royal Thai Police","operator:short":"RTP","operator:th":"ตำรวจแห่งชาติ","operator:wikidata":"Q1831399","@type":"way","@id":1563744421},"geometry":{"type":"Point","coordinates":[101.2070319,12.8329258]}},{"type":"Feature","id":1563895370,"properties":{"amenity":"police","building":"yes","name":"ตำรวจภูธรจังหวัดชลบุรี","name:en":"Chon Buri Provincial Police","@type":"way","@id":1563895370},"geometry":{"type":"Point","coordinates":[100.9829655,13.3588292]}},{"type":"Feature","id":369737589,"properties":{"amenity":"police","source":"GPS; sign","@type":"node","@id":369737589},"geometry":{"type":"Point","coordinates":[99.98397,12.7945722]}},{"type":"Feature","id":1215081266,"properties":{"amenity":"police","@type":"node","@id":1215081266},"geometry":{"type":"Point","coordinates":[99.9172803,12.3938452]}},{"type":"Feature","id":1342032642,"properties":{"amenity":"police","name":"Tourist Police","source":"Local knowledge","@type":"node","@id":1342032642},"geometry":{"type":"Point","coordinates":[99.9617271,12.5693265]}},{"type":"Feature","id":1573391506,"properties":{"amenity":"police","name":"ศูนย์จราจร","name:en":"Traffic Police Center","name:th":"ศูนย์จราจร","@type":"node","@id":1573391506},"geometry":{"type":"Point","coordinates":[100.0002569,13.4065999]}},{"type":"Feature","id":1591715091,"properties":{"amenity":"police","name":"ศูนย์จรจรอัมพวา","@type":"node","@id":1591715091},"geometry":{"type":"Point","coordinates":[99.9630506,13.4188444]}},{"type":"Feature","id":1937617810,"properties":{"amenity":"police","name":"สถานีตำรวจบ้านแหลม","@type":"node","@id":1937617810},"geometry":{"type":"Point","coordinates":[99.9803722,13.1996319]}},{"type":"Feature","id":4053034289,"properties":{"amenity":"police","@type":"node","@id":4053034289},"geometry":{"type":"Point","coordinates":[99.9649584,12.5184449]}},{"type":"Feature","id":4089538896,"properties":{"amenity":"police","name":"สถานีตำรวจภูธรเพชบุรี (ส่วนย่อย)","@type":"node","@id":4089538896},"geometry":{"type":"Point","coordinates":[99.9756792,13.0691937]}},{"type":"Feature","id":4261933195,"properties":{"amenity":"police","name":"สภ.เขาย้อย","@type":"node","@id":4261933195},"geometry":{"type":"Point","coordinates":[99.8279149,13.2366765]}},{"type":"Feature","id":4433717553,"properties":{"amenity":"police","name":"ศูนย์ควบคุม สัญญาณไฟจราจร","name:en":"Traffic Center Hua-Hin Police Station","name:th":"ศูนย์ควบคุม สัญญาณไฟจราจร","@type":"node","@id":4433717553},"geometry":{"type":"Point","coordinates":[99.955165,12.572911]}},{"type":"Feature","id":4733435821,"properties":{"amenity":"police","name":"สถานีตำรวจน้ำปราณบุรี","name:en":"Pran Buri Marine Police Station","name:th":"สถานีตำรวจน้ำปราณบุรี","@type":"node","@id":4733435821},"geometry":{"type":"Point","coordinates":[99.9923187,12.4065119]}},{"type":"Feature","id":4982024644,"properties":{"amenity":"police","@type":"node","@id":4982024644},"geometry":{"type":"Point","coordinates":[99.9009634,12.3883583]}},{"type":"Feature","id":5038008892,"properties":{"amenity":"police","name":"สถานีตำรวจภูธรบ้านหนองพลับ","name:en":"Ban Nong Phlap Police Station","name:th":"สถานีตำรวจภูธรบ้านหนองพลับ","@type":"node","@id":5038008892},"geometry":{"type":"Point","coordinates":[99.7298654,12.5886468]}},{"type":"Feature","id":5210470908,"properties":{"amenity":"police","@type":"node","@id":5210470908},"geometry":{"type":"Point","coordinates":[99.9956144,13.4715134]}},{"type":"Feature","id":5245065225,"properties":{"amenity":"police","@type":"node","@id":5245065225},"geometry":{"type":"Point","coordinates":[99.9762059,12.5186598]}},{"type":"Feature","id":8570921948,"properties":{"amenity":"police","name":"สถานีตำรวจหาดเจ้าสำราญ","name:en":"Chao Samran Police Station","@type":"node","@id":8570921948},"geometry":{"type":"Point","coordinates":[100.0551083,13.0109872]}},{"type":"Feature","id":10567070586,"properties":{"amenity":"police","name":"สถานีตำรวจรถไฟหัวหิน","name:en":"Hua Hin Railway Police","name:th":"สถานีตำรวจรถไฟหัวหิน","@type":"node","@id":10567070586},"geometry":{"type":"Point","coordinates":[99.9550333,12.5678673]}},{"type":"Feature","id":11063060105,"properties":{"amenity":"police","name:en":"Police station","@type":"node","@id":11063060105},"geometry":{"type":"Point","coordinates":[99.9445418,13.2631693]}},{"type":"Feature","id":11428533089,"properties":{"amenity":"police","name":"Tourist Police","@type":"node","@id":11428533089},"geometry":{"type":"Point","coordinates":[100.0001214,12.3700705]}},{"type":"Feature","id":88299467,"properties":{"amenity":"police","building":"yes","name":"สถานีตำรวจภูธรอำเภออัมพวา","@type":"way","@id":88299467},"geometry":{"type":"Point","coordinates":[99.9566717,13.4244511]}},{"type":"Feature","id":244788502,"properties":{"amenity":"police","name":"ตำรวจภูธรจังหวัดเพชรบุรี","name:en":"Petchaburi Provinvial Police","name:th":"ตำรวจภูธรจังหวัดเพชรบุรี","@type":"way","@id":244788502},"geometry":{"type":"Point","coordinates":[99.9449933,13.1117511]}},{"type":"Feature","id":244789949,"properties":{"amenity":"police","building":"yes","name":"สถานีตำรวจภูธรเมืองเผชรบุรี","name:en":"Phetburi Police Station","name:th":"สถานีตำรวจภูธรเมืองเผชรบุรี","@type":"way","@id":244789949},"geometry":{"type":"Point","coordinates":[99.9451835,13.1106472]}},{"type":"Feature","id":430467924,"properties":{"addr:district":"ชะอำ","addr:postcode":"76120","addr:province":"เพชรบุรี","addr:subdistrict":"ชะอำ","amenity":"police","building":"yes","contact:facebook":"https://www.facebook.com/ChaamPolice","name":"สถานีตำรวจภูธรชะอำ","name:en":"Cha-am Police Station","name:th":"สถานีตำรวจภูธรชะอำ","website":"https://chaam.phetchaburi.police.go.th/","@type":"way","@id":430467924},"geometry":{"type":"Point","coordinates":[99.9687929,12.7993447]}},{"type":"Feature","id":432044734,"properties":{"amenity":"police","building":"yes","name":"สถานีตำรวจภูธรปราณบุรี","name:en":"Pran Buri Police Station","name:th":"สถานีตำรวจภูธรปราณบุรี","@type":"way","@id":432044734},"geometry":{"type":"Point","coordinates":[99.916933,12.3944462]}},{"type":"Feature","id":541818109,"properties":{"amenity":"police","building":"yes","name":"สถานีตำรวจหัวหิน","name:en":"Hua Hin Police Station","name:th":"สถานีตำรวจหัวหิน","@type":"way","@id":541818109},"geometry":{"type":"Point","coordinates":[99.9582036,12.5687476]}},{"type":"Feature","id":708151747,"properties":{"addr:district":"เขาย้อย","addr:district:en":"Khao Yoi","addr:housenumber":"114","addr:place":"5","addr:postcode":"76140","addr:province":"เพชรบุรี","addr:province:en":"Phetchaburi","addr:subdistrict":"เขาย้อย","alt_name":"สถานีตำรวจเขาย้อย","amenity":"police","contact:facebook":"https://www.facebook.com/khaoyoipolicestation","name":"สถานีตำรวจภูธรอำเภอเขาย้อย","name:en":"Khao Yoi Police Station","name:th":"สถานีตำรวจภูธรอำเภอเขาย้อย","website":"https://khaoyoi.phetchaburi.police.go.th/","@type":"way","@id":708151747},"geometry":{"type":"Point","coordinates":[99.827285,13.2378779]}},{"type":"Feature","id":829998824,"properties":{"addr:district":"เมืองสมุทรสงคราม","addr:housenumber":"11","addr:postcode":"75000","addr:province":"สมุทรสงคราม","addr:subdistrict":"แม่กลอง","amenity":"police","name":"สถานีตำรวจภูธรเมืองสมุทรสงคราม","opening_hours":"24/7","operator":"ตำรวจแห่งชาติ","operator:en":"Royal Thai Police","operator:short":"RTP","operator:th":"ตำรวจแห่งชาติ","operator:wikidata":"Q1831399","short_name":"สถานีตำรวจสมุทรสงคราม","website":"https://mueang.samutsongkhram.police.go.th/","@type":"way","@id":829998824},"geometry":{"type":"Point","coordinates":[100.003862,13.4145661]}},{"type":"Feature","id":829998825,"properties":{"amenity":"police","building":"yes","name":"พิสูจน์หลักฐานจังหวัดสมุทรสงคราม","opening_hours":"Mo-Fr 08:00-17:00","opening_hours:covid19":"restricted","operator":"Royal Thai Police","@type":"way","@id":829998825},"geometry":{"type":"Point","coordinates":[100.0134865,13.4201319]}},{"type":"Feature","id":829998826,"properties":{"addr:district":"เมืองสมุทรสงคราม","addr:housenumber":"100","addr:place":"12","addr:postcode":"75000","addr:province":"สมุทรสงคราม","addr:subdistrict":"ลาดใหญ่","amenity":"police","building":"yes","name":"สถานีตำรวจภูธรจังหวัดสมุทรสงคราม","name:en":"Samut Songkhram Provincial Police","name:th":"สถานีตำรวจภูธรจังหวัดสมุทรสงคราม","opening_hours":"24/7","opening_hours:covid19":"restricted","operator":"ตำรวจแห่งชาติ","operator:en":"Royal Thai Police","operator:short":"RTP","operator:th":"ตำรวจแห่งชาติ","operator:wikidata":"Q1831399","website":"https://samutsongkhram.police.go.th/","@type":"way","@id":829998826},"geometry":{"type":"Point","coordinates":[100.0121264,13.4218299]}},{"type":"Feature","id":830679913,"properties":{"addr:district":"เมืองสมุทรสงคราม","addr:postcode":"75000","addr:province":"สมุทรสงคราม","addr:subdistrict":"แม่กลอง","amenity":"police","building":"yes","@type":"way","@id":830679913},"geometry":{"type":"Point","coordinates":[100.0122884,13.4216927]}},{"type":"Feature","id":1286335480,"properties":{"amenity":"police","name":"สถานีตำรวจภูธรท่าไม้รวก","operator":"ตำรวจแห่งชาติ","operator:en":"Royal Thai Police","operator:short":"RTP","operator:th":"ตำรวจแห่งชาติ","operator:wikidata":"Q1831399","@type":"way","@id":1286335480},"geometry":{"type":"Point","coordinates":[99.8019417,12.8187974]}},{"type":"Feature","id":1286335481,"properties":{"amenity":"police","building":"yes","name":"สถานีตำรวจภูธรท่าไม้รวก","operator":"ตำรวจแห่งชาติ","operator:en":"Royal Thai Police","operator:short":"RTP","operator:th":"ตำรวจแห่งชาติ","operator:wikidata":"Q1831399","@type":"way","@id":1286335481},"geometry":{"type":"Point","coordinates":[99.8017136,12.8187245]}},{"type":"Feature","id":1378649388,"properties":{"amenity":"police","building":"yes","operator":"กองบัญชาการตำรวจท่องเที่ยว","operator:en":"Tourist Police Bureau","operator:th":"กองบัญชาการตำรวจท่องเที่ยว","operator:wikidata":"Q58366882","@type":"way","@id":1378649388},"geometry":{"type":"Point","coordinates":[99.9630413,13.4188363]}},{"type":"Feature","id":1525984842,"properties":{"addr:country":"TH","addr:district":"ปากท่อ","addr:province":"ราชบุรี","addr:subdistrict":"ปากท่อ","amenity":"police","building":"yes","name":"สถานีตำรวจภูธรปากท่อ","name:th":"สถานีตำรวจภูธรปากท่อ","@type":"way","@id":1525984842},"geometry":{"type":"Point","coordinates":[99.8439558,13.3752173]}},{"type":"Feature","id":1530866015,"properties":{"addr:district":"หนองหญ้าปล้อง","addr:postcode":"76160","addr:province":"เพชรบุรี","addr:province:en":"Phetchaburi","addr:subdistrict":"หนองหญ้าปล้อง","addr:subdistrict:en":"Nongyaplong","alt_name":"สถานีตำรวจหนองหญ้าปล้อง","amenity":"police","contact:facebook":"https://www.facebook.com/nongyaplong.Policestation","name":"สถานีตำรวจภูธรหนองหญ้าปล้อง","name:en":"Nongyaplong Police Station","name:th":"สถานีตำรวจภูธรหนองหญ้าปล้อง","operator":"ตำรวจแห่งชาติ","operator:en":"Royal Thai Police","operator:short":"RTP","operator:th":"ตำรวจแห่งชาติ","operator:wikidata":"Q1831399","@type":"way","@id":1530866015},"geometry":{"type":"Point","coordinates":[99.6966709,13.1643791]}},{"type":"Feature","id":1562214052,"properties":{"amenity":"police","building":"yes","name":"สถานีตำรวจภูธรปากน้ำปราณ","name:en":"Pak Nam Pran Police Station","name:th":"สถานีตำรวจภูธรปากน้ำปราณ","operator":"ตำรวจแห่งชาติ","operator:en":"Royal Thai Police","operator:short":"RTP","operator:th":"ตำรวจแห่งชาติ","operator:wikidata":"Q1831399","@type":"way","@id":1562214052},"geometry":{"type":"Point","coordinates":[99.9900847,12.3995208]}},{"type":"Feature","id":1562450091,"properties":{"amenity":"police","name":"กองร้อยตำรวจตระเวนชายแดนที่ 145","name:en":"Border Patrol Police Company 145","name:th":"กองร้อยตำรวจตระเวนชายแดนที่ 145","@type":"way","@id":1562450091},"geometry":{"type":"Point","coordinates":[99.9147018,12.3934444]}},{"type":"Feature","id":493888358,"properties":{"amenity":"police","@type":"node","@id":493888358},"geometry":{"type":"Point","coordinates":[100.6087135,14.7995766]}},{"type":"Feature","id":503851256,"properties":{"addr:district":"ท่าเรือ","addr:housenumber":"43","addr:place":"2","addr:postcode":"13130","addr:province":"อยุธยา","addr:subdistrict":"ปากท่า","amenity":"police","name":"สภ.ปากท่า","opening_hours":"24/7","@type":"node","@id":503851256},"geometry":{"type":"Point","coordinates":[100.6737243,14.503766]}},{"type":"Feature","id":1634982064,"properties":{"amenity":"police","name":"สถานีตำรวจภูธรเมืองสระบุรี","name:en":"Saraburi Police Station","source":"Bing; sign","@type":"node","@id":1634982064},"geometry":{"type":"Point","coordinates":[100.9121066,14.5286422]}},{"type":"Feature","id":1840877271,"properties":{"amenity":"police","name":"ตำรวจ จุดบริการประชาชน","name:en":"Police box","source":"Bing; sign","@type":"node","@id":1840877271},"geometry":{"type":"Point","coordinates":[100.6348956,15.2035355]}},{"type":"Feature","id":1844564895,"properties":{"amenity":"police","name":"ตำรวจ จุดบริการประชาชน","name:en":"Police box","source":"Bing; sign","@type":"node","@id":1844564895},"geometry":{"type":"Point","coordinates":[100.8227876,15.2858548]}},{"type":"Feature","id":1848133141,"properties":{"amenity":"police","name":"ตำรวจ จุดบริการประชาชน","name:en":"Police box","source":"Bing; sign","@type":"node","@id":1848133141},"geometry":{"type":"Point","coordinates":[101.1279211,15.2154531]}},{"type":"Feature","id":1848133142,"properties":{"amenity":"police","name":"ตำรวจ จุดบริการประชาชน","name:en":"Police box","source":"Bing; sign","@type":"node","@id":1848133142},"geometry":{"type":"Point","coordinates":[101.1252053,15.260549]}},{"type":"Feature","id":1848133143,"properties":{"amenity":"police","name":"ตำรวจ จุดบริการประชาชน","name:en":"Police box","source":"Bing; sign","@type":"node","@id":1848133143},"geometry":{"type":"Point","coordinates":[101.1224545,15.3057527]}},{"type":"Feature","id":3035010097,"properties":{"amenity":"police","name":"สภ.หมูสี","name:en":"Musi police station","@type":"node","@id":3035010097},"geometry":{"type":"Point","coordinates":[101.4130868,14.5579454]}},{"type":"Feature","id":3320484538,"properties":{"amenity":"police","check_date":"2025-08-02","name":"Nakhon Ratchasima City Police Station","@type":"node","@id":3320484538},"geometry":{"type":"Point","coordinates":[102.1053431,14.9715557]}},{"type":"Feature","id":3961002211,"properties":{"amenity":"police","name":"สถานีตำรวจภูธรมวกเหล็ก","@type":"node","@id":3961002211},"geometry":{"type":"Point","coordinates":[101.1984736,14.6544882]}},{"type":"Feature","id":3995888714,"properties":{"amenity":"police","@type":"node","@id":3995888714},"geometry":{"type":"Point","coordinates":[101.1304753,14.6386114]}},{"type":"Feature","id":4235378790,"properties":{"amenity":"police","@type":"node","@id":4235378790},"geometry":{"type":"Point","coordinates":[100.6517734,14.7985289]}},{"type":"Feature","id":4423394204,"properties":{"addr:street":"ถนนสุรนารายณ์","amenity":"police","name":"ศูนย์ฝึกอบรมตำรวจภูธรภาค3","name:th":"ศูนย์ฝึกอบรมตำรวจภูธรภาค3","@type":"node","@id":4423394204},"geometry":{"type":"Point","coordinates":[102.1382795,15.0325564]}},{"type":"Feature","id":4683459489,"properties":{"amenity":"police","name":"สถานีตำรวจภูธร สีคิ้ว","name:en":"Sikhio Police Station","name:th":"สถานีตำรวจภูธร สีคิ้ว","@type":"node","@id":4683459489},"geometry":{"type":"Point","coordinates":[101.7238648,14.8926323]}},{"type":"Feature","id":5287918234,"properties":{"amenity":"police","name":"ป้อมจราจรวังน้อย","name:en":"police wongnoi","@type":"node","@id":5287918234},"geometry":{"type":"Point","coordinates":[100.7227836,14.2321607]}},{"type":"Feature","id":5516095222,"properties":{"amenity":"police","@type":"node","@id":5516095222},"geometry":{"type":"Point","coordinates":[102.0030337,15.0168505]}},{"type":"Feature","id":6053605492,"properties":{"amenity":"police","check_date":"2025-08-04","name":"บก.สส.ภ.3​ กก.สส.1","@type":"node","@id":6053605492},"geometry":{"type":"Point","coordinates":[102.1363795,15.037971]}},{"type":"Feature","id":6391113489,"properties":{"amenity":"police","@type":"node","@id":6391113489},"geometry":{"type":"Point","coordinates":[101.4763428,14.6969238]}},{"type":"Feature","id":7142145807,"properties":{"amenity":"police","name":"ตู้ยามหนองไผ่","@type":"node","@id":7142145807},"geometry":{"type":"Point","coordinates":[102.1066815,14.9249683]}},{"type":"Feature","id":7315201108,"properties":{"amenity":"police","@type":"node","@id":7315201108},"geometry":{"type":"Point","coordinates":[101.5216451,14.774414]}},{"type":"Feature","id":9331649869,"properties":{"amenity":"police","@type":"node","@id":9331649869},"geometry":{"type":"Point","coordinates":[101.2768838,14.8812246]}},{"type":"Feature","id":11609737875,"properties":{"amenity":"police","name":"สถานีตำรวจภูธรม่วงค่อม","@type":"node","@id":11609737875},"geometry":{"type":"Point","coordinates":[100.9959096,15.080306]}},{"type":"Feature","id":12459645197,"properties":{"amenity":"police","@type":"node","@id":12459645197},"geometry":{"type":"Point","coordinates":[102.0697817,15.1976775]}},{"type":"Feature","id":12593113749,"properties":{"amenity":"police","@type":"node","@id":12593113749},"geometry":{"type":"Point","coordinates":[101.1004067,15.0705818]}},{"type":"Feature","id":12593668278,"properties":{"amenity":"police","@type":"node","@id":12593668278},"geometry":{"type":"Point","coordinates":[100.8073699,15.0759414]}},{"type":"Feature","id":13063007054,"properties":{"amenity":"police","name":"สถานีตำรวจทางหลวง 3 กองกำกับการ 1 (ลพบุรี)","@type":"node","@id":13063007054},"geometry":{"type":"Point","coordinates":[100.6070928,14.9087145]}},{"type":"Feature","id":13185280924,"properties":{"addr:district":"เมือง","addr:housenumber":"1313/13","addr:postcode":"30000","addr:province":"นครราชสีมา","addr:street":"ถนนสุรนารายณ์","addr:subdistrict":"จอหอ","amenity":"police","name":"Nakhon Ratchasima Tourist Police","opening_hours":"Mo-Fr 08:30-16:30","phone":"+66 44 370 356","@type":"node","@id":13185280924},"geometry":{"type":"Point","coordinates":[102.1362891,15.0394564]}},{"type":"Feature","id":13354723806,"properties":{"amenity":"police","name:en":"Klang Dong Provincial Police Station","phone":"+66 44 361 234;+66 44 300 834","@type":"node","@id":13354723806},"geometry":{"type":"Point","coordinates":[101.2551251,14.647016]}},{"type":"Feature","id":13944070370,"properties":{"amenity":"police","@type":"node","@id":13944070370},"geometry":{"type":"Point","coordinates":[102.0641701,14.9712647]}},{"type":"Feature","id":13948664263,"properties":{"amenity":"police","@type":"node","@id":13948664263},"geometry":{"type":"Point","coordinates":[102.0952758,14.9878684]}},{"type":"Feature","id":13948679714,"properties":{"amenity":"police","@type":"node","@id":13948679714},"geometry":{"type":"Point","coordinates":[102.1037927,14.9950523]}},{"type":"Feature","id":13955551756,"properties":{"amenity":"police","@type":"node","@id":13955551756},"geometry":{"type":"Point","coordinates":[102.190308,15.0650928]}},{"type":"Feature","id":566219211,"properties":{"amenity":"police","building":"yes","name":"สถานีตำรวจภูธรตำบลอุดมทรัพย์","name:en":"Udom Sap Police Station","@type":"way","@id":566219211},"geometry":{"type":"Point","coordinates":[101.9661713,14.5224239]}},{"type":"Feature","id":566380803,"properties":{"amenity":"police","building":"yes","name":"สถานีตำรวจภูธรปักธงชัย","name:en":"Pak Thong Chai Police Station","@type":"way","@id":566380803},"geometry":{"type":"Point","coordinates":[102.0227215,14.7191977]}},{"type":"Feature","id":573734818,"properties":{"amenity":"police","building":"yes","name":"สถานีตำรวจภูธรอำเภอวังน้ำเขียว","name:en":"Wang Nam Khiao Police Station","name:th":"สถานีตำรวจภูธรอำเภอวังน้ำเขียว","@type":"way","@id":573734818},"geometry":{"type":"Point","coordinates":[101.8502711,14.4165135]}},{"type":"Feature","id":605326678,"properties":{"amenity":"police","building":"yes","name":"Police Station","source":"DigitalGlobe-Standard","@type":"way","@id":605326678},"geometry":{"type":"Point","coordinates":[100.9986535,14.586392]}},{"type":"Feature","id":657115112,"properties":{"amenity":"police","building":"yes","name":"สถานีตำรวจหินกอง","@type":"way","@id":657115112},"geometry":{"type":"Point","coordinates":[100.8897961,14.4053507]}},{"type":"Feature","id":751099517,"properties":{"amenity":"police","building":"yes","name":"หน่วยบริการประชาชนตำรวจทางหลวงเอเชีย","name:en":"Asia Highway Police Service Unit","@type":"way","@id":751099517},"geometry":{"type":"Point","coordinates":[100.6135451,14.3294559]}},{"type":"Feature","id":751099518,"properties":{"amenity":"police","building":"yes","name":"สถานีตำรวจชุมชนบ้านกรด","name:en":"Ban Krot Community Police Station","@type":"way","@id":751099518},"geometry":{"type":"Point","coordinates":[100.6044189,14.3162537]}},{"type":"Feature","id":751099520,"properties":{"amenity":"police","building":"yes","name":"ที่ทำการสายตรวจ สภ.อุทัย","name:en":"Uthai Patrol Office","@type":"way","@id":751099520},"geometry":{"type":"Point","coordinates":[100.605194,14.3476338]}},{"type":"Feature","id":914750206,"properties":{"amenity":"police","building":"yes","@type":"way","@id":914750206},"geometry":{"type":"Point","coordinates":[101.1337586,15.2077315]}},{"type":"Feature","id":1228801764,"properties":{"amenity":"police","building":"yes","name":"191 ศูนย์รวมข่าวรถวิทยุสายตรวจ","@type":"way","@id":1228801764},"geometry":{"type":"Point","coordinates":[102.0844507,14.973828]}},{"type":"Feature","id":1261876764,"properties":{"amenity":"police","building":"yes","name":"สถานีตำรวจโคกสลุง","@type":"way","@id":1261876764},"geometry":{"type":"Point","coordinates":[101.0242234,14.9883815]}},{"type":"Feature","id":1314590427,"properties":{"amenity":"police","building":"yes","name":"สถานีตำรวจภูธรองครักษ์","name:en":"Ongkharak Police Station","operator":"ตำรวจแห่งชาติ","operator:en":"Royal Thai Police","operator:short":"RTP","operator:th":"ตำรวจแห่งชาติ","operator:wikidata":"Q1831399","@type":"way","@id":1314590427},"geometry":{"type":"Point","coordinates":[101.0039482,14.1224242]}},{"type":"Feature","id":1421485307,"properties":{"amenity":"police","building":"shed","name":"สถานีตำรวจเขาพระงาม","operator":"ตำรวจแห่งชาติ","operator:en":"Royal Thai Police","operator:short":"RTP","operator:th":"ตำรวจแห่งชาติ","operator:wikidata":"Q1831399","@type":"way","@id":1421485307},"geometry":{"type":"Point","coordinates":[100.6320117,14.8847871]}},{"type":"Feature","id":1427061228,"properties":{"amenity":"police","building":"yes","name":"สถานีตำรวจภูธรจอหอ","name:en":"Joho Provincial Police Station","name:th":"สถานีตำรวจภูธรจอหอ","@type":"way","@id":1427061228},"geometry":{"type":"Point","coordinates":[102.1366903,15.0384817]}},{"type":"Feature","id":1524281326,"properties":{"amenity":"police","name":"ศูนย์ฝึกยุทธวิธีตำรวจกลาง","name:en":"Central Police Tactical Training Center","name:th":"ศูนย์ฝึกยุทธวิธีตำรวจกลาง","police":"training_area","@type":"way","@id":1524281326},"geometry":{"type":"Point","coordinates":[101.4868688,14.7029082]}},{"type":"Feature","id":1561266748,"properties":{"addr:country":"ไทย","addr:district":"เมืองนครราชสีมา","addr:housenumber":"944","addr:place":"7","addr:postcode":"30000","addr:province":"นครราชสีมา","addr:subdistrict":"ปรุใหญ่","amenity":"police","name":"สถานีตำรวจภูธรโพธิ์กลาง","name:th":"สถานีตำรวจภูธรโพธิ์กลาง","operator":"ตำรวจแห่งชาติ","operator:en":"Royal Thai Police","operator:short":"RTP","operator:th":"ตำรวจแห่งชาติ","operator:wikidata":"Q1831399","website":"https://phoklang.nakhonratchasima.police.go.th","@type":"way","@id":1561266748},"geometry":{"type":"Point","coordinates":[102.0513592,14.9302615]}}]}