{"type":"FeatureCollection","features":[{"type":"Feature","id":276177228,"properties":{"harbour":"yes","industrial":"port","landuse":"industrial","name":"Thai Prosperity Terminal","port:category":"container","port:type":"seaport","seamark:type":"harbour","website":"https://www.tptport.com/","@type":"way","@id":276177228},"geometry":{"type":"Point","coordinates":[100.556466,13.6524544]}},{"type":"Feature","id":857726171,"properties":{"industrial":"port","landuse":"industrial","@type":"way","@id":857726171},"geometry":{"type":"Point","coordinates":[100.538202,13.6467909]}},{"type":"Feature","id":857726207,"properties":{"industrial":"port","landuse":"industrial","ref:LOCODE":"THBKK","@type":"way","@id":857726207},"geometry":{"type":"Point","coordinates":[100.5427987,13.6564099]}},{"type":"Feature","id":901280983,"properties":{"addr:district":"บางกะปิ","addr:postcode":"10240","addr:province":"กรุงเทพมหานคร","addr:subdistrict":"คลองจั่น","building":"yes","industrial":"port","@type":"way","@id":901280983},"geometry":{"type":"Point","coordinates":[100.6324796,13.7680003]}},{"type":"Feature","id":1332823738,"properties":{"industrial":"port","landuse":"industrial","name":"บริษัท กรุงเทพคลังเอกสาร จำกัด","@type":"way","@id":1332823738},"geometry":{"type":"Point","coordinates":[100.4960021,13.6854895]}},{"type":"Feature","id":1332823743,"properties":{"industrial":"port","landuse":"industrial","name":"บริษัท ซุปเปอร์เจ อินเตอร์ฯ จำกัด","@type":"way","@id":1332823743},"geometry":{"type":"Point","coordinates":[100.4938205,13.6871559]}},{"type":"Feature","id":1376388790,"properties":{"industrial":"port","landuse":"industrial","name":"ท่าเรือสยามแก๊ส","name:th":"ท่าเรือสยามแก๊ส","@type":"way","@id":1376388790},"geometry":{"type":"Point","coordinates":[100.5296234,13.6764585]}},{"type":"Feature","id":198261241,"properties":{"addr:country":"Thailand","addr:district":"ศรีราชา","addr:postcode":"20230","addr:province":"ชลบุรี","addr:province:en":"Chonburi","addr:subdistrict":"ทุ่งสุขลา","alt_name":"ท่าเรือน้ำลึกแหลมฉบัง","alt_name:en":"Port of Laem Chabang;Laem Chabang Deepsea Port","alt_name:th":"ท่าเรือน้ำลึกแหลมฉบัง","industrial":"port","landuse":"industrial","name":"ท่าเรือแหลมฉบัง","name:en":"Laem Chabang Port","name:th":"ท่าเรือแหลมฉบัง","ref":"LCH","source":"Bing","website":"https://lcp.port.co.th/","@type":"way","@id":198261241},"geometry":{"type":"Point","coordinates":[100.8987626,13.0739411]}},{"type":"Feature","id":1387959188,"properties":{"industrial":"port","landuse":"industrial","name":"B1 Terminal","@type":"way","@id":1387959188},"geometry":{"type":"Point","coordinates":[100.8986362,13.0654617]}},{"type":"Feature","id":1445433968,"properties":{"construction":"industrial","industrial":"port","landuse":"construction","natural":"coastline","@type":"way","@id":1445433968},"geometry":{"type":"Point","coordinates":[100.8779881,13.0282204]}},{"type":"Feature","id":1481266561,"properties":{"area":"yes","industrial":"port","name":"02R","surface":"RTGStack","@type":"way","@id":1481266561},"geometry":{"type":"Point","coordinates":[100.8988075,13.0638758]}},{"type":"Feature","id":1514008833,"properties":{"construction":"industrial","industrial":"port","landuse":"construction","@type":"way","@id":1514008833},"geometry":{"type":"Point","coordinates":[100.8811209,13.0430135]}}]}