{"type":"FeatureCollection","features":[{"type":"Feature","id":26120059,"properties":{"location":"outdoor","name":"สถานีไฟฟ้าแรงสูงพระนครใต้","operator":"การไฟฟ้าฝ่ายผลิตแห่งประเทศไทย","operator:en":"Electricity Generating Authority of Thailand","operator:short":"กฟผ.","operator:th":"การไฟฟ้าฝ่ายผลิตแห่งประเทศไทย","operator:wikidata":"Q3050569","power":"substation","substation":"transmission","voltage":"230000;115000;22000","@type":"way","@id":26120059},"geometry":{"type":"Point","coordinates":[100.5563825,13.6199939]}},{"type":"Feature","id":26237620,"properties":{"name":"สถานีไฟฟ้าแรงสูงรัชดาภิเษก 2","name:en":"Ratchadaphisek 2 High Voltage Substation","power":"substation","substation":"distribution","voltage":"230000;115000","@type":"way","@id":26237620},"geometry":{"type":"Point","coordinates":[100.5830864,13.7781478]}},{"type":"Feature","id":26238367,"properties":{"name":"สถานีไฟฟ้าแรงสูงแจ้งวัฒนะ","operator":"EGAT","operator:wikidata":"Q3050569","operator:wikipedia":"th:การไฟฟ้าฝ่ายผลิตแห่งประเทศไทย","power":"substation","substation":"transmission","voltage":"500000;230000","@type":"way","@id":26238367},"geometry":{"type":"Point","coordinates":[100.5557815,13.9089474]}},{"type":"Feature","id":27828836,"properties":{"location":"outdoor","name":"สถานีไฟฟ้าแรงสูงรังสิต","name:en":"Rangsit High Voltage Substation","name:th":"สถานีไฟฟ้าแรงสูงรังสิต","operator":"การไฟฟ้าฝ่ายผลิตแห่งประเทศไทย","operator:en":"Electricity Generating Authority of Thailand","operator:short":"กฟผ.","operator:th":"การไฟฟ้าฝ่ายผลิตแห่งประเทศไทย","operator:wikidata":"Q3050569","operator:wikipedia":"th:การไฟฟ้าฝ่ายผลิตแห่งประเทศไทย","power":"substation","substation":"transmission","voltage":"500000;230000;115000;22000","@type":"way","@id":27828836},"geometry":{"type":"Point","coordinates":[100.5679419,13.9755001]}},{"type":"Feature","id":64680159,"properties":{"name":"สถานีไฟฟ้าแรงสูงบางกะปิ","name:en":"Bangkapi Substation","name:th":"สถานีไฟฟ้าแรงสูงบางกะปิ","operator":"การไฟฟ้าฝ่ายผลิตแห่งประเทศไทย","operator:en":"Electricity Generating Authority of Thailand","operator:short":"กฟผ.","operator:th":"การไฟฟ้าฝ่ายผลิตแห่งประเทศไทย","operator:wikidata":"Q3050569","power":"substation","substation":"transmission","voltage":"230000","@type":"way","@id":64680159},"geometry":{"type":"Point","coordinates":[100.6029629,13.7415404]}},{"type":"Feature","id":64680187,"properties":{"location":"outdoor","name":"สถานีไฟฟ้าแรงสูง​อ่อนนุช","name:en":"On Nut High Voltage Substation","name:th":"สถานีไฟฟ้าแรงสูง​อ่อนนุช","operator":"การไฟฟ้าฝ่ายผลิตแห่งประเทศไทย","operator:en":"Electricity Generating Authority of Thailand","operator:short":"กฟผ.","operator:th":"การไฟฟ้าฝ่ายผลิตแห่งประเทศไทย","operator:wikidata":"Q3050569","power":"substation","source":"Yahoo","substation":"transmission","voltage":"500000;230000;115000;22000","@type":"way","@id":64680187},"geometry":{"type":"Point","coordinates":[100.6845851,13.7250578]}},{"type":"Feature","id":64680223,"properties":{"location":"outdoor","name":"สถานีไฟฟ้าแรงสูงเทพารักษ์","operator":"การไฟฟ้าฝ่ายผลิตแห่งประเทศไทย","operator:en":"Electricity Generating Authority of Thailand","operator:short":"กฟผ.","operator:th":"การไฟฟ้าฝ่ายผลิตแห่งประเทศไทย","operator:wikidata":"Q3050569","operator:wikipedia":"th:การไฟฟ้าฝ่ายผลิตแห่งประเทศไทย","power":"substation","source":"Yahoo","substation":"transmission","voltage":"230000","@type":"way","@id":64680223},"geometry":{"type":"Point","coordinates":[100.6621455,13.6291187]}},{"type":"Feature","id":108936850,"properties":{"barrier":"fence","name":"สถานีไฟฟ้าย่อย","name:th":"สถานีไฟฟ้าย่อย","power":"substation","@type":"way","@id":108936850},"geometry":{"type":"Point","coordinates":[100.6018433,14.0808126]}},{"type":"Feature","id":147606553,"properties":{"name":"สถานีไฟฟ้าแรงสูงบางกอกน้อย","operator":"EGAT","operator:wikidata":"Q3050569","operator:wikipedia":"th:การไฟฟ้าฝ่ายผลิตแห่งประเทศไทย","power":"substation","source":"Bing","substation":"transmission","voltage":"500000;230000","@type":"way","@id":147606553},"geometry":{"type":"Point","coordinates":[100.3913565,13.7111327]}},{"type":"Feature","id":175492252,"properties":{"power":"substation","@type":"way","@id":175492252},"geometry":{"type":"Point","coordinates":[100.5422896,13.9135597]}},{"type":"Feature","id":199773777,"properties":{"location":"outdoor","name":"สถานีไฟฟ้าแรงสูงไทรน้อย","operator":"EGAT","operator:wikidata":"Q3050569","operator:wikipedia":"th:การไฟฟ้าฝ่ายผลิตแห่งประเทศไทย","power":"substation","substation":"transmission","voltage":"500000;230000","@type":"way","@id":199773777},"geometry":{"type":"Point","coordinates":[100.3419093,13.9743002]}},{"type":"Feature","id":199806286,"properties":{"name":"สถานีไฟฟ้าแรงสูงพระนครเหนือ","name:en":"North Bangkok Substation","name:th":"สถานีไฟฟ้าแรงสูงพระนครเหนือ","operator":"EGAT","power":"substation","substation":"transmission","voltage":"230000","@type":"way","@id":199806286},"geometry":{"type":"Point","coordinates":[100.5111084,13.8120718]}},{"type":"Feature","id":201815114,"properties":{"name":"สถานีไฟฟ้าปทุมธานี 2","power":"substation","@type":"way","@id":201815114},"geometry":{"type":"Point","coordinates":[100.5127698,13.9565605]}},{"type":"Feature","id":211746552,"properties":{"power":"substation","substation":"distribution","@type":"way","@id":211746552},"geometry":{"type":"Point","coordinates":[100.6170794,13.8628094]}},{"type":"Feature","id":223601302,"properties":{"location":"outdoor","name":"สถานีไฟฟ้าแรงสูงหนองจอก","name:en":"Nong Chok High Voltage Substation","name:th":"สถานีไฟฟ้าแรงสูงหนองจอก","operator":"การไฟฟ้าฝ่ายผลิตแห่งประเทศไทย","operator:en":"Electricity Generating Authority of Thailand","operator:short":"กฟผ.","operator:th":"การไฟฟ้าฝ่ายผลิตแห่งประเทศไทย","operator:wikidata":"Q3050569","operator:wikipedia":"th:การไฟฟ้าฝ่ายผลิตแห่งประเทศไทย","power":"substation","substation":"transmission","voltage":"500000;230000","@type":"way","@id":223601302},"geometry":{"type":"Point","coordinates":[100.8061381,13.8128432]}},{"type":"Feature","id":233727053,"properties":{"barrier":"fence","name":"การไฟฟ้าส่วนภูมิภาค สถานีไฟฟ้ามหาวิทยาลัยธรรมศาสตร์","name:en":"Provincial Electricity Authority Thammasat University Substation","power":"substation","@type":"way","@id":233727053},"geometry":{"type":"Point","coordinates":[100.6054828,14.0670892]}},{"type":"Feature","id":255439483,"properties":{"name":"สถานีไฟฟ้าธัญบุรี","operator":"PEA","operator:wikidata":"Q13013017","power":"substation","substation":"distribution","@type":"way","@id":255439483},"geometry":{"type":"Point","coordinates":[100.6742652,13.9980452]}},{"type":"Feature","id":261079966,"properties":{"addr:district":"ปทุมวัน","addr:postcode":"10330","addr:province":"กรุงเทพมหานคร","addr:subdistrict":"วังใหม่","building":"yes","building:levels":"5","power":"substation","@type":"way","@id":261079966},"geometry":{"type":"Point","coordinates":[100.5248511,13.7359643]}},{"type":"Feature","id":274223991,"properties":{"location":"outdoor","name":"สถานีไฟฟ้าแรงสูงลาดพร้าว","name:en":"Lat Phrao High Voltage Substation","name:th":"สถานีไฟฟ้าแรงสูงลาดพร้าว","operator":"การไฟฟ้าฝ่ายผลิตแห่งประเทศไทย","operator:en":"Electricity Generating Authority of Thailand","operator:short":"กฟผ.","operator:th":"การไฟฟ้าฝ่ายผลิตแห่งประเทศไทย","operator:wikidata":"Q3050569","operator:wikipedia":"th:การไฟฟ้าฝ่ายผลิตแห่งประเทศไทย","power":"substation","substation":"transmission","voltage":"230000;115000;22000","@type":"way","@id":274223991},"geometry":{"type":"Point","coordinates":[100.5532931,13.8270914]}},{"type":"Feature","id":301623867,"properties":{"location":"outdoor","name":"สถานีไฟฟ้าแรงสูงธนบุรีใต้","name:en":"High Voltage Electricity Station of Southern Thonburi","operator":"การไฟฟ้าฝ่ายผลิตแห่งประเทศไทย","operator:en":"Electricity Generating Authority of Thailand","operator:short":"กฟผ.","operator:th":"การไฟฟ้าฝ่ายผลิตแห่งประเทศไทย","operator:wikidata":"Q3050569","power":"substation","substation":"transmission","voltage":"230000","@type":"way","@id":301623867},"geometry":{"type":"Point","coordinates":[100.4235283,13.6533347]}},{"type":"Feature","id":345996520,"properties":{"name":"สถานีไฟฟ้าแรงสูงบางพลี","name:en":"Bang Phli High Voltage Power Station","operator":"การไฟฟ้าฝ่ายผลิตแห่งประเทศไทย","operator:en":"Electricity Generating Authority of Thailand","operator:short":"กฟผ.","operator:th":"การไฟฟ้าฝ่ายผลิตแห่งประเทศไทย","operator:wikidata":"Q3050569","operator:wikipedia":"th:การไฟฟ้าฝ่ายผลิตแห่งประเทศไทย","power":"substation","substation":"transmission","voltage":"500000;230000;115000","@type":"way","@id":345996520},"geometry":{"type":"Point","coordinates":[100.6886916,13.6385464]}},{"type":"Feature","id":346752955,"properties":{"power":"substation","@type":"way","@id":346752955},"geometry":{"type":"Point","coordinates":[100.5321397,13.7636781]}},{"type":"Feature","id":366089131,"properties":{"building":"yes","building:levels":"2","building:material":"concrete","name":"Substation 2","power":"substation","@type":"way","@id":366089131},"geometry":{"type":"Point","coordinates":[100.6123865,14.0783243]}},{"type":"Feature","id":385955320,"properties":{"name":"Sub-Station 10","power":"substation","@type":"way","@id":385955320},"geometry":{"type":"Point","coordinates":[100.6084436,14.0764367]}},{"type":"Feature","id":385957660,"properties":{"name":"Sub-station - 7, NERA Telecommunication","note":"Very much vulnerable to flood.","power":"substation","@type":"way","@id":385957660},"geometry":{"type":"Point","coordinates":[100.6138916,14.080027]}},{"type":"Feature","id":385958218,"properties":{"level":"2","name":"Sub-station house","note":"10 feet leevated structure and Flood free.","power":"substation","@type":"way","@id":385958218},"geometry":{"type":"Point","coordinates":[100.6140049,14.0800212]}},{"type":"Feature","id":404006545,"properties":{"power":"substation","substation":"transmission","voltage":"230000;115000","@type":"way","@id":404006545},"geometry":{"type":"Point","coordinates":[100.8423348,13.4929868]}},{"type":"Feature","id":408050988,"properties":{"name":"สถานีไฟฟ้าแรงสูงสามพราน 1","operator":"EGAT","operator:wikidata":"Q3050569","operator:wikipedia":"th:การไฟฟ้าฝ่ายผลิตแห่งประเทศไทย","power":"substation","substation":"transmission","voltage":"230000;115000","@type":"way","@id":408050988},"geometry":{"type":"Point","coordinates":[100.2919757,13.6902698]}},{"type":"Feature","id":550152207,"properties":{"name":"สถานีไฟฟ้าแรงสูงสมุทรสาคร 3","operator":"EGAT","operator:wikidata":"Q3050569","operator:wikipedia":"th:การไฟฟ้าฝ่ายผลิตแห่งประเทศไทย","power":"substation","substation":"transmission","voltage":"230000;115000","@type":"way","@id":550152207},"geometry":{"type":"Point","coordinates":[100.3318734,13.5968441]}},{"type":"Feature","id":550152213,"properties":{"name":"สถานีไฟฟ้าแรงสูงสมุทรสาคร 1","operator":"EGAT","operator:wikidata":"Q3050569","operator:wikipedia":"th:การไฟฟ้าฝ่ายผลิตแห่งประเทศไทย","power":"substation","substation":"transmission","voltage":"115000","@type":"way","@id":550152213},"geometry":{"type":"Point","coordinates":[100.2824629,13.5934477]}},{"type":"Feature","id":633139485,"properties":{"power":"substation","source":"DigitalGlobe-Standard","@type":"way","@id":633139485},"geometry":{"type":"Point","coordinates":[100.3157284,14.0252115]}},{"type":"Feature","id":659641345,"properties":{"name":"สถานีไฟฟ้าแรงสูงลำลูกกา","operator":"การไฟฟ้าฝ่ายผลิตแห่งประเทศไทย","operator:en":"Electricity Generating Authority of Thailand","operator:short":"กฟผ.","operator:th":"การไฟฟ้าฝ่ายผลิตแห่งประเทศไทย","operator:wikidata":"Q3050569","power":"substation","substation":"transmission","voltage":"230000","@type":"way","@id":659641345},"geometry":{"type":"Point","coordinates":[100.6985864,13.9356664]}},{"type":"Feature","id":677654404,"properties":{"power":"substation","@type":"way","@id":677654404},"geometry":{"type":"Point","coordinates":[100.5980797,14.0991178]}},{"type":"Feature","id":842103117,"properties":{"power":"substation","@type":"way","@id":842103117},"geometry":{"type":"Point","coordinates":[100.320498,13.577271]}},{"type":"Feature","id":842103130,"properties":{"power":"substation","@type":"way","@id":842103130},"geometry":{"type":"Point","coordinates":[100.3112681,13.625984]}},{"type":"Feature","id":842103133,"properties":{"power":"substation","@type":"way","@id":842103133},"geometry":{"type":"Point","coordinates":[100.2661778,13.5671246]}},{"type":"Feature","id":853548876,"properties":{"power":"substation","@type":"way","@id":853548876},"geometry":{"type":"Point","coordinates":[100.2604841,13.6129615]}},{"type":"Feature","id":853548877,"properties":{"power":"substation","@type":"way","@id":853548877},"geometry":{"type":"Point","coordinates":[100.2596533,13.6121537]}},{"type":"Feature","id":853548878,"properties":{"power":"substation","@type":"way","@id":853548878},"geometry":{"type":"Point","coordinates":[100.260621,13.6117487]}},{"type":"Feature","id":853548879,"properties":{"power":"substation","@type":"way","@id":853548879},"geometry":{"type":"Point","coordinates":[100.260282,13.5884922]}},{"type":"Feature","id":853865852,"properties":{"name":"กองโรงงานการไฟฟ้าฝ่ายผลิต","operator":"EGAT","operator:wikidata":"Q3050569","operator:wikipedia":"th:การไฟฟ้าฝ่ายผลิตแห่งประเทศไทย","power":"substation","@type":"way","@id":853865852},"geometry":{"type":"Point","coordinates":[100.8022529,13.8128699]}},{"type":"Feature","id":853961330,"properties":{"power":"substation","@type":"way","@id":853961330},"geometry":{"type":"Point","coordinates":[100.7915555,13.603881]}},{"type":"Feature","id":889262415,"properties":{"name":"สถานีย่อยแพรกษา","name:en":"Phraeksa Substation","name:th":"สถานีย่อยแพรกษา","operator":"การไฟฟ้านครหลวง","operator:en":"Metropolitan Electricity Authority","power":"substation","substation":"industrial","voltage":"115000;22000","@type":"way","@id":889262415},"geometry":{"type":"Point","coordinates":[100.6657387,13.547547]}},{"type":"Feature","id":987853604,"properties":{"name":"สถานีไฟฟ้าแรงสูงคลองด่าน","operator":"EGAT","operator:wikidata":"Q3050569","operator:wikipedia":"th:การไฟฟ้าฝ่ายผลิตแห่งประเทศไทย","power":"substation","substation":"transmission","@type":"way","@id":987853604},"geometry":{"type":"Point","coordinates":[100.8446714,13.5578846]}},{"type":"Feature","id":1004987215,"properties":{"power":"substation","voltage":"115000","@type":"way","@id":1004987215},"geometry":{"type":"Point","coordinates":[100.5634852,13.616714]}},{"type":"Feature","id":1039234120,"properties":{"name":"สถานีไฟฟ้าเทพารักษ์","operator":"MEA","power":"substation","substation":"distribution","@type":"way","@id":1039234120},"geometry":{"type":"Point","coordinates":[100.6616902,13.6273014]}},{"type":"Feature","id":1039235094,"properties":{"name":"สถานีไฟฟ้าบางพลี","operator":"MEA","power":"substation","voltage":"115000;22000","@type":"way","@id":1039235094},"geometry":{"type":"Point","coordinates":[100.6896589,13.64096]}},{"type":"Feature","id":1040468125,"properties":{"operator":"PEA","operator:wikidata":"Q13013017","operator:wikipedia":"th:การไฟฟ้าส่วนภูมิภาค","power":"substation","@type":"way","@id":1040468125},"geometry":{"type":"Point","coordinates":[100.332977,13.596914]}},{"type":"Feature","id":1041589439,"properties":{"name":"สถานีไฟฟ้าสามพราน 1","operator":"PEA","operator:wikidata":"Q13013017","operator:wikipedia":"th:การไฟฟ้าส่วนภูมิภาค","power":"substation","@type":"way","@id":1041589439},"geometry":{"type":"Point","coordinates":[100.2925959,13.6907584]}},{"type":"Feature","id":1041590258,"properties":{"name":"สถานีไฟฟ้าสมุทรสาคร 1","operator":"PEA","operator:wikidata":"Q13013017","operator:wikipedia":"th:การไฟฟ้าส่วนภูมิภาค","power":"substation","@type":"way","@id":1041590258},"geometry":{"type":"Point","coordinates":[100.2823385,13.5930536]}},{"type":"Feature","id":1042531080,"properties":{"name":"สถานีไฟฟ้าแจ้งวัฒนะ","operator":"MEA","power":"substation","substation":"distribution","@type":"way","@id":1042531080},"geometry":{"type":"Point","coordinates":[100.5550387,13.9091883]}},{"type":"Feature","id":1046564436,"properties":{"name":"สถานีไฟฟ้าหนองจอก","operator":"MEA","power":"substation","substation":"distribution","@type":"way","@id":1046564436},"geometry":{"type":"Point","coordinates":[100.8030567,13.8138281]}},{"type":"Feature","id":1167894586,"properties":{"name":"สถานีไฟฟ้าย่อยจตุจักร","name:en":"Chatuchak Substation","name:th":"สถานีไฟฟ้าย่อยจตุจักร","power":"substation","substation":"traction","voltage":"115000","@type":"way","@id":1167894586},"geometry":{"type":"Point","coordinates":[100.5508351,13.8278032]}},{"type":"Feature","id":1167894587,"properties":{"area":"yes","name":"สถานีไฟฟ้าแรงสูงจตุจักร","name:en":"New Chatuchak Substation","name:th":"สถานีไฟฟ้าแรงสูงจตุจักร","power":"substation","substation":"transmission","voltage":"230000","@type":"way","@id":1167894587},"geometry":{"type":"Point","coordinates":[100.5518957,13.8289299]}},{"type":"Feature","id":1201492638,"properties":{"industrial":"electrical","name":"สถานีไฟฟ้าย่อยปทุมวัน","name:en":"Pathum Wan Substation","name:th":"สถานีไฟฟ้าย่อยปทุมวัน","power":"substation","substation":"yes","voltage":"115000;22000","@type":"way","@id":1201492638},"geometry":{"type":"Point","coordinates":[100.5262543,13.7430116]}},{"type":"Feature","id":1208347571,"properties":{"industrial":"electrical","landuse":"industrial","name":"สถานีไฟฟ้าย่อยสามย่าน","name:en":"Sam Yan Electricity Substation","name:th":"สถานีไฟฟ้าย่อยสามย่าน","operator":"การไฟฟ้าฝ่ายผลิตแห่งประเทศไทย","operator:en":"Electricity Generating Authority of Thailand","operator:short":"กฟผ.","operator:th":"การไฟฟ้าฝ่ายผลิตแห่งประเทศไทย","operator:wikidata":"Q3050569","power":"substation","substation":"yes","voltage":"115000;22000","@type":"way","@id":1208347571},"geometry":{"type":"Point","coordinates":[100.5248601,13.7359552]}},{"type":"Feature","id":1225166487,"properties":{"industrial":"electrical","landuse":"industrial","name":"สถานีไฟฟ้าย่อยลุมพินี","name:en":"Lumphini Substation","name:th":"สถานีไฟฟ้าย่อยลุมพินี","power":"substation","voltage":"115000;22000","@type":"way","@id":1225166487},"geometry":{"type":"Point","coordinates":[100.5435603,13.7335208]}},{"type":"Feature","id":1234912919,"properties":{"location":"outdoor","power":"substation","@type":"way","@id":1234912919},"geometry":{"type":"Point","coordinates":[100.7778862,13.7108457]}},{"type":"Feature","id":1239855448,"properties":{"landuse":"industrial","name":"สถานีย่อยมหาเมฆ","name:en":"Mahamek Substation","name:th":"สถานีย่อยมหาเมฆ","power":"substation","voltage":"115000;22000","@type":"way","@id":1239855448},"geometry":{"type":"Point","coordinates":[100.5301649,13.7030552]}},{"type":"Feature","id":1242709095,"properties":{"landuse":"industrial","name":"สถานีไฟฟ้าย่อยชิดลม","name:en":"Chit Lom Substation","name:th":"สถานีไฟฟ้าย่อยชิดลม","operator":"การไฟฟ้าฝ่ายผลิตแห่งประเทศไทย","operator:en":"Electricity Generating Authority of Thailand","operator:short":"กฟผ.","operator:th":"การไฟฟ้าฝ่ายผลิตแห่งประเทศไทย","operator:wikidata":"Q3050569","power":"substation","substation":"switchgear","voltage":"230000;115000;22000","@type":"way","@id":1242709095},"geometry":{"type":"Point","coordinates":[100.5436586,13.7457891]}},{"type":"Feature","id":1306077361,"properties":{"addr:district":"บางกะปิ","addr:postcode":"10240","addr:province":"กรุงเทพมหานคร","addr:subdistrict":"หัวหมาก","building":"industrial","operator":"MEA","power":"substation","@type":"way","@id":1306077361},"geometry":{"type":"Point","coordinates":[100.6324824,13.7582224]}},{"type":"Feature","id":1312533058,"properties":{"addr:housenumber":"146","addr:street":"ถนนร่มเกล้า","name":"สถานีย่อยร่มเกล้า","name:th":"สถานีย่อยร่มเกล้า","power":"substation","substation":"minor_distribution","@type":"way","@id":1312533058},"geometry":{"type":"Point","coordinates":[100.7457092,13.7425958]}},{"type":"Feature","id":1314281612,"properties":{"name":"การไฟฟ้านครหลวง สถานีย่อยวัดกำแพง","power":"substation","@type":"way","@id":1314281612},"geometry":{"type":"Point","coordinates":[100.4423651,13.6657455]}},{"type":"Feature","id":1316241567,"properties":{"name":"สถานีไฟฟ้าย่อย","power":"substation","@type":"way","@id":1316241567},"geometry":{"type":"Point","coordinates":[100.4387072,13.6184108]}},{"type":"Feature","id":1319861804,"properties":{"name":"สถานีย่อยดินแดง","name:th":"สถานีย่อยดินแดง","power":"substation","voltage":"115000;22000","@type":"way","@id":1319861804},"geometry":{"type":"Point","coordinates":[100.5581627,13.7714116]}},{"type":"Feature","id":1323078655,"properties":{"power":"substation","@type":"way","@id":1323078655},"geometry":{"type":"Point","coordinates":[100.4379958,13.575093]}},{"type":"Feature","id":1384769092,"properties":{"building":"yes","power":"substation","substation":"minor_distribution","voltage":"115000;22000","@type":"way","@id":1384769092},"geometry":{"type":"Point","coordinates":[100.4929188,13.6927573]}},{"type":"Feature","id":1385175966,"properties":{"power":"substation","voltage":"115000","@type":"way","@id":1385175966},"geometry":{"type":"Point","coordinates":[100.5583036,13.6172536]}},{"type":"Feature","id":1385587261,"properties":{"name":"การไฟฟ้านครหลวง สถานีย่อยธนบุรี","name:en":"Thon Buri Substation","name:th":"การไฟฟ้านครหลวง สถานีย่อยธนบุรี","operator":"MEA","power":"substation","substation":"yes","voltage":"115000;22000","@type":"way","@id":1385587261},"geometry":{"type":"Point","coordinates":[100.4861888,13.7277568]}},{"type":"Feature","id":1390135196,"properties":{"name":"สถานีไฟฟ้า อู่ทหารเรือพระจุลจอมเกล้าฯ","name:en":"Phra Chulachomklao Naval Dockyard Substation","name:th":"สถานีไฟฟ้า อู่ทหารเรือพระจุลจอมเกล้าฯ","power":"substation","voltage":"115000;22000","@type":"way","@id":1390135196},"geometry":{"type":"Point","coordinates":[100.573632,13.5540309]}},{"type":"Feature","id":1390135197,"properties":{"name:en":"Bang Pu Substation","power":"substation","voltage":"115000;22000","@type":"way","@id":1390135197},"geometry":{"type":"Point","coordinates":[100.6404421,13.524688]}},{"type":"Feature","id":1390135198,"properties":{"fixme":"Not quite sure if the name of this substation is actually called Bang Pu Mai","name":"สถานีไฟฟ้า ตำบล บางปูใหม่","name:en":"Bang Pu Mai Substation","name:th":"สถานีไฟฟ้า ตำบล บางปูใหม่","power":"substation","voltage":"115000;22000","@type":"way","@id":1390135198},"geometry":{"type":"Point","coordinates":[100.6772699,13.5153753]}},{"type":"Feature","id":1390135199,"properties":{"name":"สถานีไฟฟ้าบางปูเหนือ","name:en":"Bang Pu Mai Sub District Substation","name:th":"สถานีไฟฟ้าบางปูเหนือ","power":"substation","voltage":"115000;22000","@type":"way","@id":1390135199},"geometry":{"type":"Point","coordinates":[100.6551642,13.5285958]}},{"type":"Feature","id":1390135200,"properties":{"power":"substation","voltage":"115000;22000","@type":"way","@id":1390135200},"geometry":{"type":"Point","coordinates":[100.6517006,13.5334057]}},{"type":"Feature","id":1390135201,"properties":{"name":"การไฟฟ้านครหลวง สถานีย่อยคอต่อ","name:en":"MEA Kor Tor Substation","name:th":"การไฟฟ้านครหลวง สถานีย่อยคอต่อ","operator":"การไฟฟ้านครหลวง","power":"substation","voltage":"115000;22000","@type":"way","@id":1390135201},"geometry":{"type":"Point","coordinates":[100.6418473,13.5380623]}},{"type":"Feature","id":1390135202,"properties":{"name":"สถานีย่อยบางปิ้ง","name:en":"Bang Ping Substation","name:th":"สถานีย่อยบางปิ้ง","operator":"การไฟฟ้านครหลวง","power":"substation","voltage":"115000;22000","@type":"way","@id":1390135202},"geometry":{"type":"Point","coordinates":[100.6115963,13.5583757]}},{"type":"Feature","id":1390135203,"properties":{"name":"สถานีย่อยท้ายบ้าน","name:en":"Thai Ban Substation","name:th":"สถานีย่อยท้ายบ้าน","operator":"การไฟฟ้านครหลวง","power":"substation","voltage":"115000;22000","@type":"way","@id":1390135203},"geometry":{"type":"Point","coordinates":[100.5929314,13.5753599]}},{"type":"Feature","id":1390135205,"properties":{"name":"สถานีย่อยบางเมือง","name:en":"Bang Mueang Substation","name:th":"สถานีย่อยบางเมือง","operator":"การไฟฟ้านครหลวง","power":"substation","voltage":"115000;22000","@type":"way","@id":1390135205},"geometry":{"type":"Point","coordinates":[100.6251265,13.6233725]}},{"type":"Feature","id":1390135206,"properties":{"name":"สถานีย่อยปากน้ำ","name:en":"Nakhon Luang Substation","name:th":"สถานีย่อยปากน้ำ","operator":"การไฟฟ้านครหลวง","power":"substation","voltage":"115000;22000","@type":"way","@id":1390135206},"geometry":{"type":"Point","coordinates":[100.5940806,13.611897]}},{"type":"Feature","id":1390135207,"properties":{"name":"สถานีย่อยคลองสรรพสามิต","name:en":"Khlong Sapphasamit Substation","name:th":"สถานีย่อยคลองสรรพสามิต","power":"substation","voltage":"115000;22000","@type":"way","@id":1390135207},"geometry":{"type":"Point","coordinates":[100.5798546,13.5887018]}},{"type":"Feature","id":1390656995,"properties":{"power":"substation","substation":"industrial","voltage":"115000;22000","@type":"way","@id":1390656995},"geometry":{"type":"Point","coordinates":[100.5848105,13.5741089]}},{"type":"Feature","id":1391247570,"properties":{"power":"substation","voltage":"115000;22000","@type":"way","@id":1391247570},"geometry":{"type":"Point","coordinates":[100.6528694,13.53324]}},{"type":"Feature","id":1391247574,"properties":{"name":"สถานีไฟฟ้า ย่อย บางตำหรุ","name:en":"Bang Tamru Substation","name:th":"สถานีไฟฟ้า ย่อย บางตำหรุ","power":"substation","substation":"distribution","voltage":"115000;22000","@type":"way","@id":1391247574},"geometry":{"type":"Point","coordinates":[100.6990602,13.5897354]}},{"type":"Feature","id":1424740291,"properties":{"addr:district":"สัมพันธวงศ์","addr:postcode":"10100","addr:province":"กรุงเทพมหานคร","addr:street":"ซอยสุกร 1","addr:subdistrict":"ตลาดน้อย","building":"yes","building:levels":"6","power":"substation","@type":"way","@id":1424740291},"geometry":{"type":"Point","coordinates":[100.5148283,13.7375167]}},{"type":"Feature","id":1443441543,"properties":{"landuse":"industrial","power":"substation","@type":"way","@id":1443441543},"geometry":{"type":"Point","coordinates":[100.7065699,13.6822677]}},{"type":"Feature","id":1454748833,"properties":{"name":"สถานีไฟฟ้าสี่พระยา","name:en":"Si Phraya Substation","name:th":"สถานีไฟฟ้าสี่พระยา","operator":"MEA","power":"substation","voltage":"115000;22000","@type":"way","@id":1454748833},"geometry":{"type":"Point","coordinates":[100.5187387,13.7314961]}},{"type":"Feature","id":1454783276,"properties":{"name":"สถานีย่อยพุทธรักษา","name:en":"Phuttharaksa Substation","power":"substation","substation":"distribution","voltage":"115000;22000","@type":"way","@id":1454783276},"geometry":{"type":"Point","coordinates":[100.6429141,13.5724991]}},{"type":"Feature","id":1460529243,"properties":{"operator":"การไฟฟ้าส่วนภูมิภาค","power":"substation","substation":"yes","@type":"way","@id":1460529243},"geometry":{"type":"Point","coordinates":[100.6982904,13.9349268]}},{"type":"Feature","id":1466368201,"properties":{"power":"substation","@type":"way","@id":1466368201},"geometry":{"type":"Point","coordinates":[100.5526674,13.8797622]}},{"type":"Feature","id":1467498651,"properties":{"name":"สถานีไฟฟ้ารังสิตใต้ 1","name:en":"Rangsit South Electric Station 1","name:th":"สถานีไฟฟ้ารังสิตใต้ 1","operator":"การไฟฟ้าฝ่ายผลิตแห่งประเทศไทย","operator:en":"Electricity Generating Authority of Thailand","operator:short":"กฟผ.","operator:th":"การไฟฟ้าฝ่ายผลิตแห่งประเทศไทย","operator:wikidata":"Q3050569","power":"substation","substation":"yes","@type":"way","@id":1467498651},"geometry":{"type":"Point","coordinates":[100.6422182,13.9610868]}},{"type":"Feature","id":1468649283,"properties":{"name":"สถานีย่อยสะพานดำ","name:en":"Saphan Dam Substation","name:th":"สถานีย่อยสะพานดำ","power":"substation","@type":"way","@id":1468649283},"geometry":{"type":"Point","coordinates":[100.5075967,13.750716]}},{"type":"Feature","id":11854059235,"properties":{"power":"substation","@type":"node","@id":11854059235},"geometry":{"type":"Point","coordinates":[101.5015469,12.9639651]}},{"type":"Feature","id":12077156644,"properties":{"operator":"การไฟฟ้าฝ่ายผลิตแห่งประเทศไทย","operator:en":"Electricity Generating Authority of Thailand","operator:short":"กฟผ.","operator:th":"การไฟฟ้าฝ่ายผลิตแห่งประเทศไทย","operator:wikidata":"Q3050569","power":"substation","@type":"node","@id":12077156644},"geometry":{"type":"Point","coordinates":[101.1923124,12.9822207]}},{"type":"Feature","id":155847885,"properties":{"barrier":"fence","name":"สถานีไฟฟ้าแรงสูงปลวกแดง","operator":"การไฟฟ้าฝ่ายผลิตแห่งประเทศไทย","operator:en":"Electricity Generating Authority of Thailand","operator:short":"กฟผ.","operator:th":"การไฟฟ้าฝ่ายผลิตแห่งประเทศไทย","operator:wikidata":"Q3050569","operator:wikipedia":"th:การไฟฟ้าฝ่ายผลิตแห่งประเทศไทย","power":"substation","substation":"transmission","voltage":"500000;230000","@type":"way","@id":155847885},"geometry":{"type":"Point","coordinates":[101.1928973,12.9871355]}},{"type":"Feature","id":155851424,"properties":{"name":"สถานีไฟฟ้าแรงสูงบางปะกง","operator":"การไฟฟ้าฝ่ายผลิตแห่งประเทศไทย","operator:en":"Electricity Generating Authority of Thailand","operator:short":"กฟผ.","operator:th":"การไฟฟ้าฝ่ายผลิตแห่งประเทศไทย","operator:wikidata":"Q3050569","power":"substation","substation":"transmission","voltage":"230000;115000;22000","website":"http://www.egat.co.th/en/index.php?option=com_content&view=article&id=37&Itemid=117","@type":"way","@id":155851424},"geometry":{"type":"Point","coordinates":[101.0268013,13.5039928]}},{"type":"Feature","id":156592382,"properties":{"location":"outdoor","name":"สถานีไฟฟ้าแรงสูงฉะเชิงเทรา","operator":"EGAT","operator:wikidata":"Q3050569","operator:wikipedia":"th:การไฟฟ้าฝ่ายผลิตแห่งประเทศไทย","power":"substation","source":"Bing","substation":"transmission","voltage":"115000","@type":"way","@id":156592382},"geometry":{"type":"Point","coordinates":[101.0330034,13.6262071]}},{"type":"Feature","id":242402501,"properties":{"power":"substation","voltage":"500000","@type":"way","@id":242402501},"geometry":{"type":"Point","coordinates":[101.1612114,12.6463724]}},{"type":"Feature","id":265708436,"properties":{"power":"substation","@type":"way","@id":265708436},"geometry":{"type":"Point","coordinates":[100.9203612,13.0751322]}},{"type":"Feature","id":296560688,"properties":{"location":"outdoor","name":"สถานีไฟฟ้าแรงสูงบ้านค่าย","operator":"การไฟฟ้าฝ่ายผลิตแห่งประเทศไทย","operator:en":"Electricity Generating Authority of Thailand","operator:short":"กฟผ.","operator:th":"การไฟฟ้าฝ่ายผลิตแห่งประเทศไทย","operator:wikidata":"Q3050569","operator:wikipedia":"th:การไฟฟ้าฝ่ายผลิตแห่งประเทศไทย","power":"substation","substation":"transmission","voltage":"230000;115000","@type":"way","@id":296560688},"geometry":{"type":"Point","coordinates":[101.2492625,12.7872465]}},{"type":"Feature","id":316801642,"properties":{"name":"สถานีไฟฟ้าแรงสูงบางละมุง","operator":"การไฟฟ้าฝ่ายผลิตแห่งประเทศไทย","operator:en":"Electricity Generating Authority of Thailand","operator:short":"กฟผ.","operator:th":"การไฟฟ้าฝ่ายผลิตแห่งประเทศไทย","operator:wikidata":"Q3050569","operator:wikipedia":"th:การไฟฟ้าฝ่ายผลิตแห่งประเทศไทย","power":"substation","substation":"transmission","voltage":"115000","@type":"way","@id":316801642},"geometry":{"type":"Point","coordinates":[100.9244283,12.9395748]}},{"type":"Feature","id":403525677,"properties":{"name":"สถานีไฟฟ้าแรงสูงระยอง 2","operator":"การไฟฟ้าฝ่ายผลิตแห่งประเทศไทย","operator:en":"Electricity Generating Authority of Thailand","operator:short":"กฟผ.","operator:th":"การไฟฟ้าฝ่ายผลิตแห่งประเทศไทย","operator:wikidata":"Q3050569","operator:wikipedia":"th:การไฟฟ้าฝ่ายผลิตแห่งประเทศไทย","power":"substation","substation":"transmission","voltage":"230000;115000","@type":"way","@id":403525677},"geometry":{"type":"Point","coordinates":[101.1603664,12.7580962]}},{"type":"Feature","id":403692059,"properties":{"name":"สถานีไฟฟ้าแรงสูงคลองใหม่","operator":"การไฟฟ้าฝ่ายผลิตแห่งประเทศไทย","operator:en":"Electricity Generating Authority of Thailand","operator:short":"กฟผ.","operator:th":"การไฟฟ้าฝ่ายผลิตแห่งประเทศไทย","operator:wikidata":"Q3050569","operator:wikipedia":"th:การไฟฟ้าฝ่ายผลิตแห่งประเทศไทย","power":"substation","substation":"transmission","voltage":"230000;115000","@type":"way","@id":403692059},"geometry":{"type":"Point","coordinates":[100.9946321,13.5709176]}},{"type":"Feature","id":404291501,"properties":{"name":"สถานีไฟฟ้าแรงสูงพานทอง","operator":"การไฟฟ้าฝ่ายผลิตแห่งประเทศไทย","operator:en":"Electricity Generating Authority of Thailand","operator:short":"กฟผ.","operator:th":"การไฟฟ้าฝ่ายผลิตแห่งประเทศไทย","operator:wikidata":"Q3050569","operator:wikipedia":"th:การไฟฟ้าฝ่ายผลิตแห่งประเทศไทย","power":"substation","substation":"transmission","voltage":"230000;115000","@type":"way","@id":404291501},"geometry":{"type":"Point","coordinates":[101.0665474,13.4464234]}},{"type":"Feature","id":404544819,"properties":{"name":"สถานีไฟฟ้าแรงสูง GPSC","operator":"EGAT","power":"substation","substation":"minor_distribution","voltage":"230000;115000;22000","@type":"way","@id":404544819},"geometry":{"type":"Point","coordinates":[100.909446,13.1130261]}},{"type":"Feature","id":404544820,"properties":{"name":"สถานีไฟฟ้าแรงสูงอ่าวไผ่","operator":"การไฟฟ้าฝ่ายผลิตแห่งประเทศไทย","operator:en":"Electricity Generating Authority of Thailand","operator:short":"กฟผ.","operator:th":"การไฟฟ้าฝ่ายผลิตแห่งประเทศไทย","operator:wikidata":"Q3050569","operator:wikipedia":"th:การไฟฟ้าฝ่ายผลิตแห่งประเทศไทย","power":"substation","substation":"transmission","voltage":"230000;115000","@type":"way","@id":404544820},"geometry":{"type":"Point","coordinates":[100.9289751,13.1264548]}},{"type":"Feature","id":404544830,"properties":{"power":"substation","substation":"transmission","voltage":"230000;115000;22000","@type":"way","@id":404544830},"geometry":{"type":"Point","coordinates":[100.9111042,13.1160654]}},{"type":"Feature","id":404544831,"properties":{"name":"สถานีไฟฟ้าแรงสูงศรีราชา","operator":"การไฟฟ้าฝ่ายผลิตแห่งประเทศไทย","operator:en":"Electricity Generating Authority of Thailand","operator:short":"กฟผ.","operator:th":"การไฟฟ้าฝ่ายผลิตแห่งประเทศไทย","operator:wikidata":"Q3050569","operator:wikipedia":"th:การไฟฟ้าฝ่ายผลิตแห่งประเทศไทย","power":"substation","substation":"transmission","voltage":"115000","@type":"way","@id":404544831},"geometry":{"type":"Point","coordinates":[100.9427106,13.160814]}},{"type":"Feature","id":450807687,"properties":{"name":"สถานีไฟฟ้าหัวสำโรง","operator":"PEA","operator:wikidata":"Q13013017","power":"substation","substation":"industrial","voltage":"115000;22000","@type":"way","@id":450807687},"geometry":{"type":"Point","coordinates":[101.344312,13.6004876]}},{"type":"Feature","id":467746217,"properties":{"operator":"PEA","power":"substation","@type":"way","@id":467746217},"geometry":{"type":"Point","coordinates":[101.068227,12.7304459]}},{"type":"Feature","id":485448099,"properties":{"power":"substation","@type":"way","@id":485448099},"geometry":{"type":"Point","coordinates":[101.0251061,13.6190772]}},{"type":"Feature","id":550155570,"properties":{"name":"สถานีไฟฟ้าแรงสูงระยอง 3","operator":"การไฟฟ้าฝ่ายผลิตแห่งประเทศไทย","operator:en":"Electricity Generating Authority of Thailand","operator:short":"กฟผ.","operator:th":"การไฟฟ้าฝ่ายผลิตแห่งประเทศไทย","operator:wikidata":"Q3050569","operator:wikipedia":"th:การไฟฟ้าฝ่ายผลิตแห่งประเทศไทย","power":"substation","substation":"transmission","voltage":"115000","@type":"way","@id":550155570},"geometry":{"type":"Point","coordinates":[101.1391513,12.720921]}},{"type":"Feature","id":550165851,"properties":{"name":"สถานีไฟฟ้าแรงสูงชลบุรี 1","operator":"EGAT","operator:wikidata":"Q3050569","operator:wikipedia":"th:การไฟฟ้าฝ่ายผลิตแห่งประเทศไทย","power":"substation","substation":"transmission","voltage":"115000","@type":"way","@id":550165851},"geometry":{"type":"Point","coordinates":[100.9909343,13.3394456]}},{"type":"Feature","id":551208446,"properties":{"name":"การไฟฟ้าส่วนภูมิภาค","name:en":"Provincial Electricy Authority","name:th":"การไฟฟ้าส่วนภูมิภาค","power":"substation","@type":"way","@id":551208446},"geometry":{"type":"Point","coordinates":[101.3151432,12.9093394]}},{"type":"Feature","id":551468783,"properties":{"location":"outdoor","name":"สถานีไฟฟ้าแรงสูงระยอง","operator":"EGAT","operator:wikidata":"Q3050569","operator:wikipedia":"th:การไฟฟ้าฝ่ายผลิตแห่งประเทศไทย","power":"substation","substation":"transmission","voltage":"115000","@type":"way","@id":551468783},"geometry":{"type":"Point","coordinates":[101.2725429,12.6893858]}},{"type":"Feature","id":572860148,"properties":{"location":"outdoor","name":"สถานีไฟฟ้าแรงสูงแกลง","operator":"EGAT","operator:wikidata":"Q3050569","operator:wikipedia":"th:การไฟฟ้าฝ่ายผลิตแห่งประเทศไทย","power":"substation","substation":"transmission","voltage":"115000","@type":"way","@id":572860148},"geometry":{"type":"Point","coordinates":[101.6683871,12.8079269]}},{"type":"Feature","id":589096407,"properties":{"power":"substation","@type":"way","@id":589096407},"geometry":{"type":"Point","coordinates":[101.1134842,12.6961061]}},{"type":"Feature","id":626631119,"properties":{"power":"substation","@type":"way","@id":626631119},"geometry":{"type":"Point","coordinates":[100.8598796,12.9082234]}},{"type":"Feature","id":643435435,"properties":{"power":"substation","@type":"way","@id":643435435},"geometry":{"type":"Point","coordinates":[100.9137618,13.0838075]}},{"type":"Feature","id":649739871,"properties":{"power":"substation","substation":"industrial","@type":"way","@id":649739871},"geometry":{"type":"Point","coordinates":[101.1480516,12.7019587]}},{"type":"Feature","id":649750279,"properties":{"power":"substation","@type":"way","@id":649750279},"geometry":{"type":"Point","coordinates":[101.1250379,12.6999512]}},{"type":"Feature","id":650122709,"properties":{"name":"สถานีไฟฟ้าแรงสูงเชิงเนิน","operator":"EGAT","power":"substation","substation":"transmission","voltage":"230000","@type":"way","@id":650122709},"geometry":{"type":"Point","coordinates":[101.3335542,12.675467]}},{"type":"Feature","id":650122719,"properties":{"power":"substation","@type":"way","@id":650122719},"geometry":{"type":"Point","coordinates":[101.3059554,12.6630203]}},{"type":"Feature","id":650171149,"properties":{"power":"substation","substation":"industrial","@type":"way","@id":650171149},"geometry":{"type":"Point","coordinates":[101.3105767,12.6558479]}},{"type":"Feature","id":650171151,"properties":{"power":"substation","substation":"industrial","@type":"way","@id":650171151},"geometry":{"type":"Point","coordinates":[101.3098729,12.6569109]}},{"type":"Feature","id":650180904,"properties":{"power":"substation","substation":"industrial","@type":"way","@id":650180904},"geometry":{"type":"Point","coordinates":[101.319902,12.6507814]}},{"type":"Feature","id":650223539,"properties":{"power":"substation","substation":"industrial","@type":"way","@id":650223539},"geometry":{"type":"Point","coordinates":[101.3258428,12.673816]}},{"type":"Feature","id":650237073,"properties":{"power":"substation","substation":"industrial","@type":"way","@id":650237073},"geometry":{"type":"Point","coordinates":[101.150312,12.6847729]}},{"type":"Feature","id":650237075,"properties":{"power":"substation","@type":"way","@id":650237075},"geometry":{"type":"Point","coordinates":[101.1463823,12.6889936]}},{"type":"Feature","id":650271981,"properties":{"power":"substation","@type":"way","@id":650271981},"geometry":{"type":"Point","coordinates":[101.1563976,12.6948922]}},{"type":"Feature","id":650345367,"properties":{"power":"substation","@type":"way","@id":650345367},"geometry":{"type":"Point","coordinates":[101.1591925,12.7533142]}},{"type":"Feature","id":650351164,"properties":{"barrier":"wall","power":"substation","@type":"way","@id":650351164},"geometry":{"type":"Point","coordinates":[101.1854647,13.0682346]}},{"type":"Feature","id":650351182,"properties":{"power":"substation","@type":"way","@id":650351182},"geometry":{"type":"Point","coordinates":[101.1983816,13.0680667]}},{"type":"Feature","id":650353608,"properties":{"power":"substation","@type":"way","@id":650353608},"geometry":{"type":"Point","coordinates":[101.185853,13.0646198]}},{"type":"Feature","id":650374662,"properties":{"power":"substation","@type":"way","@id":650374662},"geometry":{"type":"Point","coordinates":[101.1322195,12.6848419]}},{"type":"Feature","id":650374666,"properties":{"power":"substation","@type":"way","@id":650374666},"geometry":{"type":"Point","coordinates":[101.1377063,12.7065358]}},{"type":"Feature","id":650395899,"properties":{"power":"substation","@type":"way","@id":650395899},"geometry":{"type":"Point","coordinates":[101.1369781,12.6894073]}},{"type":"Feature","id":650396516,"properties":{"power":"substation","@type":"way","@id":650396516},"geometry":{"type":"Point","coordinates":[101.1201751,12.697924]}},{"type":"Feature","id":654271213,"properties":{"power":"substation","@type":"way","@id":654271213},"geometry":{"type":"Point","coordinates":[100.8952785,13.0947549]}},{"type":"Feature","id":654271221,"properties":{"power":"substation","@type":"way","@id":654271221},"geometry":{"type":"Point","coordinates":[100.905899,13.1132564]}},{"type":"Feature","id":654271225,"properties":{"power":"substation","@type":"way","@id":654271225},"geometry":{"type":"Point","coordinates":[100.8999683,13.1074158]}},{"type":"Feature","id":654271227,"properties":{"power":"substation","@type":"way","@id":654271227},"geometry":{"type":"Point","coordinates":[100.9011664,13.1057325]}},{"type":"Feature","id":654271228,"properties":{"power":"substation","@type":"way","@id":654271228},"geometry":{"type":"Point","coordinates":[100.9008146,13.105578]}},{"type":"Feature","id":659858696,"properties":{"name":"สถานีไฟฟ้าแรงสูงบ้านบึง","operator":"EGAT","operator:wikidata":"Q3050569","operator:wikipedia":"th:การไฟฟ้าฝ่ายผลิตแห่งประเทศไทย","power":"substation","substation":"transmission","voltage":"115000","@type":"way","@id":659858696},"geometry":{"type":"Point","coordinates":[101.2219838,13.218949]}},{"type":"Feature","id":659859442,"properties":{"name":"สถานีไฟฟ้าแรงสูงบ่อวิน","operator":"EGAT","operator:wikidata":"Q3050569","operator:wikipedia":"th:การไฟฟ้าฝ่ายผลิตแห่งประเทศไทย","power":"substation","substation":"transmission","voltage":"230000;115000","@type":"way","@id":659859442},"geometry":{"type":"Point","coordinates":[101.0740039,13.0746947]}},{"type":"Feature","id":659861082,"properties":{"name":"สถานีไฟฟ้าแรงสูงนิคมมาบตาพุด","operator":"EGAT","power":"substation","substation":"transmission","voltage":"230000","@type":"way","@id":659861082},"geometry":{"type":"Point","coordinates":[101.1340493,12.6777]}},{"type":"Feature","id":659861263,"properties":{"name":"สถานีไฟฟ้าแรงสูงสัตหีบ 2","operator":"EGAT","operator:wikidata":"Q3050569","operator:wikipedia":"th:การไฟฟ้าฝ่ายผลิตแห่งประเทศไทย","power":"substation","substation":"transmission","voltage":"115000","@type":"way","@id":659861263},"geometry":{"type":"Point","coordinates":[100.9516569,12.6681517]}},{"type":"Feature","id":659861623,"properties":{"name":"สถานีไฟฟ้าแรงสูงสัตหีบ 1","operator":"EGAT","operator:wikidata":"Q3050569","operator:wikipedia":"th:การไฟฟ้าฝ่ายผลิตแห่งประเทศไทย","power":"substation","substation":"transmission","voltage":"115000","@type":"way","@id":659861623},"geometry":{"type":"Point","coordinates":[100.9068642,12.7515473]}},{"type":"Feature","id":659861865,"properties":{"name":"สถานีไฟฟ้าแรงสูงจอมเทียน","operator":"การไฟฟ้าฝ่ายผลิตแห่งประเทศไทย","operator:en":"Electricity Generating Authority of Thailand","operator:short":"กฟผ.","operator:th":"การไฟฟ้าฝ่ายผลิตแห่งประเทศไทย","operator:wikidata":"Q3050569","operator:wikipedia":"th:การไฟฟ้าฝ่ายผลิตแห่งประเทศไทย","power":"substation","substation":"transmission","voltage":"115000","@type":"way","@id":659861865},"geometry":{"type":"Point","coordinates":[100.9217628,12.8577862]}},{"type":"Feature","id":660320091,"properties":{"power":"substation","voltage":"230000;115000","@type":"way","@id":660320091},"geometry":{"type":"Point","coordinates":[101.2475673,12.7896895]}},{"type":"Feature","id":660320103,"properties":{"power":"substation","@type":"way","@id":660320103},"geometry":{"type":"Point","coordinates":[101.2526999,12.8300342]}},{"type":"Feature","id":660320115,"properties":{"power":"substation","@type":"way","@id":660320115},"geometry":{"type":"Point","coordinates":[101.2481369,12.8261815]}},{"type":"Feature","id":708510271,"properties":{"power":"substation","@type":"way","@id":708510271},"geometry":{"type":"Point","coordinates":[101.3359098,12.8761699]}},{"type":"Feature","id":727636017,"properties":{"operator":"GrowPower","power":"substation","substation":"distribution","@type":"way","@id":727636017},"geometry":{"type":"Point","coordinates":[101.084935,13.0863331]}},{"type":"Feature","id":731804047,"properties":{"name":"สถานีไฟฟ้าอมตะนคร 6","name:en":"Amata Nakorn Electricity Station 6","name:th":"สถานีไฟฟ้าอมตะนคร 6","power":"substation","substation":"industrial","voltage":"115000;22000","@type":"way","@id":731804047},"geometry":{"type":"Point","coordinates":[101.0287412,13.431893]}},{"type":"Feature","id":731804925,"properties":{"name":"สถานีไฟฟ้า บางปะกง","name:en":"Bang Pakong Electricity Station","name:th":"สถานีไฟฟ้า บางปะกง","operator":"PEA","operator:wikidata":"Q13013017","power":"substation","substation":"yes","voltage":"115000;22000","@type":"way","@id":731804925},"geometry":{"type":"Point","coordinates":[101.0154889,13.4226689]}},{"type":"Feature","id":731913995,"properties":{"power":"substation","@type":"way","@id":731913995},"geometry":{"type":"Point","coordinates":[101.1044734,13.4541385]}},{"type":"Feature","id":731921161,"properties":{"power":"substation","voltage":"115000","@type":"way","@id":731921161},"geometry":{"type":"Point","coordinates":[101.0189754,13.4276511]}},{"type":"Feature","id":731979152,"properties":{"power":"substation","voltage":"115000","@type":"way","@id":731979152},"geometry":{"type":"Point","coordinates":[101.0584037,13.4535207]}},{"type":"Feature","id":731979153,"properties":{"power":"substation","voltage":"115000;22000","@type":"way","@id":731979153},"geometry":{"type":"Point","coordinates":[101.0560344,13.4507637]}},{"type":"Feature","id":731979155,"properties":{"power":"substation","voltage":"115000;22000","@type":"way","@id":731979155},"geometry":{"type":"Point","coordinates":[101.0585311,13.4485163]}},{"type":"Feature","id":731979158,"properties":{"name":"สถานีไฟฟ้าอมตะนคร 1","name:en":"Amata Nakorn Electricity Station 1","name:th":"สถานีไฟฟ้าอมตะนคร 1","operator":"PEA","operator:wikidata":"Q13013017","power":"substation","voltage":"115000;22000","@type":"way","@id":731979158},"geometry":{"type":"Point","coordinates":[101.0625441,13.4519966]}},{"type":"Feature","id":731982350,"properties":{"power":"substation","voltage":"115000;22000","@type":"way","@id":731982350},"geometry":{"type":"Point","coordinates":[101.0264523,13.419763]}},{"type":"Feature","id":731982374,"properties":{"power":"substation","substation":"industrial","voltage":"115000;22000","@type":"way","@id":731982374},"geometry":{"type":"Point","coordinates":[101.0454836,13.436468]}},{"type":"Feature","id":731990618,"properties":{"power":"substation","@type":"way","@id":731990618},"geometry":{"type":"Point","coordinates":[101.1653381,13.0034794]}},{"type":"Feature","id":731990641,"properties":{"power":"substation","@type":"way","@id":731990641},"geometry":{"type":"Point","coordinates":[101.1964727,13.005008]}},{"type":"Feature","id":731995538,"properties":{"power":"substation","@type":"way","@id":731995538},"geometry":{"type":"Point","coordinates":[101.174191,13.0300987]}},{"type":"Feature","id":807580461,"properties":{"power":"substation","@type":"way","@id":807580461},"geometry":{"type":"Point","coordinates":[101.4877349,12.643191]}},{"type":"Feature","id":827083993,"properties":{"power":"substation","@type":"way","@id":827083993},"geometry":{"type":"Point","coordinates":[101.0208577,13.4827516]}},{"type":"Feature","id":827099562,"properties":{"power":"substation","@type":"way","@id":827099562},"geometry":{"type":"Point","coordinates":[101.0309133,13.4518657]}},{"type":"Feature","id":853961315,"properties":{"power":"substation","@type":"way","@id":853961315},"geometry":{"type":"Point","coordinates":[100.9727373,13.4835523]}},{"type":"Feature","id":886273535,"properties":{"operator":"PEA","operator:wikidata":"Q13013017","operator:wikipedia":"th:การไฟฟ้าส่วนภูมิภาค","power":"substation","@type":"way","@id":886273535},"geometry":{"type":"Point","coordinates":[101.1922963,12.9818276]}},{"type":"Feature","id":886273588,"properties":{"power":"substation","@type":"way","@id":886273588},"geometry":{"type":"Point","coordinates":[101.1088961,13.3090466]}},{"type":"Feature","id":886277879,"properties":{"power":"substation","@type":"way","@id":886277879},"geometry":{"type":"Point","coordinates":[101.1034279,12.9896539]}},{"type":"Feature","id":886277906,"properties":{"power":"substation","@type":"way","@id":886277906},"geometry":{"type":"Point","coordinates":[101.1371125,13.0024243]}},{"type":"Feature","id":913796098,"properties":{"barrier":"yes","name":"สถานีไฟฟ้าแรงสูงฉะเชิงเทรา2","operator":"EGAT","power":"substation","substation":"transmission","voltage":"500000;230000","@type":"way","@id":913796098},"geometry":{"type":"Point","coordinates":[101.1591861,13.6094782]}},{"type":"Feature","id":920637367,"properties":{"name":"สถานีไฟฟ้าแรงสูงบางปะกง","name:en":"Bang Pakong High Voltage Substation","name:th":"สถานีไฟฟ้าแรงสูงบางปะกง","power":"substation","substation":"transmission","voltage":"500000;230000;115000","@type":"way","@id":920637367},"geometry":{"type":"Point","coordinates":[101.0257275,13.508359]}},{"type":"Feature","id":942504838,"properties":{"power":"substation","substation":"distribution","@type":"way","@id":942504838},"geometry":{"type":"Point","coordinates":[101.0162783,13.7347621]}},{"type":"Feature","id":945380017,"properties":{"power":"substation","substation":"transmission","@type":"way","@id":945380017},"geometry":{"type":"Point","coordinates":[101.1948248,13.0489103]}},{"type":"Feature","id":954811287,"properties":{"power":"substation","@type":"way","@id":954811287},"geometry":{"type":"Point","coordinates":[101.010904,13.7345941]}},{"type":"Feature","id":1006879754,"properties":{"power":"substation","@type":"way","@id":1006879754},"geometry":{"type":"Point","coordinates":[101.1180816,12.9675743]}},{"type":"Feature","id":1006879755,"properties":{"power":"substation","@type":"way","@id":1006879755},"geometry":{"type":"Point","coordinates":[101.1063302,12.9816135]}},{"type":"Feature","id":1006879756,"properties":{"power":"substation","@type":"way","@id":1006879756},"geometry":{"type":"Point","coordinates":[101.0971932,12.9344874]}},{"type":"Feature","id":1006879757,"properties":{"power":"substation","@type":"way","@id":1006879757},"geometry":{"type":"Point","coordinates":[101.0991706,12.9340789]}},{"type":"Feature","id":1006879758,"properties":{"power":"substation","@type":"way","@id":1006879758},"geometry":{"type":"Point","coordinates":[101.0986135,12.9346939]}},{"type":"Feature","id":1006879760,"properties":{"power":"substation","@type":"way","@id":1006879760},"geometry":{"type":"Point","coordinates":[101.1728272,13.0046387]}},{"type":"Feature","id":1006879761,"properties":{"power":"substation","@type":"way","@id":1006879761},"geometry":{"type":"Point","coordinates":[101.1943509,13.0168169]}},{"type":"Feature","id":1007124030,"properties":{"power":"substation","voltage":"115000;22000","@type":"way","@id":1007124030},"geometry":{"type":"Point","coordinates":[101.0260976,13.4205991]}},{"type":"Feature","id":1007124031,"properties":{"name":"อมตะ บี.กริม เพาเวอร์ สถานีไฟฟ้า 5","name:en":"Amata.B Grimm Electricity Station 5","name:th":"อมตะ บี.กริม เพาเวอร์ สถานีไฟฟ้า 5","power":"substation","voltage":"115000;22000","@type":"way","@id":1007124031},"geometry":{"type":"Point","coordinates":[101.0570781,13.4364021]}},{"type":"Feature","id":1037882359,"properties":{"name":"สถานีไฟฟ้าคลองใหม่","operator":"PEA","operator:wikidata":"Q13013017","operator:wikipedia":"th:การไฟฟ้าส่วนภูมิภาค","power":"substation","substation":"distribution","voltage":"115000","@type":"way","@id":1037882359},"geometry":{"type":"Point","coordinates":[100.9938686,13.5719281]}},{"type":"Feature","id":1037885748,"properties":{"name":"สถานีไฟฟ้าพานทอง","operator":"PEA","operator:wikidata":"Q13013017","operator:wikipedia":"th:การไฟฟ้าส่วนภูมิภาค","power":"substation","substation":"distribution","voltage":"115000;22000","@type":"way","@id":1037885748},"geometry":{"type":"Point","coordinates":[101.065926,13.4475776]}},{"type":"Feature","id":1042821292,"properties":{"name":"สถานีไฟฟ้าชลบุรี 1","operator":"PEA","operator:wikidata":"Q13013017","operator:wikipedia":"th:การไฟฟ้าส่วนภูมิภาค","power":"substation","substation":"distribution","@type":"way","@id":1042821292},"geometry":{"type":"Point","coordinates":[100.9914825,13.3390693]}},{"type":"Feature","id":1043080938,"properties":{"name":"สถานีไฟฟ้าแรงสูงอ่าวไผ่","operator":"PEA","operator:wikidata":"Q13013017","operator:wikipedia":"th:การไฟฟ้าส่วนภูมิภาค","power":"substation","substation":"distribution","@type":"way","@id":1043080938},"geometry":{"type":"Point","coordinates":[100.9282147,13.124972]}},{"type":"Feature","id":1043295307,"properties":{"name":"สถานีไฟฟ้าฉะเชิงเทรา","operator":"PEA","operator:wikidata":"Q13013017","operator:wikipedia":"th:การไฟฟ้าส่วนภูมิภาค","power":"substation","substation":"distribution","@type":"way","@id":1043295307},"geometry":{"type":"Point","coordinates":[101.0317049,13.626009]}},{"type":"Feature","id":1043300517,"properties":{"name":"สถานีไฟฟ้าศรีราชา","operator":"PEA","operator:wikidata":"Q13013017","operator:wikipedia":"th:การไฟฟ้าส่วนภูมิภาค","power":"substation","substation":"distribution","@type":"way","@id":1043300517},"geometry":{"type":"Point","coordinates":[100.9435996,13.1605348]}},{"type":"Feature","id":1043331530,"properties":{"name":"สถานีไฟฟ้าบ้านบึง","operator":"PEA","operator:wikidata":"Q13013017","operator:wikipedia":"th:การไฟฟ้าส่วนภูมิภาค","power":"substation","substation":"distribution","@type":"way","@id":1043331530},"geometry":{"type":"Point","coordinates":[101.2224613,13.2196359]}},{"type":"Feature","id":1043477745,"properties":{"name":"สถานีไฟฟ้าบ่อวิน","operator":"PEA","operator:wikidata":"Q13013017","operator:wikipedia":"th:การไฟฟ้าส่วนภูมิภาค","power":"substation","substation":"distribution","@type":"way","@id":1043477745},"geometry":{"type":"Point","coordinates":[101.0742198,13.0753137]}},{"type":"Feature","id":1043481522,"properties":{"name":"สถานีไฟฟ้าบางละมุง","operator":"PEA","operator:wikidata":"Q13013017","operator:wikipedia":"th:การไฟฟ้าส่วนภูมิภาค","power":"substation","substation":"distribution","@type":"way","@id":1043481522},"geometry":{"type":"Point","coordinates":[100.9256771,12.9378529]}},{"type":"Feature","id":1043483179,"properties":{"name":"สถานีไฟฟ้าจอมเทียน","operator":"PEA","operator:wikidata":"Q13013017","operator:wikipedia":"th:การไฟฟ้าส่วนภูมิภาค","power":"substation","substation":"distribution","@type":"way","@id":1043483179},"geometry":{"type":"Point","coordinates":[100.9223779,12.8581822]}},{"type":"Feature","id":1043485642,"properties":{"name":"สถานีไฟฟ้ากิจการทหารเรือ","power":"substation","substation":"distribution","@type":"way","@id":1043485642},"geometry":{"type":"Point","coordinates":[100.9065262,12.7528721]}},{"type":"Feature","id":1043487296,"properties":{"name":"สถานีไฟฟ้าสัตหีบ 2","operator":"PEA","operator:wikidata":"Q13013017","operator:wikipedia":"th:การไฟฟ้าส่วนภูมิภาค","power":"substation","@type":"way","@id":1043487296},"geometry":{"type":"Point","coordinates":[100.95272,12.6665711]}},{"type":"Feature","id":1043490168,"properties":{"name":"สถานีไฟฟ้าระยอง 3","operator":"PEA","operator:wikidata":"Q13013017","operator:wikipedia":"th:การไฟฟ้าส่วนภูมิภาค","power":"substation","@type":"way","@id":1043490168},"geometry":{"type":"Point","coordinates":[101.1400922,12.7225547]}},{"type":"Feature","id":1043493299,"properties":{"name":"สถานีไฟฟ้าระยอง","operator":"PEA","operator:wikidata":"Q13013017","operator:wikipedia":"th:การไฟฟ้าส่วนภูมิภาค","power":"substation","substation":"distribution","@type":"way","@id":1043493299},"geometry":{"type":"Point","coordinates":[101.2714266,12.6897393]}},{"type":"Feature","id":1043685059,"properties":{"name":"สถานีไฟฟ้าแกลง","operator":"PEA","operator:wikidata":"Q13013017","operator:wikipedia":"th:การไฟฟ้าส่วนภูมิภาค","power":"substation","substation":"distribution","@type":"way","@id":1043685059},"geometry":{"type":"Point","coordinates":[101.6674155,12.8069859]}},{"type":"Feature","id":1044098398,"properties":{"operator":"PEA","operator:wikidata":"Q13013017","operator:wikipedia":"th:การไฟฟ้าส่วนภูมิภาค","power":"substation","voltage":"115000;22000","@type":"way","@id":1044098398},"geometry":{"type":"Point","coordinates":[101.2475165,12.7845747]}},{"type":"Feature","id":1221557706,"properties":{"name":"สถานีไฟฟ้าแรงสูง ชลบุรี 2","name:en":"Chonburi 2 High Voltage Substation","name:th":"สถานีไฟฟ้าแรงสูง ชลบุรี 2","operator":"การไฟฟ้าฝ่ายผลิตแห่งประเทศไทย","operator:en":"Electricity Generating Authority of Thailand","operator:short":"กฟผ.","operator:th":"การไฟฟ้าฝ่ายผลิตแห่งประเทศไทย","operator:wikidata":"Q3050569","power":"substation","substation":"yes","voltage":"230000;115000;22000","@type":"way","@id":1221557706},"geometry":{"type":"Point","coordinates":[101.0010121,13.2037784]}},{"type":"Feature","id":1221557707,"properties":{"building":"yes","operator":"การไฟฟ้าฝ่ายผลิตแห่งประเทศไทย","operator:en":"Electricity Generating Authority of Thailand","operator:short":"กฟผ.","operator:th":"การไฟฟ้าฝ่ายผลิตแห่งประเทศไทย","operator:wikidata":"Q3050569","power":"substation","voltage":"230000","@type":"way","@id":1221557707},"geometry":{"type":"Point","coordinates":[101.0013891,13.2039111]}},{"type":"Feature","id":1233617500,"properties":{"power":"substation","substation":"distribution","@type":"way","@id":1233617500},"geometry":{"type":"Point","coordinates":[100.8915019,12.9063548]}},{"type":"Feature","id":1265743034,"properties":{"power":"substation","@type":"way","@id":1265743034},"geometry":{"type":"Point","coordinates":[101.1310984,12.8241696]}},{"type":"Feature","id":1280057972,"properties":{"power":"substation","substation":"industrial","@type":"way","@id":1280057972},"geometry":{"type":"Point","coordinates":[101.0131766,13.5319275]}},{"type":"Feature","id":1354913887,"properties":{"name":"สถานีไฟฟ้าสนามชัยเขต","name:en":"Sanam Chai Khet Substation","name:th":"สถานีไฟฟ้าสนามชัยเขต","power":"substation","voltage":"115000;22000","@type":"way","@id":1354913887},"geometry":{"type":"Point","coordinates":[101.433751,13.6409322]}},{"type":"Feature","id":1366689320,"properties":{"construction":"yes","construction:power":"substation","name":"สถานีไฟฟ้าแรงสูง ระยอง 4","name:en":"Rayong High Voltage Substation 4","name:th":"สถานีไฟฟ้าแรงสูง ระยอง 4","power":"substation","voltage":"230000;115000","@type":"way","@id":1366689320},"geometry":{"type":"Point","coordinates":[101.1082276,12.7350731]}},{"type":"Feature","id":1366689326,"properties":{"name":"Gulf PD Power Plant","power":"substation","substation":"industrial","voltage":"500000","@type":"way","@id":1366689326},"geometry":{"type":"Point","coordinates":[101.1558041,12.9572127]}},{"type":"Feature","id":1368133991,"properties":{"power":"substation","@type":"way","@id":1368133991},"geometry":{"type":"Point","coordinates":[100.8991515,12.900287]}},{"type":"Feature","id":1384411299,"properties":{"construction:power":"substation","name":"สถานีไฟฟ้าแปลงยาว","name:en":"Plaeng Yao Electricity Station","power":"substation","voltage":"115000;22000","@type":"way","@id":1384411299},"geometry":{"type":"Point","coordinates":[101.2786063,13.5780017]}},{"type":"Feature","id":1384411300,"properties":{"name":"สถานีไฟฟ้าชลบุรี ๔","name:en":"Chon Buri Electricity Station 4","name:th":"สถานีไฟฟ้าชลบุรี ๔","power":"substation","substation":"minor_distribution","voltage":"115000;22000","@type":"way","@id":1384411300},"geometry":{"type":"Point","coordinates":[101.0349594,13.3704475]}},{"type":"Feature","id":1384411303,"properties":{"power":"substation","substation":"minor_distribution","voltage":"115000;22000","@type":"way","@id":1384411303},"geometry":{"type":"Point","coordinates":[101.0297512,13.4413156]}},{"type":"Feature","id":1384411306,"properties":{"name":"สถานีไฟฟ้าอมตะนคร 3","name:en":"Amata Nakorn Electricity Station 3","name:th":"สถานีไฟฟ้าอมตะนคร 3","operator":"PEA","operator:wikidata":"Q13013017","power":"substation","substation":"industrial","voltage":"115000;22000","@type":"way","@id":1384411306},"geometry":{"type":"Point","coordinates":[101.0984135,13.4342188]}},{"type":"Feature","id":1384411307,"properties":{"name":"สถานีไฟฟ้าบางแสน 1","name:en":"Baeng Saen Electricity Station 1","name:th":"สถานีไฟฟ้าบางแสน 1","operator":"PEA","operator:wikidata":"Q13013017","power":"substation","voltage":"115000;22000","@type":"way","@id":1384411307},"geometry":{"type":"Point","coordinates":[100.9537098,13.3100583]}},{"type":"Feature","id":1415213909,"properties":{"power":"substation","substation":"minor_distribution","voltage":"230000;115000;22000","@type":"way","@id":1415213909},"geometry":{"type":"Point","coordinates":[101.2474611,12.7947318]}},{"type":"Feature","id":1417169291,"properties":{"power":"substation","substation":"industrial","voltage":"230000;115000;22000","@type":"way","@id":1417169291},"geometry":{"type":"Point","coordinates":[100.9079446,13.1105887]}},{"type":"Feature","id":1419197270,"properties":{"construction":"yes","construction:power":"substation","name":"สถานีไฟฟ้าแรงสูงบางละมุง 2","name:en":"Bang Lamung Substation 2","name:th":"สถานีไฟฟ้าแรงสูงบางละมุง 2","power":"substation","voltage":"230000;115000","@type":"way","@id":1419197270},"geometry":{"type":"Point","coordinates":[100.9791987,13.008295]}},{"type":"Feature","id":1459675633,"properties":{"name":"Bang Pakong Power Plant Block 5","power":"substation","voltage":"115000","@type":"way","@id":1459675633},"geometry":{"type":"Point","coordinates":[101.0284134,13.4991738]}},{"type":"Feature","id":1460116548,"properties":{"name":"สถานีไฟฟ้าสวนอุตสาหกรรม 304 (ฉะเชิงเทรา)","operator":"PEA","operator:wikidata":"Q13013017","power":"substation","substation":"generation","voltage":"115000;22000","@type":"way","@id":1460116548},"geometry":{"type":"Point","coordinates":[101.4729038,13.7075381]}},{"type":"Feature","id":1460116552,"properties":{"name":"สถานีไฟฟ้าฉะเชิงเทรา ไทยเพาว์เวอร์ซัพพลาย","power":"substation","substation":"minor_distribution","voltage":"115000;22000","@type":"way","@id":1460116552},"geometry":{"type":"Point","coordinates":[101.4678604,13.7167233]}},{"type":"Feature","id":1460116555,"properties":{"construction":"yes","construction:power":"substation","name":"สถานีไฟฟ้าแรงสูง พนมสารคาม","name:en":"Phanom Sarakham High Voltage Substation","name:th":"สถานีไฟฟ้าแรงสูง พนมสารคาม","operator":"การไฟฟ้าฝ่ายผลิตแห่งประเทศไทย","operator:en":"Electricity Generating Authority of Thailand","operator:short":"กฟผ.","operator:th":"การไฟฟ้าฝ่ายผลิตแห่งประเทศไทย","operator:wikidata":"Q3050569","power":"substation","source":"SAMART, EGAT, SET, LINE TODAY","substation":"transmission","voltage":"500000;230000;115000","@type":"way","@id":1460116555},"geometry":{"type":"Point","coordinates":[101.3625373,13.6523829]}},{"type":"Feature","id":1460116558,"properties":{"name":"Koh Khanun Power Plant Substation","power":"substation","substation":"generation","voltage":"115000;22000","@type":"way","@id":1460116558},"geometry":{"type":"Point","coordinates":[101.4187874,13.6910075]}},{"type":"Feature","id":1460616608,"properties":{"name":"สถานีไฟฟ้าเกาะโพธิ์","name:en":"Ko Pho Substation","power":"substation","substation":"minor_distribution","voltage":"115000;22000","@type":"way","@id":1460616608},"geometry":{"type":"Point","coordinates":[101.283396,13.418567]}},{"type":"Feature","id":1460622396,"properties":{"power":"substation","substation":"industrial","voltage":"115000;22000","@type":"way","@id":1460622396},"geometry":{"type":"Point","coordinates":[101.2820913,13.4758509]}},{"type":"Feature","id":1461354335,"properties":{"name":"สถานีไฟฟ้าบ้านบึง 3","name:en":"Ban Bueng Substation 3","power":"substation","substation":"minor_distribution","voltage":"115000;22000","@type":"way","@id":1461354335},"geometry":{"type":"Point","coordinates":[101.2554491,13.2793933]}},{"type":"Feature","id":1461354338,"properties":{"name":"สถานีไฟฟ้าบ้านบึง 3","power":"substation","substation":"minor_distribution","voltage":"115000;22000","@type":"way","@id":1461354338},"geometry":{"type":"Point","coordinates":[101.2567339,13.2776927]}},{"type":"Feature","id":4429378131,"properties":{"power":"substation","@type":"node","@id":4429378131},"geometry":{"type":"Point","coordinates":[99.9420109,13.090549]}},{"type":"Feature","id":402578680,"properties":{"name":"สถานีไฟฟ้าหัวหิน 2","name:en":"Electricity Power Station Hua Hin 2","name:th":"สถานีไฟฟ้าหัวหิน 2","power":"substation","voltage":"115000;22000","@type":"way","@id":402578680},"geometry":{"type":"Point","coordinates":[99.8792943,12.5695725]}},{"type":"Feature","id":408425010,"properties":{"power":"substation","substation":"transmission","@type":"way","@id":408425010},"geometry":{"type":"Point","coordinates":[99.8183084,13.2177724]}},{"type":"Feature","id":573308620,"properties":{"location":"outdoor","name":"สถานีไฟฟ้าแรงสูงปราณบุรี","operator":"การไฟฟ้าฝ่ายผลิตแห่งประเทศไทย","operator:en":"Electricity Generating Authority of Thailand","operator:short":"กฟผ.","operator:th":"การไฟฟ้าฝ่ายผลิตแห่งประเทศไทย","operator:wikidata":"Q3050569","operator:wikipedia":"th:การไฟฟ้าฝ่ายผลิตแห่งประเทศไทย","power":"substation","substation":"transmission","voltage":"115000","@type":"way","@id":573308620},"geometry":{"type":"Point","coordinates":[99.8834352,12.3592329]}},{"type":"Feature","id":573736537,"properties":{"location":"outdoor","name":"สถานีไฟฟ้าแรงสูงหัวหิน","not:operator:wikidata":"Q3050569","operator":"EGAT","power":"substation","substation":"transmission","voltage":"230000;115000","@type":"way","@id":573736537},"geometry":{"type":"Point","coordinates":[99.9192039,12.5705981]}},{"type":"Feature","id":659487334,"properties":{"name":"สถานีไฟฟ้าแรงสูงเพชรบุรี","operator":"EGAT","operator:wikidata":"Q3050569","operator:wikipedia":"th:การไฟฟ้าฝ่ายผลิตแห่งประเทศไทย","power":"substation","substation":"transmission","voltage":"115000","@type":"way","@id":659487334},"geometry":{"type":"Point","coordinates":[99.9423786,13.0904067]}},{"type":"Feature","id":659643585,"properties":{"name":"สถานีไฟฟ้าแรงสูงสมุทรสงคราม","operator":"EGAT","operator:wikidata":"Q3050569","operator:wikipedia":"th:การไฟฟ้าฝ่ายผลิตแห่งประเทศไทย","power":"substation","substation":"transmission","voltage":"115000;22000","@type":"way","@id":659643585},"geometry":{"type":"Point","coordinates":[100.0616992,13.4440231]}},{"type":"Feature","id":659644346,"properties":{"name":"สถานีไฟฟ้าแรงสูงชะอำ","name:en":"Cha Am High Voltage Substation","operator":"การไฟฟ้าฝ่ายผลิตแห่งประเทศไทย","operator:en":"Electricity Generating Authority of Thailand","operator:short":"กฟผ.","operator:th":"การไฟฟ้าฝ่ายผลิตแห่งประเทศไทย","operator:wikidata":"Q3050569","operator:wikipedia":"th:การไฟฟ้าฝ่ายผลิตแห่งประเทศไทย","power":"substation","substation":"transmission","voltage":"115000","@type":"way","@id":659644346},"geometry":{"type":"Point","coordinates":[99.957486,12.8155]}},{"type":"Feature","id":744812793,"properties":{"name":"สมุทรสงคราม","power":"substation","substation":"transmission","voltage":"115000;22000","@type":"way","@id":744812793},"geometry":{"type":"Point","coordinates":[100.0615844,13.4443967]}},{"type":"Feature","id":1042665306,"properties":{"name":"สถานีไฟฟ้าเพชรบุรี","operator":"PEA","operator:wikidata":"Q13013017","operator:wikipedia":"th:การไฟฟ้าส่วนภูมิภาค","power":"substation","@type":"way","@id":1042665306},"geometry":{"type":"Point","coordinates":[99.9423178,13.0895792]}},{"type":"Feature","id":1042669678,"properties":{"name":"สถานีไฟฟ้าปราณบุรี","operator":"PEA","operator:wikidata":"Q13013017","operator:wikipedia":"th:การไฟฟ้าส่วนภูมิภาค","power":"substation","substation":"distribution","@type":"way","@id":1042669678},"geometry":{"type":"Point","coordinates":[99.8837742,12.3585505]}},{"type":"Feature","id":1356464001,"properties":{"name":"สถานีไฟฟ้าหัวหิน 3","name:en":"Hua Hin Substation 3","operator":"PEA","operator:wikidata":"Q13013017","power":"substation","substation":"minor_distribution","voltage":"115000;22000","@type":"way","@id":1356464001},"geometry":{"type":"Point","coordinates":[99.9527229,12.5349324]}},{"type":"Feature","id":1356750412,"properties":{"name":"อิเควเตอร์ โซลาร์ วัน สถานีไฟฟ้า","name:en":"Equator Solar One Substation","operator":"PEA","operator:wikidata":"Q13013017","power":"substation","substation":"generation","voltage":"115000","@type":"way","@id":1356750412},"geometry":{"type":"Point","coordinates":[99.9003599,12.8211723]}},{"type":"Feature","id":1356750414,"properties":{"power":"substation","substation":"generation","voltage":"22000","@type":"way","@id":1356750414},"geometry":{"type":"Point","coordinates":[99.9001413,12.8220152]}},{"type":"Feature","id":1388858212,"properties":{"name":"สถานีไฟฟ้าเพชรบุรี 2","name:en":"Phetchaburi Substation 2","name:th":"สถานีไฟฟ้าเพชรบุรี 2","operator":"PEA","operator:wikidata":"Q13013017","power":"substation","voltage":"115000;22000","@type":"way","@id":1388858212},"geometry":{"type":"Point","coordinates":[100.049891,13.0123492]}},{"type":"Feature","id":1388858216,"properties":{"construction":"yes","construction:power":"substation","power":"substation","voltage":"115000;22000","@type":"way","@id":1388858216},"geometry":{"type":"Point","coordinates":[99.9059725,12.9189605]}},{"type":"Feature","id":1388858218,"properties":{"name":"สถานีไฟฟ้าชะอำ 2","name:en":"Cha Am Substation 2","name:th":"สถานีไฟฟ้าชะอำ 2","power":"substation","voltage":"115000;22000","@type":"way","@id":1388858218},"geometry":{"type":"Point","coordinates":[99.9277384,12.7173516]}},{"type":"Feature","id":1388858219,"properties":{"name":"สถานีไฟฟ้าชะอำ 3","name:en":"Cha Am Substation 3","name:th":"สถานีไฟฟ้าชะอำ 3","operator":"PEA","operator:wikidata":"Q13013017","power":"substation","voltage":"115000;22000","@type":"way","@id":1388858219},"geometry":{"type":"Point","coordinates":[99.9596163,12.7518062]}},{"type":"Feature","id":1388858220,"properties":{"name":"สถานีไฟฟ้าหัวหิน4","name:en":"Hua Hin Substation 4","name:th":"สถานีไฟฟ้าหัวหิน4","operator":"PEA","operator:wikidata":"Q13013017","power":"substation","voltage":"115000;22000","@type":"way","@id":1388858220},"geometry":{"type":"Point","coordinates":[99.8641965,12.5871747]}},{"type":"Feature","id":1459604142,"properties":{"fixme":"Name of the substation ?","power":"substation","voltage":"115000;22000","@type":"way","@id":1459604142},"geometry":{"type":"Point","coordinates":[100.0588503,13.1311017]}},{"type":"Feature","id":3506310937,"properties":{"power":"substation","@type":"node","@id":3506310937},"geometry":{"type":"Point","coordinates":[102.0207245,14.9507307]}},{"type":"Feature","id":3926058575,"properties":{"power":"substation","@type":"node","@id":3926058575},"geometry":{"type":"Point","coordinates":[100.9166601,14.8643946]}},{"type":"Feature","id":12459243080,"properties":{"power":"substation","@type":"node","@id":12459243080},"geometry":{"type":"Point","coordinates":[101.7305641,15.1403507]}},{"type":"Feature","id":12735424925,"properties":{"power":"substation","@type":"node","@id":12735424925},"geometry":{"type":"Point","coordinates":[101.1702635,14.2300657]}},{"type":"Feature","id":12743399966,"properties":{"power":"substation","@type":"node","@id":12743399966},"geometry":{"type":"Point","coordinates":[100.6678687,14.4536615]}},{"type":"Feature","id":306817346,"properties":{"power":"substation","voltage":"115000","@type":"way","@id":306817346},"geometry":{"type":"Point","coordinates":[101.4563218,15.2056552]}},{"type":"Feature","id":381823390,"properties":{"location":"outdoor","name":"สถานีไฟฟ้าแรงสูงวังน้อย","operator":"EGAT","power":"substation","substation":"transmission","voltage":"500000;230000","@type":"way","@id":381823390},"geometry":{"type":"Point","coordinates":[100.7786229,14.2273542]}},{"type":"Feature","id":381823433,"properties":{"location":"outdoor","name":"สถานีไฟฟ้าพุแค","operator":"PEA","power":"substation","substation":"distribution","@type":"way","@id":381823433},"geometry":{"type":"Point","coordinates":[100.9008501,14.7152194]}},{"type":"Feature","id":381823435,"properties":{"location":"outdoor","name":"สถานีไฟฟ้าแรงสูงแก่งคอย","operator":"EGAT","operator:wikidata":"Q3050569","operator:wikipedia":"th:การไฟฟ้าฝ่ายผลิตแห่งประเทศไทย","power":"substation","substation":"transmission","voltage":"230000","@type":"way","@id":381823435},"geometry":{"type":"Point","coordinates":[101.025218,14.6035572]}},{"type":"Feature","id":382333985,"properties":{"location":"outdoor","power":"substation","substation":"transmission","@type":"way","@id":382333985},"geometry":{"type":"Point","coordinates":[100.9723544,14.5715557]}},{"type":"Feature","id":403481611,"properties":{"name":"สถานีไฟฟ้าแรงสูงท่าลาน 3","operator":"EGAT","operator:wikidata":"Q3050569","operator:wikipedia":"th:การไฟฟ้าฝ่ายผลิตแห่งประเทศไทย","power":"substation","substation":"transmission","voltage":"230000;115000","@type":"way","@id":403481611},"geometry":{"type":"Point","coordinates":[100.8029133,14.5837754]}},{"type":"Feature","id":403512774,"properties":{"name":"สถานีไฟฟ้าแรงสูงบางปะอิน 2","operator":"EGAT","operator:wikidata":"Q3050569","operator:wikipedia":"th:การไฟฟ้าฝ่ายผลิตแห่งประเทศไทย","power":"substation","substation":"transmission","voltage":"230000;115000","@type":"way","@id":403512774},"geometry":{"type":"Point","coordinates":[100.6122924,14.1985644]}},{"type":"Feature","id":404563246,"properties":{"name":"สถานีไฟฟ้าแรงสูงสระบุรี 2","operator":"การไฟฟ้าฝ่ายผลิตแห่งประเทศไทย","operator:en":"Electricity Generating Authority of Thailand","operator:short":"กฟผ.","operator:th":"การไฟฟ้าฝ่ายผลิตแห่งประเทศไทย","operator:wikidata":"Q3050569","operator:wikipedia":"th:การไฟฟ้าฝ่ายผลิตแห่งประเทศไทย","power":"substation","substation":"transmission","voltage":"230000;115000","@type":"way","@id":404563246},"geometry":{"type":"Point","coordinates":[101.0830901,14.6136724]}},{"type":"Feature","id":486286585,"properties":{"power":"substation","@type":"way","@id":486286585},"geometry":{"type":"Point","coordinates":[100.6427139,14.3207397]}},{"type":"Feature","id":550622476,"properties":{"power":"substation","@type":"way","@id":550622476},"geometry":{"type":"Point","coordinates":[102.0180979,14.9503057]}},{"type":"Feature","id":550622477,"properties":{"name":"สถานีไฟฟ้าแรงสูงนครราชสีมา 2","operator":"การไฟฟ้าฝ่ายผลิตแห่งประเทศไทย","operator:en":"Electricity Generating Authority of Thailand","operator:short":"กฟผ.","operator:th":"การไฟฟ้าฝ่ายผลิตแห่งประเทศไทย","operator:wikidata":"Q3050569","power":"substation","substation":"transmission","voltage":"230000;115000","@type":"way","@id":550622477},"geometry":{"type":"Point","coordinates":[102.0207696,14.9516061]}},{"type":"Feature","id":550636268,"properties":{"name":"สถานีไฟฟ้าแรงสูงสีคิ้ว 2","name:en":"Sikhiu 2 Substation","power":"substation","substation":"transmission","voltage":"230000","@type":"way","@id":550636268},"geometry":{"type":"Point","coordinates":[101.7824407,14.8717803]}},{"type":"Feature","id":550644056,"properties":{"name":"สถานีไฟฟ้าแรงสูงนครราชสีมา 1","operator":"EGAT","power":"substation","substation":"transmission","voltage":"115000","@type":"way","@id":550644056},"geometry":{"type":"Point","coordinates":[102.1025993,14.9941322]}},{"type":"Feature","id":550657165,"properties":{"name":"สถานีไฟฟ้าแรงสูงนครราชสีมา 3","operator":"EGAT","power":"substation","substation":"transmission","voltage":"230000","@type":"way","@id":550657165},"geometry":{"type":"Point","coordinates":[102.0905326,14.7440369]}},{"type":"Feature","id":550657166,"properties":{"power":"substation","@type":"way","@id":550657166},"geometry":{"type":"Point","coordinates":[102.0908597,14.7408515]}},{"type":"Feature","id":572719266,"properties":{"location":"outdoor","name":"สถานีไฟฟ้าแรงสูงปราจีนบุรี 1","operator":"EGAT","operator:wikidata":"Q3050569","operator:wikipedia":"th:การไฟฟ้าฝ่ายผลิตแห่งประเทศไทย","power":"substation","substation":"transmission","voltage":"115000","@type":"way","@id":572719266},"geometry":{"type":"Point","coordinates":[101.3184268,14.1459156]}},{"type":"Feature","id":643548554,"properties":{"power":"substation","@type":"way","@id":643548554},"geometry":{"type":"Point","coordinates":[100.6051493,14.1222328]}},{"type":"Feature","id":651602830,"properties":{"location":"outdoor","name":"สถานีไฟฟ้าแรงสูงสีคิ้ว 1","name:en":"Sikhui High Voltage Substation","operator":"การไฟฟ้าฝ่ายผลิตแห่งประเทศไทย","operator:en":"Electricity Generating Authority of Thailand","operator:short":"กฟผ.","operator:th":"การไฟฟ้าฝ่ายผลิตแห่งประเทศไทย","operator:wikidata":"Q3050569","power":"substation","substation":"transmission","voltage":"115000","@type":"way","@id":651602830},"geometry":{"type":"Point","coordinates":[101.7717873,14.8708065]}},{"type":"Feature","id":651661229,"properties":{"location":"outdoor","name":"สถานีไฟฟ้าแรงสูงปากช่อง","operator":"EGAT","power":"substation","substation":"transmission","voltage":"115000","@type":"way","@id":651661229},"geometry":{"type":"Point","coordinates":[101.4470444,14.699909]}},{"type":"Feature","id":658704544,"properties":{"name":"สถานีไฟฟ้าแรงสูงภาชี 2","operator":"การไฟฟ้าฝ่ายผลิตแห่งประเทศไทย","operator:en":"Electricity Generating Authority of Thailand","operator:short":"กฟผ.","operator:th":"การไฟฟ้าฝ่ายผลิตแห่งประเทศไทย","operator:wikidata":"Q3050569","operator:wikipedia":"th:การไฟฟ้าฝ่ายผลิตแห่งประเทศไทย","power":"substation","substation":"transmission","voltage":"500000","@type":"way","@id":658704544},"geometry":{"type":"Point","coordinates":[100.761998,14.4229696]}},{"type":"Feature","id":659229703,"properties":{"name":"สถานีไฟฟ้าแรงสูงลพบุรี 2","operator":"EGAT","operator:wikidata":"Q3050569","operator:wikipedia":"th:การไฟฟ้าฝ่ายผลิตแห่งประเทศไทย","power":"substation","substation":"transmission","voltage":"115000","@type":"way","@id":659229703},"geometry":{"type":"Point","coordinates":[100.6231945,14.8491577]}},{"type":"Feature","id":659490300,"properties":{"name":"สถานีไฟฟ้าแรงสูงชัยบาดาล","operator":"EGAT","operator:wikidata":"Q3050569","operator:wikipedia":"th:การไฟฟ้าฝ่ายผลิตแห่งประเทศไทย","power":"substation","substation":"transmission","voltage":"115000","@type":"way","@id":659490300},"geometry":{"type":"Point","coordinates":[101.1037202,15.2072522]}},{"type":"Feature","id":659491955,"properties":{"name":"สถานีไฟฟ้าแรงสูงอยุธยา 4","operator":"EGAT","operator:wikidata":"Q3050569","operator:wikipedia":"th:การไฟฟ้าฝ่ายผลิตแห่งประเทศไทย","power":"substation","substation":"transmission","voltage":"500000;230000","@type":"way","@id":659491955},"geometry":{"type":"Point","coordinates":[100.6972002,14.5851108]}},{"type":"Feature","id":659492401,"properties":{"name":"สถานีไฟฟ้าแรงสูงอยุธยา 2","operator":"การไฟฟ้าฝ่ายผลิตแห่งประเทศไทย","operator:en":"Electricity Generating Authority of Thailand","operator:short":"กฟผ.","operator:th":"การไฟฟ้าฝ่ายผลิตแห่งประเทศไทย","operator:wikidata":"Q3050569","operator:wikipedia":"th:การไฟฟ้าฝ่ายผลิตแห่งประเทศไทย","power":"substation","substation":"transmission","voltage":"115000;69000","@type":"way","@id":659492401},"geometry":{"type":"Point","coordinates":[100.6036452,14.3820585]}},{"type":"Feature","id":659640311,"properties":{"name":"สถานีไฟฟ้าแรงสูงนวนคร","name:en":"Nuan Nakhon High Voltage Substation","name:th":"สถานีไฟฟ้าแรงสูงนวนคร","operator":"การไฟฟ้าฝ่ายผลิตแห่งประเทศไทย","operator:en":"Electricity Generating Authority of Thailand","operator:short":"กฟผ.","operator:th":"การไฟฟ้าฝ่ายผลิตแห่งประเทศไทย","operator:wikidata":"Q3050569","power":"substation","substation":"transmission","voltage":"230000;115000;22000","@type":"way","@id":659640311},"geometry":{"type":"Point","coordinates":[100.6107454,14.1155389]}},{"type":"Feature","id":659864504,"properties":{"name":"สถานีไฟฟ้าแรงสูงสระบุรี 1","operator":"EGAT","operator:wikidata":"Q3050569","operator:wikipedia":"th:การไฟฟ้าฝ่ายผลิตแห่งประเทศไทย","power":"substation","substation":"transmission","voltage":"115000","@type":"way","@id":659864504},"geometry":{"type":"Point","coordinates":[100.9142547,14.5133136]}},{"type":"Feature","id":659868020,"properties":{"name":"สถานีไฟฟ้าแรงสูงสระบุรี 4","operator":"EGAT","operator:wikidata":"Q3050569","operator:wikipedia":"th:การไฟฟ้าฝ่ายผลิตแห่งประเทศไทย","power":"substation","substation":"transmission","voltage":"115000","@type":"way","@id":659868020},"geometry":{"type":"Point","coordinates":[100.865253,14.4091855]}},{"type":"Feature","id":659869545,"properties":{"name":"สถานีไฟฟ้าแรงสูงลพบุรี 1","operator":"EGAT","operator:wikidata":"Q3050569","operator:wikipedia":"th:การไฟฟ้าฝ่ายผลิตแห่งประเทศไทย","power":"substation","substation":"transmission","voltage":"115000","@type":"way","@id":659869545},"geometry":{"type":"Point","coordinates":[100.6520797,14.7917545]}},{"type":"Feature","id":671022326,"properties":{"name":"สถานีไฟฟ้านครราชสีมา 4","operator":"PEA","operator:wikidata":"Q13013017","power":"substation","substation":"distribution","@type":"way","@id":671022326},"geometry":{"type":"Point","coordinates":[102.1163896,14.9605033]}},{"type":"Feature","id":671022384,"properties":{"name":"สถานีไฟฟ้าหัวทะเล","operator":"PEA","power":"substation","substation":"distribution","@type":"way","@id":671022384},"geometry":{"type":"Point","coordinates":[102.1719382,14.9222308]}},{"type":"Feature","id":677544575,"properties":{"power":"substation","@type":"way","@id":677544575},"geometry":{"type":"Point","coordinates":[100.6033053,14.2405716]}},{"type":"Feature","id":677544578,"properties":{"power":"substation","@type":"way","@id":677544578},"geometry":{"type":"Point","coordinates":[100.6141462,14.3489054]}},{"type":"Feature","id":677674031,"properties":{"power":"substation","@type":"way","@id":677674031},"geometry":{"type":"Point","coordinates":[100.6102436,14.2501932]}},{"type":"Feature","id":691251433,"properties":{"power":"substation","@type":"way","@id":691251433},"geometry":{"type":"Point","coordinates":[100.6905192,14.3446217]}},{"type":"Feature","id":691251440,"properties":{"power":"substation","@type":"way","@id":691251440},"geometry":{"type":"Point","coordinates":[100.6684116,14.3268726]}},{"type":"Feature","id":691251442,"properties":{"power":"substation","@type":"way","@id":691251442},"geometry":{"type":"Point","coordinates":[100.6598972,14.3228451]}},{"type":"Feature","id":708312518,"properties":{"power":"substation","@type":"way","@id":708312518},"geometry":{"type":"Point","coordinates":[100.8366003,14.3681909]}},{"type":"Feature","id":708312519,"properties":{"power":"substation","@type":"way","@id":708312519},"geometry":{"type":"Point","coordinates":[100.8354257,14.366511]}},{"type":"Feature","id":708316668,"properties":{"power":"substation","@type":"way","@id":708316668},"geometry":{"type":"Point","coordinates":[100.9095469,14.3854755]}},{"type":"Feature","id":708316669,"properties":{"power":"substation","@type":"way","@id":708316669},"geometry":{"type":"Point","coordinates":[100.9069355,14.3862475]}},{"type":"Feature","id":708316670,"properties":{"power":"substation","@type":"way","@id":708316670},"geometry":{"type":"Point","coordinates":[100.9084745,14.3877852]}},{"type":"Feature","id":708317946,"properties":{"name":"สถานีไฟฟ้าแรงสูงสระบุรี 5","operator":"EGAT","operator:wikidata":"Q3050569","operator:wikipedia":"th:การไฟฟ้าฝ่ายผลิตแห่งประเทศไทย","power":"substation","substation":"transmission","voltage":"230000;115000","@type":"way","@id":708317946},"geometry":{"type":"Point","coordinates":[100.8789226,14.3560905]}},{"type":"Feature","id":708317947,"properties":{"name":"สถานีไฟฟ้าสระบุรี 5","operator":"PEA","operator:wikidata":"Q13013017","operator:wikipedia":"th:การไฟฟ้าส่วนภูมิภาค","power":"substation","@type":"way","@id":708317947},"geometry":{"type":"Point","coordinates":[100.8764214,14.3561405]}},{"type":"Feature","id":736570657,"properties":{"operator":"EGAT","operator:wikidata":"Q3050569","operator:wikipedia":"th:การไฟฟ้าฝ่ายผลิตแห่งประเทศไทย","power":"substation","ref":"สถานไฟฟ้าแรงสูงสระบุรี 3","substation":"distribution","voltage":"115000","@type":"way","@id":736570657},"geometry":{"type":"Point","coordinates":[101.0405061,14.6390632]}},{"type":"Feature","id":772283828,"properties":{"power":"substation","voltage":"115000","@type":"way","@id":772283828},"geometry":{"type":"Point","coordinates":[100.7648881,14.574554]}},{"type":"Feature","id":772283830,"properties":{"name":"สถานีไฟฟ้าแรงสูงท่าลาน2(SISCO)","operator":"EGAT","operator:wikidata":"Q3050569","operator:wikipedia":"th:การไฟฟ้าฝ่ายผลิตแห่งประเทศไทย","power":"substation","substation":"transmission","voltage":"115000","@type":"way","@id":772283830},"geometry":{"type":"Point","coordinates":[100.7580007,14.5706122]}},{"type":"Feature","id":790324928,"properties":{"name":"สถานีไฟฟ้าแรงสูงนครนายก","operator":"การไฟฟ้าฝ่ายผลิตแห่งประเทศไทย","operator:en":"Electricity Generating Authority of Thailand","operator:short":"กฟผ.","operator:th":"การไฟฟ้าฝ่ายผลิตแห่งประเทศไทย","operator:wikidata":"Q3050569","operator:wikipedia":"th:การไฟฟ้าฝ่ายผลิตแห่งประเทศไทย","power":"substation","source":"Bing","substation":"yes","voltage":"115000;22000","@type":"way","@id":790324928},"geometry":{"type":"Point","coordinates":[101.0473498,14.2746435]}},{"type":"Feature","id":791621220,"properties":{"name":"สถานีไฟฟ้าแรงสูงพุทธบาท","operator":"EGAT","operator:wikidata":"Q3050569","operator:wikipedia":"th:การไฟฟ้าฝ่ายผลิตแห่งประเทศไทย","power":"substation","substation":"transmission","voltage":"115000","@type":"way","@id":791621220},"geometry":{"type":"Point","coordinates":[100.7833071,14.7526388]}},{"type":"Feature","id":817160587,"properties":{"barrier":"fence","power":"substation","@type":"way","@id":817160587},"geometry":{"type":"Point","coordinates":[101.0074846,14.5666433]}},{"type":"Feature","id":904473776,"properties":{"name":"สถานีไฟฟ้าแรงสูงสีคิ้ว 3","operator":"การไฟฟ้าฝ่ายผลิตแห่งประเทศไทย","operator:en":"Electricity Generating Authority of Thailand","operator:short":"กฟผ.","operator:th":"การไฟฟ้าฝ่ายผลิตแห่งประเทศไทย","operator:wikidata":"Q3050569","power":"substation","substation":"transmission","voltage":"230000;115000","@type":"way","@id":904473776},"geometry":{"type":"Point","coordinates":[101.6546461,14.9901171]}},{"type":"Feature","id":919027004,"properties":{"power":"substation","@type":"way","@id":919027004},"geometry":{"type":"Point","coordinates":[100.7755685,14.442779]}},{"type":"Feature","id":919027009,"properties":{"power":"substation","@type":"way","@id":919027009},"geometry":{"type":"Point","coordinates":[100.7753645,14.4406611]}},{"type":"Feature","id":942632428,"properties":{"power":"substation","@type":"way","@id":942632428},"geometry":{"type":"Point","coordinates":[100.6945674,14.3325369]}},{"type":"Feature","id":942632429,"properties":{"power":"substation","@type":"way","@id":942632429},"geometry":{"type":"Point","coordinates":[100.6967806,14.3327965]}},{"type":"Feature","id":942632430,"properties":{"power":"substation","@type":"way","@id":942632430},"geometry":{"type":"Point","coordinates":[100.6954171,14.3348949]}},{"type":"Feature","id":943323641,"properties":{"power":"substation","substation":"สถานีไฟฟ้าแรงสูงภาชี(สถานีสราญรมณ์)","voltage":"69000","@type":"way","@id":943323641},"geometry":{"type":"Point","coordinates":[100.7787068,14.4044926]}},{"type":"Feature","id":943325954,"properties":{"name":"การไฟฟ้าส่วนภูมิภาคอยุธยา","operator":"PEA","operator:wikidata":"Q13013017","operator:wikipedia":"th:การไฟฟ้าส่วนภูมิภาค","power":"substation","@type":"way","@id":943325954},"geometry":{"type":"Point","coordinates":[100.6027676,14.3839634]}},{"type":"Feature","id":1005324314,"properties":{"power":"substation","@type":"way","@id":1005324314},"geometry":{"type":"Point","coordinates":[101.5656236,14.8319805]}},{"type":"Feature","id":1005987642,"properties":{"power":"substation","@type":"way","@id":1005987642},"geometry":{"type":"Point","coordinates":[100.6376238,14.333894]}},{"type":"Feature","id":1005987643,"properties":{"power":"substation","@type":"way","@id":1005987643},"geometry":{"type":"Point","coordinates":[100.6385368,14.3342784]}},{"type":"Feature","id":1006615365,"properties":{"power":"substation","@type":"way","@id":1006615365},"geometry":{"type":"Point","coordinates":[100.7087396,14.9987793]}},{"type":"Feature","id":1006615368,"properties":{"power":"substation","@type":"way","@id":1006615368},"geometry":{"type":"Point","coordinates":[100.683678,15.0179597]}},{"type":"Feature","id":1006615369,"properties":{"power":"substation","@type":"way","@id":1006615369},"geometry":{"type":"Point","coordinates":[100.6920378,15.0147322]}},{"type":"Feature","id":1006615372,"properties":{"power":"substation","@type":"way","@id":1006615372},"geometry":{"type":"Point","coordinates":[100.8933487,15.0546576]}},{"type":"Feature","id":1006615374,"properties":{"power":"substation","@type":"way","@id":1006615374},"geometry":{"type":"Point","coordinates":[100.7015942,14.9973654]}},{"type":"Feature","id":1038824819,"properties":{"name":"สถานีไฟฟ้าลพบุรี 2","operator":"PEA","operator:wikidata":"Q13013017","operator:wikipedia":"th:การไฟฟ้าส่วนภูมิภาค","power":"substation","substation":"distribution","@type":"way","@id":1038824819},"geometry":{"type":"Point","coordinates":[100.6236,14.8498424]}},{"type":"Feature","id":1039145568,"properties":{"name":"สถานีไฟฟ้าบางปะอิน 2","operator":"PEA","operator:wikidata":"Q13013017","operator:wikipedia":"th:การไฟฟ้าส่วนภูมิภาค","power":"substation","substation":"distribution","@type":"way","@id":1039145568},"geometry":{"type":"Point","coordinates":[100.6108841,14.197306]}},{"type":"Feature","id":1042356542,"properties":{"name":"สถานีไฟฟ้าสระบุรี 2","operator":"PEA","operator:wikidata":"Q13013017","operator:wikipedia":"th:การไฟฟ้าส่วนภูมิภาค","power":"substation","substation":"distribution","@type":"way","@id":1042356542},"geometry":{"type":"Point","coordinates":[101.0821427,14.6140327]}},{"type":"Feature","id":1042358109,"properties":{"name":"สถานีไฟฟ้าท่าลาน 3","operator":"PEA","operator:wikidata":"Q13013017","operator:wikipedia":"th:การไฟฟ้าส่วนภูมิภาค","power":"substation","@type":"way","@id":1042358109},"geometry":{"type":"Point","coordinates":[100.8038971,14.5826781]}},{"type":"Feature","id":1042358897,"properties":{"name":"สถานีไฟฟ้าท่าลาน 1","operator":"PEA","operator:wikidata":"Q13013017","operator:wikipedia":"th:การไฟฟ้าส่วนภูมิภาค","power":"substation","@type":"way","@id":1042358897},"geometry":{"type":"Point","coordinates":[100.7684148,14.5816617]}},{"type":"Feature","id":1042362485,"properties":{"name":"สถานีไฟฟ้าพุทธบาท","operator":"PEA","operator:wikidata":"Q13013017","operator:wikipedia":"th:การไฟฟ้าส่วนภูมิภาค","power":"substation","substation":"distribution","@type":"way","@id":1042362485},"geometry":{"type":"Point","coordinates":[100.7847833,14.7516409]}},{"type":"Feature","id":1044175084,"properties":{"operator":"PEA","operator:wikidata":"Q13013017","operator:wikipedia":"th:การไฟฟ้าส่วนภูมิภาค","power":"substation","@type":"way","@id":1044175084},"geometry":{"type":"Point","coordinates":[101.3183326,14.1468835]}},{"type":"Feature","id":1046568233,"properties":{"name":"สถานีไฟฟ้านครนายก","operator":"PEA","operator:wikidata":"Q13013017","operator:wikipedia":"th:การไฟฟ้าส่วนภูมิภาค","power":"substation","substation":"distribution","@type":"way","@id":1046568233},"geometry":{"type":"Point","coordinates":[101.0471199,14.2738388]}},{"type":"Feature","id":1046572571,"properties":{"operator":"PEA","operator:wikidata":"Q13013017","operator:wikipedia":"th:การไฟฟ้าส่วนภูมิภาค","power":"substation","@type":"way","@id":1046572571},"geometry":{"type":"Point","coordinates":[100.8643314,14.4073345]}},{"type":"Feature","id":1046572572,"properties":{"name":"สถานีไฟฟ้าสระบุรี 4","operator":"PEA","operator:wikidata":"Q13013017","operator:wikipedia":"th:การไฟฟ้าส่วนภูมิภาค","power":"substation","substation":"distribution","@type":"way","@id":1046572572},"geometry":{"type":"Point","coordinates":[100.8648179,14.4089568]}},{"type":"Feature","id":1046575000,"properties":{"operator":"PEA","operator:wikidata":"Q13013017","operator:wikipedia":"th:การไฟฟ้าส่วนภูมิภาค","power":"substation","@type":"way","@id":1046575000},"geometry":{"type":"Point","coordinates":[100.9132202,14.5135058]}},{"type":"Feature","id":1046578243,"properties":{"operator":"PEA","operator:wikidata":"Q13013017","operator:wikipedia":"th:การไฟฟ้าส่วนภูมิภาค","power":"substation","@type":"way","@id":1046578243},"geometry":{"type":"Point","coordinates":[100.6517307,14.7920609]}},{"type":"Feature","id":1047464987,"properties":{"name":"สถานีไฟฟ้าแรงสูงชัยบาดาล","operator":"PEA","operator:wikidata":"Q13013017","operator:wikipedia":"th:การไฟฟ้าส่วนภูมิภาค","power":"substation","@type":"way","@id":1047464987},"geometry":{"type":"Point","coordinates":[101.1043899,15.2066197]}},{"type":"Feature","id":1078235782,"properties":{"name":"สถานีไฟฟ้าย่อย นครราชสีมา 3","operator":"PEA","operator:wikidata":"Q13013017","power":"substation","substation":"yes","voltage":"115000","@type":"way","@id":1078235782},"geometry":{"type":"Point","coordinates":[102.107146,15.0948534]}},{"type":"Feature","id":1192398379,"properties":{"landuse":"industrial","name":"สถานีไฟฟ้าแรงสูงสระบุรี 6","name:en":"Saraburi 6 High Voltage Substation","name:th":"สถานีไฟฟ้าแรงสูงสระบุรี 6","operator":"การไฟฟ้าฝ่ายผลิตแห่งประเทศไทย","operator:en":"Electricity Generating Authority of Thailand","operator:short":"กฟผ.","operator:th":"การไฟฟ้าฝ่ายผลิตแห่งประเทศไทย","operator:wikidata":"Q3050569","power":"substation","voltage":"230000;115000","@type":"way","@id":1192398379},"geometry":{"type":"Point","coordinates":[100.9099487,14.711032]}},{"type":"Feature","id":1194760675,"properties":{"landuse":"industrial","name":"Theparak substation","power":"substation","voltage":"115000","@type":"way","@id":1194760675},"geometry":{"type":"Point","coordinates":[101.4656677,15.2753562]}},{"type":"Feature","id":1195240161,"properties":{"landuse":"industrial","name":"Korat Wind Farm Substation","power":"substation","@type":"way","@id":1195240161},"geometry":{"type":"Point","coordinates":[101.4610084,15.1548432]}},{"type":"Feature","id":1195527365,"properties":{"landuse":"industrial","name":"Wayu / Subplu Wind Farms substation","power":"substation","@type":"way","@id":1195527365},"geometry":{"type":"Point","coordinates":[101.4890881,15.1288731]}},{"type":"Feature","id":1195534978,"properties":{"landuse":"industrial","name":"Mittraphap Wind Farm substation","power":"substation","@type":"way","@id":1195534978},"geometry":{"type":"Point","coordinates":[101.4474441,14.9468322]}},{"type":"Feature","id":1195546621,"properties":{"landuse":"industrial","name":"Sarahnlom Wind Farm substation","power":"substation","@type":"way","@id":1195546621},"geometry":{"type":"Point","coordinates":[101.4928997,15.1737454]}},{"type":"Feature","id":1315367693,"properties":{"name":"โรงไฟฟ้า","power":"substation","@type":"way","@id":1315367693},"geometry":{"type":"Point","coordinates":[101.3453782,14.1628322]}},{"type":"Feature","id":1417169292,"properties":{"power":"substation","@type":"way","@id":1417169292},"geometry":{"type":"Point","coordinates":[100.9746981,14.5637104]}},{"type":"Feature","id":1417169293,"properties":{"power":"substation","substation":"industrial","@type":"way","@id":1417169293},"geometry":{"type":"Point","coordinates":[100.979522,14.5735713]}},{"type":"Feature","id":1526147473,"properties":{"name":"Provincial Electricity Authy Authority Sungnoen Substation","power":"substation","substation":"minor_distribution","@type":"way","@id":1526147473},"geometry":{"type":"Point","coordinates":[101.9161809,14.9042051]}}]}