{"type":"FeatureCollection","features":[{"type":"Feature","id":358617360,"properties":{"waterway":"lock_gate","@type":"node","@id":358617360},"geometry":{"type":"Point","coordinates":[100.5303912,13.7727544]}},{"type":"Feature","id":485570612,"properties":{"name":"ประตูระบายน้ำคลองลัดโพธิ์","name:en":"Lat Pho Canal Floodgate","name:th":"ประตูระบายน้ำคลองลัดโพธิ์","seamark:type":"gate","waterway":"lock_gate","@type":"node","@id":485570612},"geometry":{"type":"Point","coordinates":[100.5392648,13.6668371]}},{"type":"Feature","id":485572159,"properties":{"seamark:type":"gate","waterway":"lock_gate","@type":"node","@id":485572159},"geometry":{"type":"Point","coordinates":[100.5281349,13.6665734]}},{"type":"Feature","id":485572160,"properties":{"seamark:type":"gate","waterway":"lock_gate","@type":"node","@id":485572160},"geometry":{"type":"Point","coordinates":[100.505046,13.6821039]}},{"type":"Feature","id":485572161,"properties":{"seamark:type":"gate","waterway":"lock_gate","@type":"node","@id":485572161},"geometry":{"type":"Point","coordinates":[100.4872903,13.6948192]}},{"type":"Feature","id":680013294,"properties":{"seamark:type":"gate","waterway":"lock_gate","@type":"node","@id":680013294},"geometry":{"type":"Point","coordinates":[100.701068,13.721092]}},{"type":"Feature","id":2343289797,"properties":{"waterway":"sluice_gate","@type":"node","@id":2343289797},"geometry":{"type":"Point","coordinates":[100.7926743,13.9437889]}},{"type":"Feature","id":5630841414,"properties":{"man_made":"pumping_station","name":"สถานีสูบน้ำ คลองบางเขนฝั่งใต้","pumping_station":"wastewater","@type":"node","@id":5630841414},"geometry":{"type":"Point","coordinates":[100.5656111,13.8544093]}},{"type":"Feature","id":5630963550,"properties":{"man_made":"pumping_station","@type":"node","@id":5630963550},"geometry":{"type":"Point","coordinates":[100.5633701,13.849778]}},{"type":"Feature","id":6344532508,"properties":{"seamark:type":"gate","waterway":"lock_gate","@type":"node","@id":6344532508},"geometry":{"type":"Point","coordinates":[100.6622437,13.921521]}},{"type":"Feature","id":7619130195,"properties":{"waterway":"sluice_gate","@type":"node","@id":7619130195},"geometry":{"type":"Point","coordinates":[100.4890816,13.8418068]}},{"type":"Feature","id":7621064814,"properties":{"waterway":"sluice_gate","@type":"node","@id":7621064814},"geometry":{"type":"Point","coordinates":[100.4680518,13.8319526]}},{"type":"Feature","id":8888317740,"properties":{"man_made":"pumping_station","@type":"node","@id":8888317740},"geometry":{"type":"Point","coordinates":[100.4118417,13.9173524]}},{"type":"Feature","id":11082928775,"properties":{"name":"ประตูน้ำคลอง 12","waterway":"sluice_gate","@type":"node","@id":11082928775},"geometry":{"type":"Point","coordinates":[100.8694278,14.0712479]}},{"type":"Feature","id":11510382192,"properties":{"waterway":"sluice_gate","@type":"node","@id":11510382192},"geometry":{"type":"Point","coordinates":[100.5210308,13.6843856]}},{"type":"Feature","id":11510382193,"properties":{"waterway":"sluice_gate","@type":"node","@id":11510382193},"geometry":{"type":"Point","coordinates":[100.5213356,13.6846827]}},{"type":"Feature","id":12456079072,"properties":{"waterway":"sluice_gate","@type":"node","@id":12456079072},"geometry":{"type":"Point","coordinates":[100.5503446,13.6889972]}},{"type":"Feature","id":12715094566,"properties":{"name":"ประตูระบายน้ำสรรพาวุธ","name:th":"ประตูระบายน้ำสรรพาวุธ","waterway":"sluice_gate","@type":"node","@id":12715094566},"geometry":{"type":"Point","coordinates":[100.5320775,13.7977267]}},{"type":"Feature","id":12743957423,"properties":{"waterway":"sluice_gate","@type":"node","@id":12743957423},"geometry":{"type":"Point","coordinates":[100.529526,13.676054]}},{"type":"Feature","id":12743957681,"properties":{"waterway":"sluice_gate","@type":"node","@id":12743957681},"geometry":{"type":"Point","coordinates":[100.5322982,13.6733927]}},{"type":"Feature","id":12743957682,"properties":{"waterway":"sluice_gate","@type":"node","@id":12743957682},"geometry":{"type":"Point","coordinates":[100.5344014,13.6720796]}},{"type":"Feature","id":12743957683,"properties":{"waterway":"sluice_gate","@type":"node","@id":12743957683},"geometry":{"type":"Point","coordinates":[100.5368985,13.6709057]}},{"type":"Feature","id":12743957684,"properties":{"waterway":"sluice_gate","@type":"node","@id":12743957684},"geometry":{"type":"Point","coordinates":[100.5401435,13.6708467]}},{"type":"Feature","id":12743957685,"properties":{"waterway":"sluice_gate","@type":"node","@id":12743957685},"geometry":{"type":"Point","coordinates":[100.5410694,13.6708484]}},{"type":"Feature","id":12743957686,"properties":{"waterway":"sluice_gate","@type":"node","@id":12743957686},"geometry":{"type":"Point","coordinates":[100.545559,13.6730943]}},{"type":"Feature","id":12743957687,"properties":{"waterway":"sluice_gate","@type":"node","@id":12743957687},"geometry":{"type":"Point","coordinates":[100.5483092,13.6767471]}},{"type":"Feature","id":12743957688,"properties":{"waterway":"sluice_gate","@type":"node","@id":12743957688},"geometry":{"type":"Point","coordinates":[100.5501665,13.6810599]}},{"type":"Feature","id":12743957689,"properties":{"waterway":"sluice_gate","@type":"node","@id":12743957689},"geometry":{"type":"Point","coordinates":[100.5505902,13.6834385]}},{"type":"Feature","id":12743957690,"properties":{"waterway":"sluice_gate","@type":"node","@id":12743957690},"geometry":{"type":"Point","coordinates":[100.5504314,13.6854711]}},{"type":"Feature","id":12743957691,"properties":{"waterway":"sluice_gate","@type":"node","@id":12743957691},"geometry":{"type":"Point","coordinates":[100.5498169,13.6909381]}},{"type":"Feature","id":12743957692,"properties":{"waterway":"sluice_gate","@type":"node","@id":12743957692},"geometry":{"type":"Point","coordinates":[100.5496884,13.6926858]}},{"type":"Feature","id":12743957693,"properties":{"waterway":"sluice_gate","@type":"node","@id":12743957693},"geometry":{"type":"Point","coordinates":[100.5485887,13.695086]}},{"type":"Feature","id":12743957694,"properties":{"waterway":"sluice_gate","@type":"node","@id":12743957694},"geometry":{"type":"Point","coordinates":[100.5491265,13.7003206]}},{"type":"Feature","id":12743957695,"properties":{"waterway":"sluice_gate","@type":"node","@id":12743957695},"geometry":{"type":"Point","coordinates":[100.5280618,13.6769505]}},{"type":"Feature","id":12743957696,"properties":{"waterway":"sluice_gate","@type":"node","@id":12743957696},"geometry":{"type":"Point","coordinates":[100.525632,13.6792437]}},{"type":"Feature","id":12743957704,"properties":{"waterway":"sluice_gate","@type":"node","@id":12743957704},"geometry":{"type":"Point","coordinates":[100.5252899,13.6795222]}},{"type":"Feature","id":12743957705,"properties":{"waterway":"sluice_gate","@type":"node","@id":12743957705},"geometry":{"type":"Point","coordinates":[100.5240993,13.6807388]}},{"type":"Feature","id":12743957706,"properties":{"waterway":"sluice_gate","@type":"node","@id":12743957706},"geometry":{"type":"Point","coordinates":[100.5227579,13.6817298]}},{"type":"Feature","id":12743957707,"properties":{"waterway":"sluice_gate","@type":"node","@id":12743957707},"geometry":{"type":"Point","coordinates":[100.5186163,13.685006]}},{"type":"Feature","id":13424020368,"properties":{"seamark:type":"gate","waterway":"lock_gate","@type":"node","@id":13424020368},"geometry":{"type":"Point","coordinates":[100.5010586,13.8188178]}},{"type":"Feature","id":156642814,"properties":{"man_made":"water_works","name":"สถานีสูบน้ำดิบสำแล","name:en":"Sam Lae Raw Water Pumping Station","name:th":"สถานีสูบน้ำดิบสำแล","@type":"way","@id":156642814},"geometry":{"type":"Point","coordinates":[100.5563562,14.0407389]}},{"type":"Feature","id":208195478,"properties":{"man_made":"water_works","@type":"way","@id":208195478},"geometry":{"type":"Point","coordinates":[100.4250585,13.9124225]}},{"type":"Feature","id":451060123,"properties":{"man_made":"water_works","name":"โรงงานผลิตน้ำมหาสวัสดิ์","@type":"way","@id":451060123},"geometry":{"type":"Point","coordinates":[100.4040717,13.808684]}},{"type":"Feature","id":804814103,"properties":{"man_made":"pumping_station","name":"Klong Toey Pumping station","@type":"way","@id":804814103},"geometry":{"type":"Point","coordinates":[100.5812845,13.7153377]}},{"type":"Feature","id":1023353946,"properties":{"man_made":"pumping_station","@type":"way","@id":1023353946},"geometry":{"type":"Point","coordinates":[100.5494437,13.7052227]}},{"type":"Feature","id":1135871328,"properties":{"man_made":"pumping_station","name":"สถานีสูบน้ำปากคลองตลาด","name:en":"Pak Khlong Talad Canal Pumping Station","name:th":"สถานีสูบน้ำปากคลองตลาด","@type":"way","@id":1135871328},"geometry":{"type":"Point","coordinates":[100.4946252,13.7422249]}},{"type":"Feature","id":1157017385,"properties":{"industrial":"water_works","man_made":"water_works","name":"โรงงานผลิตน้ำสามเสน 2","name:th":"โรงงานผลิตน้ำสามเสน 2","@type":"way","@id":1157017385},"geometry":{"type":"Point","coordinates":[100.5315148,13.7739391]}},{"type":"Feature","id":1157019142,"properties":{"industrial":"water_works","man_made":"water_works","name":"โรงงานผลิตน้ำสามเสน 3","name:th":"โรงงานผลิตน้ำสามเสน 3","@type":"way","@id":1157019142},"geometry":{"type":"Point","coordinates":[100.5303424,13.7757467]}},{"type":"Feature","id":1157021909,"properties":{"industrial":"water_works","man_made":"water_works","name":"โรงงานผลิตน้ำธนบุรี","name:en":"Thonburi Water Treatment Plant","name:th":"โรงงานผลิตน้ำธนบุรี","@type":"way","@id":1157021909},"geometry":{"type":"Point","coordinates":[100.4718608,13.7591589]}},{"type":"Feature","id":1157477626,"properties":{"man_made":"water_works","name":"โรงงานผลิตน้ำสามเสน 4","name:th":"โรงงานผลิตน้ำสามเสน 4","@type":"way","@id":1157477626},"geometry":{"type":"Point","coordinates":[100.5292952,13.7735434]}},{"type":"Feature","id":1157477627,"properties":{"man_made":"water_works","name":"โรงงานผลิตน้ำสามเสน 1","name:th":"โรงงานผลิตน้ำสามเสน 1","@type":"way","@id":1157477627},"geometry":{"type":"Point","coordinates":[100.5287681,13.7751308]}},{"type":"Feature","id":1157483546,"properties":{"man_made":"water_works","name":"โรงกำจัดตะกอนธนบุรี","name:en":"Thonburi Sludge Treatment and Disposal Plant","@type":"way","@id":1157483546},"geometry":{"type":"Point","coordinates":[100.4725869,13.7599035]}},{"type":"Feature","id":1217674910,"properties":{"addr:housenumber":"9/2","addr:street":"ถนนนางลิ้นจี่","email":"br05s00@mwa.co.th","fax":"+66 2286 0153","landuse":"commercial","man_made":"water_works","name":"สำนักงานประปาสาขาทุ่งมหาเมฆ","name:en":"Thungmahamek Waterworks Branch Office","name:th":"สำนักงานประปาสาขาทุ่งมหาเมฆ","office":"yes","operator":"การประปานครหลวง","operator:en":"Metropolitan Waterworks Authority","phone":"+66 2286 0172","website":"https://www.mwa.co.th/","@type":"way","@id":1217674910},"geometry":{"type":"Point","coordinates":[100.5396099,13.7155773]}},{"type":"Feature","id":1261842733,"properties":{"man_made":"water_works","@type":"way","@id":1261842733},"geometry":{"type":"Point","coordinates":[100.597606,14.0739939]}},{"type":"Feature","id":1261842734,"properties":{"man_made":"water_works","@type":"way","@id":1261842734},"geometry":{"type":"Point","coordinates":[100.597617,14.0743549]}},{"type":"Feature","id":1287307276,"properties":{"addr:district":"บางขุนเทียน","addr:postcode":"10150","addr:province":"กรุงเทพมหานคร","addr:subdistrict":"ท่าข้าม","building":"yes","man_made":"water_works","name":"ประตูระบายน้ำคลองเชิงตาแพ","name:th":"ประตูระบายน้ำคลองเชิงตาแพ","@type":"way","@id":1287307276},"geometry":{"type":"Point","coordinates":[100.4274117,13.5656202]}},{"type":"Feature","id":1300001527,"properties":{"man_made":"water_works","@type":"way","@id":1300001527},"geometry":{"type":"Point","coordinates":[100.55239,13.73418]}},{"type":"Feature","id":1330591523,"properties":{"man_made":"water_works","name":"บ่อเก็บน้ำใต้ดินปากซอยซอยสุทธิพร 2","name:th":"บ่อเก็บน้ำใต้ดินปากซอยซอยสุทธิพร 2","@type":"way","@id":1330591523},"geometry":{"type":"Point","coordinates":[100.5574203,13.7578698]}},{"type":"Feature","id":1343471304,"properties":{"man_made":"pumping_station","@type":"way","@id":1343471304},"geometry":{"type":"Point","coordinates":[100.9104709,13.4797142]}},{"type":"Feature","id":1343471305,"properties":{"man_made":"pumping_station","@type":"way","@id":1343471305},"geometry":{"type":"Point","coordinates":[100.9112228,13.4796374]}},{"type":"Feature","id":1359530886,"properties":{"building":"yes","man_made":"water_works","name":"สถานีสูบน้ำแพร่งสามัคคี","name:th":"สถานีสูบน้ำแพร่งสามัคคี","@type":"way","@id":1359530886},"geometry":{"type":"Point","coordinates":[100.5598915,13.7337888]}},{"type":"Feature","id":1364454291,"properties":{"seamark:type":"gate","waterway":"lock_gate","@type":"way","@id":1364454291},"geometry":{"type":"Point","coordinates":[100.7045526,13.7972831]}},{"type":"Feature","id":1364915497,"properties":{"man_made":"water_works","@type":"way","@id":1364915497},"geometry":{"type":"Point","coordinates":[100.434132,13.6644419]}},{"type":"Feature","id":1364915498,"properties":{"man_made":"water_works","@type":"way","@id":1364915498},"geometry":{"type":"Point","coordinates":[100.4342258,13.6644065]}},{"type":"Feature","id":1370917964,"properties":{"man_made":"water_works","name":"สถานีสูบจ่ายน้ำพหลโยธิน","name:en":"Phahon Yothin Pupming Station","name:th":"สถานีสูบจ่ายน้ำพหลโยธิน","@type":"way","@id":1370917964},"geometry":{"type":"Point","coordinates":[100.554396,13.7877528]}},{"type":"Feature","id":1379251412,"properties":{"man_made":"water_works","name":"สถานีสูบน้ำที่ 4 สุทธิสาร (ขาเข้า)","name:th":"สถานีสูบน้ำที่ 4 สุทธิสาร (ขาเข้า)","@type":"way","@id":1379251412},"geometry":{"type":"Point","coordinates":[100.5613502,13.7873756]}},{"type":"Feature","id":1411395943,"properties":{"man_made":"water_works","@type":"way","@id":1411395943},"geometry":{"type":"Point","coordinates":[100.5402677,13.7974427]}},{"type":"Feature","id":1456395483,"properties":{"seamark:type":"gate","waterway":"lock_gate","@type":"way","@id":1456395483},"geometry":{"type":"Point","coordinates":[100.7509884,13.9334624]}},{"type":"Feature","id":1476167235,"properties":{"addr:district":"วัฒนา","addr:postcode":"10110","addr:province":"กรุงเทพมหานคร","addr:street":"ซอยสุขุมวิท 11","addr:subdistrict":"คลองเตยเหนือ","building":"yes","building:levels":"1","man_made":"water_works","name":"บ่อสูบน้ำสุขุมวิท 11","name:th":"บ่อสูบน้ำสุขุมวิท 11","operator":"กองระบบท่อระบายน้ำ สำนักการระบายน้ำ","@type":"way","@id":1476167235},"geometry":{"type":"Point","coordinates":[100.5564293,13.7481352]}},{"type":"Feature","id":1556399141,"properties":{"man_made":"water_works","name":"สถานีสูบจ่ายน้ำเพชรเกษม","name:th":"สถานีสูบจ่ายน้ำเพชรเกษม","@type":"way","@id":1556399141},"geometry":{"type":"Point","coordinates":[100.4071718,13.7248617]}},{"type":"Feature","id":1564862379,"properties":{"man_made":"water_works","@type":"way","@id":1564862379},"geometry":{"type":"Point","coordinates":[100.7383368,13.7655445]}},{"type":"Feature","id":1564862392,"properties":{"man_made":"water_works","@type":"way","@id":1564862392},"geometry":{"type":"Point","coordinates":[100.7379022,13.7686511]}},{"type":"Feature","id":2889088201,"properties":{"man_made":"water_works","name":"สถานีจ่ายน้ำระยอง การประปาส่วนภูมิภาค","name:th":"สถานีจ่ายน้ำระยอง การประปาส่วนภูมิภาค","@type":"node","@id":2889088201},"geometry":{"type":"Point","coordinates":[101.276297,12.7124694]}},{"type":"Feature","id":2936085802,"properties":{"man_made":"water_works","name":"โรงกรองน้ำ การประปาบึงสำนักงานใหญ่","name:th":"โรงกรองน้ำ การประปาบึงสำนักงานใหญ่","@type":"node","@id":2936085802},"geometry":{"type":"Point","coordinates":[101.5591494,12.6419499]}},{"type":"Feature","id":3006481259,"properties":{"source":"Bing","waterway":"lock_gate","@type":"node","@id":3006481259},"geometry":{"type":"Point","coordinates":[100.9866617,13.4806381]}},{"type":"Feature","id":3006481260,"properties":{"source":"Bing","waterway":"lock_gate","@type":"node","@id":3006481260},"geometry":{"type":"Point","coordinates":[100.9868882,13.4808274]}},{"type":"Feature","id":8760075808,"properties":{"man_made":"water_works","name":"Bang Phra Water Plant 3 Provincial Waterworks Authority Chonburi Branch","@type":"node","@id":8760075808},"geometry":{"type":"Point","coordinates":[100.957247,13.1987824]}},{"type":"Feature","id":250095597,"properties":{"man_made":"water_works","@type":"way","@id":250095597},"geometry":{"type":"Point","coordinates":[100.9317179,12.8825815]}},{"type":"Feature","id":286498256,"properties":{"area":"yes","man_made":"water_works","name":"สถานีสบน้ำดิบหนองปลาไหล1,2","@type":"way","@id":286498256},"geometry":{"type":"Point","coordinates":[101.2575424,12.9315648]}},{"type":"Feature","id":827083996,"properties":{"man_made":"water_works","@type":"way","@id":827083996},"geometry":{"type":"Point","coordinates":[101.083353,13.4708868]}},{"type":"Feature","id":886273527,"properties":{"man_made":"water_works","@type":"way","@id":886273527},"geometry":{"type":"Point","coordinates":[101.161259,13.0051915]}},{"type":"Feature","id":886277895,"properties":{"man_made":"water_works","@type":"way","@id":886277895},"geometry":{"type":"Point","coordinates":[101.1119348,12.9762837]}},{"type":"Feature","id":886277905,"properties":{"man_made":"water_works","@type":"way","@id":886277905},"geometry":{"type":"Point","coordinates":[101.1392384,13.0025081]}},{"type":"Feature","id":886304296,"properties":{"man_made":"water_works","@type":"way","@id":886304296},"geometry":{"type":"Point","coordinates":[101.0751075,13.0771468]}},{"type":"Feature","id":887878059,"properties":{"man_made":"water_works","@type":"way","@id":887878059},"geometry":{"type":"Point","coordinates":[100.9892988,13.1156433]}},{"type":"Feature","id":946310830,"properties":{"man_made":"water_works","name":"Bang Phra Water Plant 3 Provincial Waterworks Authority Chonburi Branch","@type":"way","@id":946310830},"geometry":{"type":"Point","coordinates":[100.9572158,13.1987507]}},{"type":"Feature","id":1092252372,"properties":{"man_made":"pumping_station","@type":"way","@id":1092252372},"geometry":{"type":"Point","coordinates":[100.9985969,13.4927538]}},{"type":"Feature","id":1092252373,"properties":{"man_made":"pumping_station","@type":"way","@id":1092252373},"geometry":{"type":"Point","coordinates":[100.9978253,13.4932355]}},{"type":"Feature","id":1092252374,"properties":{"man_made":"pumping_station","@type":"way","@id":1092252374},"geometry":{"type":"Point","coordinates":[100.9976811,13.4930816]}},{"type":"Feature","id":1092252376,"properties":{"man_made":"pumping_station","@type":"way","@id":1092252376},"geometry":{"type":"Point","coordinates":[100.998761,13.4928205]}},{"type":"Feature","id":1326199602,"properties":{"man_made":"water_works","name":"โรงกรองน้ำ 1","@type":"way","@id":1326199602},"geometry":{"type":"Point","coordinates":[101.0713928,13.6880492]}},{"type":"Feature","id":1326199603,"properties":{"man_made":"water_works","name":"การประปาส่วนภูมิภาค สาขาฉะเชิงเทรา","@type":"way","@id":1326199603},"geometry":{"type":"Point","coordinates":[101.0720441,13.6886104]}},{"type":"Feature","id":1460647402,"properties":{"man_made":"water_works","name":"สถานีผลิตน้ำมาบประชัน การประปาส่วนภูมิภาคสาขาพัทยา(ชั้นพิเศษ)","@type":"way","@id":1460647402},"geometry":{"type":"Point","coordinates":[100.9634923,12.9455908]}},{"type":"Feature","id":4748487193,"properties":{"man_made":"water_works","name":"การประปาเทศบาลตำบลชะอำ","name:en":"Waterworks Cha-am","name:th":"การประปาเทศบาลตำบลชะอำ","@type":"node","@id":4748487193},"geometry":{"type":"Point","coordinates":[99.9687215,12.7884678]}},{"type":"Feature","id":7756248397,"properties":{"seamark:type":"gate","waterway":"lock_gate","@type":"node","@id":7756248397},"geometry":{"type":"Point","coordinates":[100.0087635,13.4202846]}},{"type":"Feature","id":668168705,"properties":{"seamark:type":"gate","waterway":"lock_gate","@type":"way","@id":668168705},"geometry":{"type":"Point","coordinates":[99.9412287,13.3168311]}},{"type":"Feature","id":668168706,"properties":{"seamark:type":"gate","waterway":"lock_gate","@type":"way","@id":668168706},"geometry":{"type":"Point","coordinates":[99.9412287,13.3167842]}},{"type":"Feature","id":668168710,"properties":{"seamark:type":"gate","waterway":"lock_gate","@type":"way","@id":668168710},"geometry":{"type":"Point","coordinates":[99.9397528,13.3167097]}},{"type":"Feature","id":668168711,"properties":{"seamark:type":"gate","waterway":"lock_gate","@type":"way","@id":668168711},"geometry":{"type":"Point","coordinates":[99.9397813,13.3166446]}},{"type":"Feature","id":668209263,"properties":{"seamark:type":"gate","waterway":"lock_gate","@type":"way","@id":668209263},"geometry":{"type":"Point","coordinates":[99.952933,13.3128221]}},{"type":"Feature","id":1560207700,"properties":{"man_made":"water_works","@type":"way","@id":1560207700},"geometry":{"type":"Point","coordinates":[99.8765507,12.4024257]}},{"type":"Feature","id":1560207709,"properties":{"man_made":"water_works","name":"การประปาส่วนภูมิภาค สาขาปราณบุรี","name:en":"Provincial Waterworks Authority Pran Buri Branch","name:th":"การประปาส่วนภูมิภาค สาขาปราณบุรี","@type":"way","@id":1560207709},"geometry":{"type":"Point","coordinates":[99.9069676,12.383163]}},{"type":"Feature","id":492136539,"properties":{"waterway":"lock_gate","@type":"node","@id":492136539},"geometry":{"type":"Point","coordinates":[100.7421843,14.6538543]}},{"type":"Feature","id":493293681,"properties":{"waterway":"lock_gate","@type":"node","@id":493293681},"geometry":{"type":"Point","coordinates":[100.6630617,14.6613416]}},{"type":"Feature","id":1856064957,"properties":{"waterway":"sluice_gate","@type":"node","@id":1856064957},"geometry":{"type":"Point","coordinates":[100.619558,14.1449223]}},{"type":"Feature","id":1856064961,"properties":{"waterway":"sluice_gate","@type":"node","@id":1856064961},"geometry":{"type":"Point","coordinates":[100.6198012,14.1450351]}},{"type":"Feature","id":2270870959,"properties":{"waterway":"sluice_gate","@type":"node","@id":2270870959},"geometry":{"type":"Point","coordinates":[100.6208181,14.1437291]}},{"type":"Feature","id":2270870964,"properties":{"waterway":"sluice_gate","@type":"node","@id":2270870964},"geometry":{"type":"Point","coordinates":[100.6213702,14.1440168]}},{"type":"Feature","id":2270870971,"properties":{"waterway":"sluice_gate","@type":"node","@id":2270870971},"geometry":{"type":"Point","coordinates":[100.6205963,14.1447506]}},{"type":"Feature","id":2270871072,"properties":{"waterway":"sluice_gate","@type":"node","@id":2270871072},"geometry":{"type":"Point","coordinates":[100.6745552,14.1714852]}},{"type":"Feature","id":11081107720,"properties":{"name":"Saovabha Phongsri Sluice","name:th":"ประตูน้ำเสาวภาผ่องศรี","waterway":"sluice_gate","@type":"node","@id":11081107720},"geometry":{"type":"Point","coordinates":[101.0004331,14.1227141]}},{"type":"Feature","id":11370541273,"properties":{"man_made":"water_works","name":"สำนักงานประปาโชคชัย","@type":"node","@id":11370541273},"geometry":{"type":"Point","coordinates":[102.1624463,14.727444]}},{"type":"Feature","id":944685255,"properties":{"material":"concrete","seamark:type":"gate","waterway":"lock_gate","@type":"way","@id":944685255},"geometry":{"type":"Point","coordinates":[102.0248337,15.0706287]}},{"type":"Feature","id":1193384609,"properties":{"man_made":"pumping_station","name":"สถานีสูบน้ำแก่งคอย-บ้านหมอ","@type":"way","@id":1193384609},"geometry":{"type":"Point","coordinates":[101.0092181,14.6132275]}},{"type":"Feature","id":1227739424,"properties":{"seamark:type":"gate","waterway":"lock_gate","@type":"way","@id":1227739424},"geometry":{"type":"Point","coordinates":[102.1612532,14.9873275]}},{"type":"Feature","id":1227739425,"properties":{"seamark:type":"gate","waterway":"lock_gate","@type":"way","@id":1227739425},"geometry":{"type":"Point","coordinates":[102.1697327,14.9906916]}},{"type":"Feature","id":1227739429,"properties":{"seamark:type":"gate","waterway":"lock_gate","@type":"way","@id":1227739429},"geometry":{"type":"Point","coordinates":[102.180675,14.9918713]}},{"type":"Feature","id":1227755764,"properties":{"seamark:type":"gate","waterway":"lock_gate","@type":"way","@id":1227755764},"geometry":{"type":"Point","coordinates":[102.1958269,14.9957571]}},{"type":"Feature","id":1227763931,"properties":{"seamark:type":"gate","waterway":"lock_gate","@type":"way","@id":1227763931},"geometry":{"type":"Point","coordinates":[102.2103319,15.0046966]}},{"type":"Feature","id":1227773390,"properties":{"seamark:type":"gate","waterway":"lock_gate","@type":"way","@id":1227773390},"geometry":{"type":"Point","coordinates":[102.1584237,14.9921381]}},{"type":"Feature","id":1227773392,"properties":{"seamark:type":"gate","waterway":"lock_gate","@type":"way","@id":1227773392},"geometry":{"type":"Point","coordinates":[102.1820738,14.997801]}},{"type":"Feature","id":1227776491,"properties":{"seamark:type":"gate","waterway":"lock_gate","@type":"way","@id":1227776491},"geometry":{"type":"Point","coordinates":[102.1899342,14.999234]}},{"type":"Feature","id":1227776492,"properties":{"seamark:type":"gate","waterway":"lock_gate","@type":"way","@id":1227776492},"geometry":{"type":"Point","coordinates":[102.198268,15.0029192]}},{"type":"Feature","id":1227776493,"properties":{"seamark:type":"gate","waterway":"lock_gate","@type":"way","@id":1227776493},"geometry":{"type":"Point","coordinates":[102.2038179,15.0076958]}},{"type":"Feature","id":1228590889,"properties":{"seamark:type":"gate","waterway":"lock_gate","@type":"way","@id":1228590889},"geometry":{"type":"Point","coordinates":[102.1532922,15.0303914]}},{"type":"Feature","id":1228590893,"properties":{"seamark:type":"gate","waterway":"lock_gate","@type":"way","@id":1228590893},"geometry":{"type":"Point","coordinates":[102.1570179,15.0277696]}},{"type":"Feature","id":1228593929,"properties":{"seamark:type":"gate","waterway":"lock_gate","@type":"way","@id":1228593929},"geometry":{"type":"Point","coordinates":[102.2122383,15.0237355]}},{"type":"Feature","id":1232405220,"properties":{"seamark:type":"gate","waterway":"lock_gate","@type":"way","@id":1232405220},"geometry":{"type":"Point","coordinates":[102.2212002,15.025598]}},{"type":"Feature","id":1234254440,"properties":{"seamark:type":"gate","waterway":"lock_gate","@type":"way","@id":1234254440},"geometry":{"type":"Point","coordinates":[102.046542,15.0329246]}},{"type":"Feature","id":1559817492,"properties":{"name":"ประตูระบายน้ำปลายคลอง","seamark:type":"gate","waterway":"lock_gate","@type":"way","@id":1559817492},"geometry":{"type":"Point","coordinates":[100.6088358,14.8069625]}}]}