{"type":"FeatureCollection","features":[{"type":"Feature","id":2662859999,"properties":{"communication:radio":"yes","man_made":"tower","tower:type":"communication","@type":"node","@id":2662859999},"geometry":{"type":"Point","coordinates":[100.516834,13.8586089]}},{"type":"Feature","id":2662860025,"properties":{"communication:radio":"yes","man_made":"tower","tower:type":"communication","@type":"node","@id":2662860025},"geometry":{"type":"Point","coordinates":[100.5152774,13.8590071]}},{"type":"Feature","id":11059294619,"properties":{"communication:radio":"yes","man_made":"mast","tower:type":"communication","@type":"node","@id":11059294619},"geometry":{"type":"Point","coordinates":[100.5447761,13.7334448]}},{"type":"Feature","id":12995481899,"properties":{"communication:television":"yes","man_made":"mast","tower:type":"communication","@type":"node","@id":12995481899},"geometry":{"type":"Point","coordinates":[100.5095134,13.7741316]}},{"type":"Feature","id":1314008652,"properties":{"addr:district":"บางขุนเทียน","addr:postcode":"10150","addr:province":"กรุงเทพมหานคร","addr:subdistrict":"ท่าข้าม","building":"yes","communication:radio":"yes","man_made":"tower","tower:type":"communication","@type":"way","@id":1314008652},"geometry":{"type":"Point","coordinates":[100.4349543,13.600409]}},{"type":"Feature","id":13391354943,"properties":{"communication:mobile_phone":"yes","communication:radio":"yes","man_made":"tower","tower:construction":"lattice","tower:type":"communication","@type":"node","@id":13391354943},"geometry":{"type":"Point","coordinates":[101.470232,13.7115103]}},{"type":"Feature","id":13391354944,"properties":{"communication:mobile_phone":"yes","communication:radio":"yes","man_made":"tower","tower:construction":"guyed_lattice","tower:type":"communication","@type":"node","@id":13391354944},"geometry":{"type":"Point","coordinates":[101.4703401,13.7118349]}},{"type":"Feature","id":7746600557,"properties":{"communication:radio":"yes","man_made":"mast","tower:type":"communication","@type":"node","@id":7746600557},"geometry":{"type":"Point","coordinates":[100.0012638,13.4141963]}},{"type":"Feature","id":10259480272,"properties":{"communication:radio":"yes","man_made":"mast","tower:type":"communication","@type":"node","@id":10259480272},"geometry":{"type":"Point","coordinates":[101.6571406,14.6902276]}}]}