{"type":"FeatureCollection","features":[{"type":"Feature","id":1633549681,"properties":{"man_made":"communications_tower","operator":"True Move","@type":"node","@id":1633549681},"geometry":{"type":"Point","coordinates":[100.4909847,13.9514186]}},{"type":"Feature","id":1633550983,"properties":{"man_made":"communications_tower","@type":"node","@id":1633550983},"geometry":{"type":"Point","coordinates":[100.4944153,13.9454678]}},{"type":"Feature","id":151883651,"properties":{"building":"yes","name":"SCB Chaengwattana Building","office":"company","source":"Sign","telecom":"data_center","@type":"way","@id":151883651},"geometry":{"type":"Point","coordinates":[100.5103359,13.9059338]}},{"type":"Feature","id":767732159,"properties":{"building":"data_center","name":"เดอะคลาวด์","name:en":"The Cloud","name:th":"เดอะคลาวด์","telecom":"data_center","@type":"way","@id":767732159},"geometry":{"type":"Point","coordinates":[100.649725,13.8188886]}},{"type":"Feature","id":1457990503,"properties":{"building":"commercial","name":"Telehouse","telecom":"data_center","@type":"way","@id":1457990503},"geometry":{"type":"Point","coordinates":[100.5737617,13.7515162]}},{"type":"Feature","id":6401940023,"properties":{"man_made":"communications_tower","@type":"node","@id":6401940023},"geometry":{"type":"Point","coordinates":[100.9626603,12.6475198]}},{"type":"Feature","id":545388839,"properties":{"building":"industrial","name":"NTT BKK2 Data Center","operator":"NTT","operator:wikidata":"Q1054787","ref":"BKK2","telecom":"data_center","@type":"way","@id":545388839},"geometry":{"type":"Point","coordinates":[101.0489215,13.4432766]}},{"type":"Feature","id":2283723121,"properties":{"man_made":"communications_tower","name":"3BB Node","@type":"node","@id":2283723121},"geometry":{"type":"Point","coordinates":[102.1025516,14.9201508]}},{"type":"Feature","id":9141662594,"properties":{"man_made":"communications_tower","tower:construction":"lattice","tower:type":"communication","@type":"node","@id":9141662594},"geometry":{"type":"Point","coordinates":[101.9121864,15.2197026]}}]}