{"type":"FeatureCollection","features":[{"type":"Feature","id":5677513871,"properties":{"addr:city":"จักรวรรดิ","addr:housenumber":"1172-1174","addr:postcode":"10100","addr:street":"ถนนทรงวาด","description":"ทรงวาดค้าส่ง","name":"ทรงวาดค้าส่งขายทุกอย่าง 10-20 บาท","shop":"wholesale","@type":"node","@id":5677513871},"geometry":{"type":"Point","coordinates":[100.5065554,13.7383363]}},{"type":"Feature","id":7265545759,"properties":{"name":"ข้าวตราฉัตร","name:en":"Royal Umbrella Brand Rice shop","name:th":"ข้าวตราฉัตร","shop":"wholesale","wholesale":"food","@type":"node","@id":7265545759},"geometry":{"type":"Point","coordinates":[100.46991,13.834972]}},{"type":"Feature","id":7628799193,"properties":{"addr:city":"ดินแดง","addr:housenumber":"5407/3-4","addr:postcode":"10400","addr:street":"ถนนประชาสงเคราะห์","currency:THB":"yes","name":"ร้านเป้ ซอยตัน อะไหล่แต่ง","payment:cash":"yes","shop":"wholesale","wholesale":"general","@type":"node","@id":7628799193},"geometry":{"type":"Point","coordinates":[100.5663689,13.7759184]}},{"type":"Feature","id":9604942101,"properties":{"brand":"Makro","brand:wikidata":"Q704606","name":"Makro","shop":"wholesale","@type":"node","@id":9604942101},"geometry":{"type":"Point","coordinates":[100.6402751,13.7665892]}},{"type":"Feature","id":11221711332,"properties":{"addr:hamlet":"1","addr:housenumber":"60","addr:postcode":"11000","addr:subdistrict":"บางไผ่","branch":"นครอินทร์","branch:en":"Nakorn-In","branch:th":"นครอินทร์","brand":"แม็คโคร","brand:en":"Makro","brand:th":"แม็คโคร","brand:wikidata":"Q704606","name":"แม็คโคร","name:en":"Makro","name:th":"แม็คโคร","opening_hours":"Mo-Su 06:00-23:00","shop":"wholesale","website":"https://www.siammakro.co.th/","@type":"node","@id":11221711332},"geometry":{"type":"Point","coordinates":[100.4841505,13.8286078]}},{"type":"Feature","id":11609608602,"properties":{"brand":"แม็คโคร","brand:en":"Makro","brand:th":"แม็คโคร","brand:wikidata":"Q704606","name":"แม็คโคร","name:en":"Makro","name:th":"แม็คโคร","shop":"wholesale","@type":"node","@id":11609608602},"geometry":{"type":"Point","coordinates":[100.5222761,13.7074633]}},{"type":"Feature","id":12570425061,"properties":{"name":"ร้านเครื่องกรองน้ำ ราชา","phone":"0951953926","shop":"wholesale","@type":"node","@id":12570425061},"geometry":{"type":"Point","coordinates":[100.6333186,13.7190647]}},{"type":"Feature","id":12581597987,"properties":{"brand":"แม็คโคร","brand:en":"Makro","brand:th":"แม็คโคร","brand:wikidata":"Q704606","name":"แม็คโคร","name:en":"Makro","name:th":"แม็คโคร","shop":"wholesale","@type":"node","@id":12581597987},"geometry":{"type":"Point","coordinates":[100.646076,13.699184]}},{"type":"Feature","id":14038419692,"properties":{"addr:district":"ภาษีเจริญ","addr:housenumber":"7","addr:postcode":"10160","addr:province":"กรุงเทพมหานคร","addr:street":"ถนนราชมนตรี","addr:subdistrict":"คลองขวาง","check_date":"2026-07-22","check_date:currency:XBT":"2026-07-22","contact:facebook":"https://www.facebook.com/thaicharoencenter/","currency:THB":"yes","currency:XBT":"yes","email":"thaicharoencenteronline@gmail.com","name":"ไทยเจริญเซ็นเตอร์","name:en":"Thai Charoen Center","name:th":"ไทยเจริญเซ็นเตอร์","opening_hours":"Mo-Sa 09:00-18:00","payment:lightning":"yes","payment:lightning_contactless":"no","payment:onchain":"yes","phone":"+66 89 662 2555","shop":"wholesale","wholesale":"general","@type":"node","@id":14038419692},"geometry":{"type":"Point","coordinates":[100.4232884,13.7329387]}},{"type":"Feature","id":26409193,"properties":{"brand":"Makro","brand:wikidata":"Q704606","brand:wikipedia":"en:Makro","building":"yes","name":"Makro","name:en":"Makro","shop":"wholesale","@type":"way","@id":26409193},"geometry":{"type":"Point","coordinates":[100.642592,13.6499413]}},{"type":"Feature","id":40057084,"properties":{"addr:district":"สาทร","addr:postcode":"10120","addr:province":"กรุงเทพมหานคร","addr:subdistrict":"ทุ่งวัดดอน","branch":"Supercentre","brand":"แม็คโคร","brand:en":"Makro","brand:th":"แม็คโคร","brand:wikidata":"Q704606","building":"yes","name":"แม็คโคร","name:en":"Makro","name:th":"แม็คโคร","shop":"wholesale","@type":"way","@id":40057084},"geometry":{"type":"Point","coordinates":[100.5347756,13.7096431]}},{"type":"Feature","id":151983847,"properties":{"brand":"Makro","brand:wikidata":"Q704606","building":"retail","name":"Makro","name:en":"Makro Chaeng Watthana","name:th":"แม็คโคร แจ้งวัฒนะ","opening_hours":"PH,Mo-Su 06:00-22:00","shop":"wholesale","source":"Bing","@type":"way","@id":151983847},"geometry":{"type":"Point","coordinates":[100.5484719,13.8944357]}},{"type":"Feature","id":157116643,"properties":{"brand":"แม็คโคร","brand:en":"Makro","brand:th":"แม็คโคร","brand:wikidata":"Q704606","building":"yes","name":"แม็คโคร","name:en":"Makro","name:th":"แม็คโคร","phone":"+66 2 241 8400","shop":"wholesale","website":"https://www.siammakro.co.th/","@type":"way","@id":157116643},"geometry":{"type":"Point","coordinates":[100.5130161,13.7912188]}},{"type":"Feature","id":251467549,"properties":{"brand":"แม็คโคร","brand:en":"Makro","brand:th":"แม็คโคร","brand:wikidata":"Q704606","building":"yes","name":"แม็คโคร","name:en":"Makro","name:th":"แม็คโคร","shop":"wholesale","@type":"way","@id":251467549},"geometry":{"type":"Point","coordinates":[100.616642,13.9744649]}},{"type":"Feature","id":333227701,"properties":{"brand":"แม็คโคร","brand:en":"Makro","brand:th":"แม็คโคร","brand:wikidata":"Q704606","brand:wikipedia":"en:Makro","building":"yes","name":"แม็คโคร","name:en":"Makro","name:th":"แม็คโคร","shop":"wholesale","@type":"way","@id":333227701},"geometry":{"type":"Point","coordinates":[100.4699246,13.762053]}},{"type":"Feature","id":384813222,"properties":{"brand":"แม็คโคร","brand:en":"Makro","brand:th":"แม็คโคร","brand:wikidata":"Q704606","building":"yes","name":"แม็คโคร","name:en":"Makro","name:th":"แม็คโคร","shop":"wholesale","@type":"way","@id":384813222},"geometry":{"type":"Point","coordinates":[100.3055805,13.8015404]}},{"type":"Feature","id":544340087,"properties":{"brand":"แม็คโคร","brand:en":"Makro","brand:th":"แม็คโคร","brand:wikidata":"Q704606","building":"yes","name":"แม็คโคร","name:en":"Makro","name:th":"แม็คโคร","shop":"wholesale","@type":"way","@id":544340087},"geometry":{"type":"Point","coordinates":[100.5234083,14.0310285]}},{"type":"Feature","id":612189055,"properties":{"addr:city":"Bangkok","addr:district":"วัฒนา","addr:housenumber":"181/2","addr:postcode":"10110","addr:province":"กรุงเทพมหานคร","addr:street":"ถนนสุขุมวิท 71","addr:subdistrict":"พระโขนงเหนือ","branch":"Food Service","brand":"Makro","brand:wikidata":"Q704606","building":"yes","name":"Makro","phone":"+66 2 012 7590","shop":"wholesale","source":"https://www.makro.co.th/th/contact-us/123/","website":"https://www.makro.co.th/","@type":"way","@id":612189055},"geometry":{"type":"Point","coordinates":[100.5954438,13.7187059]}},{"type":"Feature","id":851365917,"properties":{"addr:district":"ลาดกระบัง","addr:postcode":"10520","addr:province":"กรุงเทพมหานคร","brand":"แม็คโคร","brand:en":"Makro","brand:th":"แม็คโคร","brand:wikidata":"Q704606","building":"yes","name":"แม็คโคร","name:en":"Makro","name:th":"แม็คโคร","shop":"wholesale","@type":"way","@id":851365917},"geometry":{"type":"Point","coordinates":[100.727961,13.7227794]}},{"type":"Feature","id":851815461,"properties":{"brand":"Makro","brand:wikidata":"Q704606","brand:wikipedia":"en:Makro","building":"yes","name":"Makro","shop":"wholesale","@type":"way","@id":851815461},"geometry":{"type":"Point","coordinates":[100.6112222,13.7114568]}},{"type":"Feature","id":890074038,"properties":{"brand":"แม็คโคร","brand:en":"Makro","brand:th":"แม็คโคร","brand:wikidata":"Q704606","brand:wikipedia":"en:Makro","building":"yes","name":"แม็คโคร","name:en":"Makro","name:th":"แม็คโคร","shop":"wholesale","@type":"way","@id":890074038},"geometry":{"type":"Point","coordinates":[100.5928077,13.8242873]}},{"type":"Feature","id":895652080,"properties":{"brand":"Makro","brand:wikidata":"Q704606","brand:wikipedia":"en:Makro","building":"yes","name":"Makro","shop":"wholesale","@type":"way","@id":895652080},"geometry":{"type":"Point","coordinates":[100.7118613,13.6352883]}},{"type":"Feature","id":1069556196,"properties":{"building":"yes","operator":"DHL","shop":"wholesale","@type":"way","@id":1069556196},"geometry":{"type":"Point","coordinates":[100.6164399,13.5991654]}},{"type":"Feature","id":1080194655,"properties":{"branch":"Fahkram Khlong 2","brand":"แม็คโคร","brand:en":"Makro","brand:th":"แม็คโคร","brand:wikidata":"Q704606","building":"yes","name":"แม็คโคร","name:en":"Makro","name:th":"แม็คโคร","shop":"wholesale","wholesale":"supermarket","@type":"way","@id":1080194655},"geometry":{"type":"Point","coordinates":[100.6421354,13.9629681]}},{"type":"Feature","id":1125558130,"properties":{"addr:district":"บึงกุ่ม","addr:postcode":"10240","addr:province":"กรุงเทพมหานคร","addr:subdistrict":"คลองกุ่ม","building":"warehouse","shop":"wholesale","@type":"way","@id":1125558130},"geometry":{"type":"Point","coordinates":[100.6506241,13.81022]}},{"type":"Feature","id":1125558139,"properties":{"addr:district":"บึงกุ่ม","addr:postcode":"10240","addr:province":"กรุงเทพมหานคร","addr:subdistrict":"คลองกุ่ม","brand":"Makro","brand:wikidata":"Q704606","building":"yes","name":"Makro","shop":"wholesale","@type":"way","@id":1125558139},"geometry":{"type":"Point","coordinates":[100.6516307,13.8115661]}},{"type":"Feature","id":1316920799,"properties":{"brand":"แม็คโคร","brand:en":"Makro","brand:th":"แม็คโคร","brand:wikidata":"Q704606","building":"yes","name":"แม็คโคร","name:en":"Makro","name:th":"แม็คโคร","shop":"wholesale","@type":"way","@id":1316920799},"geometry":{"type":"Point","coordinates":[100.6177455,13.809057]}},{"type":"Feature","id":1335682828,"properties":{"brand":"แม็คโคร","brand:en":"Makro","brand:th":"แม็คโคร","brand:wikidata":"Q704606","building":"yes","name":"แม็คโคร","name:en":"Makro","name:th":"แม็คโคร","shop":"wholesale","@type":"way","@id":1335682828},"geometry":{"type":"Point","coordinates":[100.4989702,13.6547137]}},{"type":"Feature","id":1395651129,"properties":{"brand":"แม็คโคร","brand:en":"Makro","brand:th":"แม็คโคร","brand:wikidata":"Q704606","building":"yes","name":"แม็คโคร","name:en":"Makro","name:th":"แม็คโคร","shop":"wholesale","@type":"way","@id":1395651129},"geometry":{"type":"Point","coordinates":[100.6251354,13.7537555]}},{"type":"Feature","id":7028209318,"properties":{"description:en":"store sells supplies for coffee and bubble tea shops","shop":"wholesale","wholesale":"foods","@type":"node","@id":7028209318},"geometry":{"type":"Point","coordinates":[100.9902562,13.3637658]}},{"type":"Feature","id":13457514053,"properties":{"addr:district":"เมืองชลบุรี","addr:housenumber":"72/11","addr:place":"หมู่ 1","addr:postcode":"20000","addr:province":"ชลบุรี","addr:street":"ซอย บ้านสวน 9 ซอย 5","addr:subdistrict":"บ้านสวน","mobile":"0955691960","name":"บริษัท วราภรณ์ เทรดดิ้ง 2527 จำกัด","opening_hours":"Mo-Sa 08:30-18:00","operator":"บริษัท วราภรณ์ เทรดดิ้ง 2527 จำกัด","shop":"wholesale","wholesale":"snacks","@type":"node","@id":13457514053},"geometry":{"type":"Point","coordinates":[100.9967833,13.3500934]}},{"type":"Feature","id":200085657,"properties":{"brand":"แม็คโคร","brand:en":"Makro","brand:th":"แม็คโคร","brand:wikidata":"Q704606","building":"warehouse","name":"แม็คโคร","name:en":"Makro","name:th":"แม็คโคร","shop":"wholesale","website":"https://www.siammakro.co.th/","@type":"way","@id":200085657},"geometry":{"type":"Point","coordinates":[100.8946834,12.8977571]}},{"type":"Feature","id":404928433,"properties":{"addr:street":"North Pattaya Road","brand":"แม็คโคร","brand:en":"Makro","brand:th":"แม็คโคร","brand:wikidata":"Q704606","building":"yes","name":"แม็คโคร","name:en":"Makro","name:th":"แม็คโคร","opening_hours":"Mo-Su 06:00-22:00","shop":"wholesale","website":"https://www.siammakro.co.th/","@type":"way","@id":404928433},"geometry":{"type":"Point","coordinates":[100.9024906,12.948315]}},{"type":"Feature","id":965096287,"properties":{"building":"yes","shop":"wholesale","@type":"way","@id":965096287},"geometry":{"type":"Point","coordinates":[101.2107029,12.9823147]}},{"type":"Feature","id":1225891392,"properties":{"brand":"แม็คโคร","brand:en":"Makro","brand:th":"แม็คโคร","brand:wikidata":"Q704606","building":"retail","name":"แม็คโคร","name:en":"Makro","name:th":"แม็คโคร","shop":"wholesale","@type":"way","@id":1225891392},"geometry":{"type":"Point","coordinates":[101.2637356,12.6954215]}},{"type":"Feature","id":1296796125,"properties":{"brand":"แม็คโคร","brand:en":"Makro","brand:th":"แม็คโคร","brand:wikidata":"Q704606","building":"yes","name":"แม็คโคร","name:en":"Makro","name:th":"แม็คโคร","shop":"wholesale","@type":"way","@id":1296796125},"geometry":{"type":"Point","coordinates":[101.0415451,13.719886]}},{"type":"Feature","id":1356062587,"properties":{"building":"yes","name":"ร้านเจ๊บล สาขา 1","name:en":"Jaybon Grocery Store","opening_hours":"Mo-Su 08:00-20:00","shop":"wholesale","@type":"way","@id":1356062587},"geometry":{"type":"Point","coordinates":[100.9179413,12.9199788]}},{"type":"Feature","id":1477755851,"properties":{"brand":"แม็คโคร","brand:en":"Makro","brand:th":"แม็คโคร","brand:wikidata":"Q704606","building":"yes","name":"แม็คโคร","name:en":"Makro","name:th":"แม็คโคร","shop":"wholesale","@type":"way","@id":1477755851},"geometry":{"type":"Point","coordinates":[100.9211873,13.0806054]}},{"type":"Feature","id":9087662646,"properties":{"brand":"Makro","brand:wikidata":"Q704606","brand:wikipedia":"en:Makro","name":"Makro","shop":"wholesale","@type":"node","@id":9087662646},"geometry":{"type":"Point","coordinates":[99.9775297,12.7950957]}},{"type":"Feature","id":311235160,"properties":{"brand":"Makro","brand:wikidata":"Q704606","brand:wikipedia":"en:Makro","building":"yes","name":"Makro","opening_hours":"Mo-Su 06:00-22:00","shop":"wholesale","@type":"way","@id":311235160},"geometry":{"type":"Point","coordinates":[99.8886177,13.1249183]}},{"type":"Feature","id":445535352,"properties":{"brand":"แม็คโคร","brand:en":"Makro","brand:th":"แม็คโคร","brand:wikidata":"Q704606","building":"yes","name":"Makro","name:en":"Makro","name:th":"แม็คโคร","opening_hours":"Mo-Su 06:00-22:00","shop":"wholesale","@type":"way","@id":445535352},"geometry":{"type":"Point","coordinates":[99.9489317,12.6204598]}},{"type":"Feature","id":1378370876,"properties":{"building":"yes","name":"เถ้าแก่เนี้ย 20","shop":"wholesale","@type":"way","@id":1378370876},"geometry":{"type":"Point","coordinates":[99.9490676,13.4195013]}},{"type":"Feature","id":13105611467,"properties":{"check_date":"2025-08-28","name":"WishCo","shop":"wholesale","@type":"node","@id":13105611467},"geometry":{"type":"Point","coordinates":[102.1410894,14.929078]}},{"type":"Feature","id":13461849752,"properties":{"check_date":"2026-01-16","operator":"WishCo","shop":"wholesale","@type":"node","@id":13461849752},"geometry":{"type":"Point","coordinates":[101.951334,14.9525819]}},{"type":"Feature","id":208733135,"properties":{"brand":"แม็คโคร","brand:en":"Makro","brand:th":"แม็คโคร","brand:wikidata":"Q704606","building":"yes","name":"แม็คโคร","name:en":"Makro","name:th":"แม็คโคร","opening_hours":"Mo-Su 08:00-22:00","shop":"wholesale","source":"GPS;sign","@type":"way","@id":208733135},"geometry":{"type":"Point","coordinates":[100.9630576,14.5513984]}},{"type":"Feature","id":336036120,"properties":{"building":"yes","shop":"wholesale","@type":"way","@id":336036120},"geometry":{"type":"Point","coordinates":[102.0913682,14.9783422]}},{"type":"Feature","id":1149539511,"properties":{"brand":"แม็คโคร","brand:en":"Makro","brand:th":"แม็คโคร","brand:wikidata":"Q704606","building":"yes","name":"แม็คโคร","name:en":"Makro","name:th":"แม็คโคร","opening_hours":"06:00-22:00","shop":"wholesale","@type":"way","@id":1149539511},"geometry":{"type":"Point","coordinates":[101.4091684,14.6495066]}},{"type":"Feature","id":1228812833,"properties":{"building":"yes","shop":"wholesale","@type":"way","@id":1228812833},"geometry":{"type":"Point","coordinates":[102.0917018,14.9783232]}},{"type":"Feature","id":1427060334,"properties":{"brand":"แม็คโคร","brand:en":"Makro","brand:th":"แม็คโคร","brand:wikidata":"Q704606","building":"yes","check_date":"2025-12-25","check_date:opening_hours":"2025-12-25","name":"แม็คโคร","name:en":"Makro","name:th":"แม็คโคร","opening_hours":"Mo-Su 06:00-22:00","shop":"wholesale","@type":"way","@id":1427060334},"geometry":{"type":"Point","coordinates":[102.1369529,15.0309972]}},{"type":"Feature","id":1464905657,"properties":{"brand":"แม็คโคร","brand:en":"Makro","brand:th":"แม็คโคร","brand:wikidata":"Q704606","building":"yes","check_date":"2026-01-17","name":"แม็คโคร","name:en":"Makro","name:th":"แม็คโคร","opening_hours":"06:00-22:00","shop":"wholesale","@type":"way","@id":1464905657},"geometry":{"type":"Point","coordinates":[102.0988245,14.9943892]}},{"type":"Feature","id":1466998749,"properties":{"building":"yes","shop":"wholesale","@type":"way","@id":1466998749},"geometry":{"type":"Point","coordinates":[100.6871284,14.7826097]}}]}